{
 "type": "FeatureCollection",
 "features": [
  {
   "type": "Feature",
   "properties": {
    "line": "13",
    "from": "Podgoria",
    "to": "Horia",
    "source": "trasa Podgoria → Calea Radnei → Strada Șiriei → DJ709 → Horia (Strada Ferdinand I); planner CTP nie ma wzorca linii 13, BusMan podaje tylko 2 przystanki; przebieg wyznaczony po grafie OSM 16.09.2026, kierunek powrotny = odwrotność"
   },
   "geometry": {
    "type": "LineString",
    "coordinates": [
     [
      21.324545,
      46.182407
     ],
     [
      21.337905,
      46.180397
     ],
     [
      21.338926,
      46.180409
     ],
     [
      21.340717,
      46.1807
     ],
     [
      21.342332,
      46.180601
     ],
     [
      21.366388,
      46.175286
     ],
     [
      21.366626,
      46.175575
     ],
     [
      21.371594,
      46.178348
     ],
     [
      21.372231,
      46.178858
     ],
     [
      21.372679,
      46.178978
     ],
     [
      21.374662,
      46.180083
     ],
     [
      21.37576,
      46.180286
     ],
     [
      21.375858,
      46.18077
     ],
     [
      21.379063,
      46.182565
     ],
     [
      21.392928,
      46.189551
     ],
     [
      21.41627,
      46.194771
     ],
     [
      21.430572,
      46.199159
     ],
     [
      21.435439,
      46.200396
     ],
     [
      21.438119,
      46.201009
     ],
     [
      21.447312,
      46.202659
     ],
     [
      21.448761,
      46.20315
     ],
     [
      21.453371,
      46.205689
     ],
     [
      21.462874,
      46.208638
     ],
     [
      21.462957,
      46.208501
     ]
    ]
   }
  }
 ]
}