{"type":"FeatureCollection","features":[{"type":"Feature","geometry":{"type":"Point","coordinates":[21.324545,46.182407]},"properties":{"name":"Podgoria","band":0,"modes":"bus","arr":["7A","13","18A","21","31","39b","52","54","Ghioroc","Vladimirescu"],"off":[0,-0.8]}},{"type":"Feature","geometry":{"type":"Point","coordinates":[21.324545,46.182407]},"properties":{"line":"7A","mode":"bus","color":"#0059a9","colorDark":"#00294f","band":0,"off":[-6.8,1.1]}},{"type":"Feature","geometry":{"type":"Point","coordinates":[21.324545,46.182407]},"properties":{"line":"13","mode":"bus","color":"#0059a9","colorDark":"#00294f","band":0,"off":[-3.4,1.1]}},{"type":"Feature","geometry":{"type":"Point","coordinates":[21.324545,46.182407]},"properties":{"line":"18A","mode":"bus","color":"#0059a9","colorDark":"#00294f","band":0,"off":[0,1.1]}},{"type":"Feature","geometry":{"type":"Point","coordinates":[21.324545,46.182407]},"properties":{"line":"21","mode":"bus","color":"#0059a9","colorDark":"#00294f","band":0,"off":[3.4,1.1]}},{"type":"Feature","geometry":{"type":"Point","coordinates":[21.324545,46.182407]},"properties":{"line":"31","mode":"bus","color":"#0059a9","colorDark":"#00294f","band":0,"off":[6.8,1.1]}},{"type":"Feature","geometry":{"type":"Point","coordinates":[21.324545,46.182407]},"properties":{"line":"39b","mode":"bus","color":"#0059a9","colorDark":"#00294f","band":0,"off":[-10.49,3.1]}},{"type":"Feature","geometry":{"type":"Point","coordinates":[21.324545,46.182407]},"properties":{"line":"52","mode":"bus","color":"#0059a9","colorDark":"#00294f","band":0,"off":[-7.09,3.1]}},{"type":"Feature","geometry":{"type":"Point","coordinates":[21.324545,46.182407]},"properties":{"line":"54","mode":"bus","color":"#0059a9","colorDark":"#00294f","band":0,"off":[-3.69,3.1]}},{"type":"Feature","geometry":{"type":"Point","coordinates":[21.324545,46.182407]},"properties":{"line":"Ghioroc","mode":"bus","color":"#0059a9","colorDark":"#00294f","band":0,"off":[0.78,3.1]}},{"type":"Feature","geometry":{"type":"Point","coordinates":[21.324545,46.182407]},"properties":{"line":"Vladimirescu","mode":"bus","color":"#0059a9","colorDark":"#00294f","band":0,"off":[7.87,3.1]}},{"type":"Feature","geometry":{"type":"Point","coordinates":[21.462957,46.208501]},"properties":{"name":"Horia","band":0,"modes":"bus","arr":["13"],"off":[0,-0.8]}},{"type":"Feature","geometry":{"type":"Point","coordinates":[21.462957,46.208501]},"properties":{"line":"13","mode":"bus","color":"#0059a9","colorDark":"#00294f","band":0,"off":[0,1.1]}},{"type":"Feature","geometry":{"type":"Point","coordinates":[21.308936,46.191819]},"properties":{"name":"U.T.A.","band":0,"modes":"bus","arr":["19","49b"],"off":[0,-0.8]}},{"type":"Feature","geometry":{"type":"Point","coordinates":[21.308936,46.191819]},"properties":{"line":"19","mode":"bus","color":"#0059a9","colorDark":"#00294f","band":0,"off":[-1.7,1.1]}},{"type":"Feature","geometry":{"type":"Point","coordinates":[21.308936,46.191819]},"properties":{"line":"49b","mode":"bus","color":"#0059a9","colorDark":"#00294f","band":0,"off":[1.7,1.1]}},{"type":"Feature","geometry":{"type":"Point","coordinates":[21.32177,46.154023]},"properties":{"name":"Caraiman","band":0,"modes":"bus","arr":["49"],"off":[0,-0.8]}},{"type":"Feature","geometry":{"type":"Point","coordinates":[21.32177,46.154023]},"properties":{"line":"49","mode":"bus","color":"#0059a9","colorDark":"#00294f","band":0,"off":[0,1.1]}},{"type":"Feature","geometry":{"type":"Point","coordinates":[21.334448,46.145002]},"properties":{"name":"Gara Aradul Nou","band":0,"modes":"tram,bus","arr":["3","49b"],"off":[0,-0.8]}},{"type":"Feature","geometry":{"type":"Point","coordinates":[21.334448,46.145002]},"properties":{"line":"3","mode":"tram","color":"#d6212b","colorDark":"#7c1116","band":0,"off":[-1.7,1.1]}},{"type":"Feature","geometry":{"type":"Point","coordinates":[21.334448,46.145002]},"properties":{"line":"49b","mode":"bus","color":"#0059a9","colorDark":"#00294f","band":0,"off":[1.7,1.1]}},{"type":"Feature","geometry":{"type":"Point","coordinates":[21.352111,46.131824]},"properties":{"name":"Vântului","band":0,"modes":"bus","arr":["19"],"off":[0,-0.8]}},{"type":"Feature","geometry":{"type":"Point","coordinates":[21.352111,46.131824]},"properties":{"line":"19","mode":"bus","color":"#0059a9","colorDark":"#00294f","band":0,"off":[0,1.1]}},{"type":"Feature","geometry":{"type":"Point","coordinates":[21.348849,46.173028]},"properties":{"name":"Billa","band":0,"modes":"bus","arr":["48"],"off":[0,-0.8]}},{"type":"Feature","geometry":{"type":"Point","coordinates":[21.348849,46.173028]},"properties":{"line":"48","mode":"bus","color":"#0059a9","colorDark":"#00294f","band":0,"off":[0,1.1]}},{"type":"Feature","geometry":{"type":"Point","coordinates":[21.29069,46.163842]},"properties":{"name":"Faleză Sud","band":0,"modes":"bus","arr":["21"],"off":[0,-0.8]}},{"type":"Feature","geometry":{"type":"Point","coordinates":[21.29069,46.163842]},"properties":{"line":"21","mode":"bus","color":"#0059a9","colorDark":"#00294f","band":0,"off":[0,1.1]}},{"type":"Feature","geometry":{"type":"Point","coordinates":[21.323009,46.206593]},"properties":{"name":"Trenului","band":0,"modes":"bus","arr":["31"],"off":[0,-0.8]}},{"type":"Feature","geometry":{"type":"Point","coordinates":[21.323009,46.206593]},"properties":{"line":"31","mode":"bus","color":"#0059a9","colorDark":"#00294f","band":0,"off":[0,1.1]}},{"type":"Feature","geometry":{"type":"Point","coordinates":[21.32057,46.21281]},"properties":{"name":"Arțarului","band":0,"modes":"bus","arr":["39b"],"off":[0,-0.8]}},{"type":"Feature","geometry":{"type":"Point","coordinates":[21.32057,46.21281]},"properties":{"line":"39b","mode":"bus","color":"#0059a9","colorDark":"#00294f","band":0,"off":[0,1.1]}},{"type":"Feature","geometry":{"type":"Point","coordinates":[21.319809,46.16715]},"properties":{"name":"Piața Romană","band":0,"modes":"tram,bus","arr":["1","6","7","16","41","60"],"off":[0,-0.8]}},{"type":"Feature","geometry":{"type":"Point","coordinates":[21.319809,46.16715]},"properties":{"line":"1","mode":"tram","color":"#d6212b","colorDark":"#7c1116","band":0,"off":[-6.8,1.1]}},{"type":"Feature","geometry":{"type":"Point","coordinates":[21.319809,46.16715]},"properties":{"line":"6","mode":"tram","color":"#d6212b","colorDark":"#7c1116","band":0,"off":[-3.4,1.1]}},{"type":"Feature","geometry":{"type":"Point","coordinates":[21.319809,46.16715]},"properties":{"line":"7","mode":"tram","color":"#d6212b","colorDark":"#7c1116","band":0,"off":[0,1.1]}},{"type":"Feature","geometry":{"type":"Point","coordinates":[21.319809,46.16715]},"properties":{"line":"16","mode":"tram","color":"#d6212b","colorDark":"#7c1116","band":0,"off":[3.4,1.1]}},{"type":"Feature","geometry":{"type":"Point","coordinates":[21.319809,46.16715]},"properties":{"line":"41","mode":"bus","color":"#0059a9","colorDark":"#00294f","band":0,"off":[6.8,1.1]}},{"type":"Feature","geometry":{"type":"Point","coordinates":[21.319809,46.16715]},"properties":{"line":"60","mode":"bus","color":"#0059a9","colorDark":"#00294f","band":0,"off":[0,3.1]}},{"type":"Feature","geometry":{"type":"Point","coordinates":[21.276023,46.196695]},"properties":{"name":"Bujac","band":0,"modes":"bus","arr":["41"],"off":[0,-0.8]}},{"type":"Feature","geometry":{"type":"Point","coordinates":[21.276023,46.196695]},"properties":{"line":"41","mode":"bus","color":"#0059a9","colorDark":"#00294f","band":0,"off":[0,1.1]}},{"type":"Feature","geometry":{"type":"Point","coordinates":[21.308249,46.171139]},"properties":{"name":"Parcul Reconcilierii","band":0,"modes":"bus","arr":["46"],"off":[0,-0.8]}},{"type":"Feature","geometry":{"type":"Point","coordinates":[21.308249,46.171139]},"properties":{"line":"46","mode":"bus","color":"#0059a9","colorDark":"#00294f","band":0,"off":[0,1.1]}},{"type":"Feature","geometry":{"type":"Point","coordinates":[21.261799,46.252619]},"properties":{"name":"Cartier San Paolo","band":0,"modes":"bus","arr":["46"],"off":[0,-0.8]}},{"type":"Feature","geometry":{"type":"Point","coordinates":[21.261799,46.252619]},"properties":{"line":"46","mode":"bus","color":"#0059a9","colorDark":"#00294f","band":0,"off":[0,1.1]}},{"type":"Feature","geometry":{"type":"Point","coordinates":[21.378725,46.169664]},"properties":{"name":"Real","band":0,"modes":"bus","arr":["48"],"off":[0,-0.8]}},{"type":"Feature","geometry":{"type":"Point","coordinates":[21.378725,46.169664]},"properties":{"line":"48","mode":"bus","color":"#0059a9","colorDark":"#00294f","band":0,"off":[0,1.1]}},{"type":"Feature","geometry":{"type":"Point","coordinates":[21.349736,46.186]},"properties":{"name":"Grădina Poștei","band":0,"modes":"bus","arr":["52"],"off":[0,-0.8]}},{"type":"Feature","geometry":{"type":"Point","coordinates":[21.349736,46.186]},"properties":{"line":"52","mode":"bus","color":"#0059a9","colorDark":"#00294f","band":0,"off":[0,1.1]}},{"type":"Feature","geometry":{"type":"Point","coordinates":[21.238038,46.17256]},"properties":{"name":"IAS Mureșul","band":0,"modes":"bus","arr":["54"],"off":[0,-0.8]}},{"type":"Feature","geometry":{"type":"Point","coordinates":[21.238038,46.17256]},"properties":{"line":"54","mode":"bus","color":"#0059a9","colorDark":"#00294f","band":0,"off":[0,1.1]}},{"type":"Feature","geometry":{"type":"Point","coordinates":[21.269445,46.204809]},"properties":{"name":"Concordiei","band":0,"modes":"bus","arr":["60"],"off":[0,-0.8]}},{"type":"Feature","geometry":{"type":"Point","coordinates":[21.269445,46.204809]},"properties":{"line":"60","mode":"bus","color":"#0059a9","colorDark":"#00294f","band":0,"off":[0,1.1]}},{"type":"Feature","geometry":{"type":"Point","coordinates":[21.593681,46.156451]},"properties":{"name":"Ghioroc","band":0,"modes":"bus","arr":["Ghioroc"],"off":[0,-0.8]}},{"type":"Feature","geometry":{"type":"Point","coordinates":[21.593681,46.156451]},"properties":{"line":"Ghioroc","mode":"bus","color":"#0059a9","colorDark":"#00294f","band":0,"off":[0,1.1]}},{"type":"Feature","geometry":{"type":"Point","coordinates":[21.586767,46.155135]},"properties":{"name":"Ghioroc 1","band":0,"modes":"bus","arr":["Ghioroc"],"off":[0,-0.8]}},{"type":"Feature","geometry":{"type":"Point","coordinates":[21.586767,46.155135]},"properties":{"line":"Ghioroc","mode":"bus","color":"#0059a9","colorDark":"#00294f","band":0,"off":[0,1.1]}},{"type":"Feature","geometry":{"type":"Point","coordinates":[21.428052,46.156992]},"properties":{"name":"DN 7_2","band":0,"modes":"bus","arr":["Vladimirescu"],"off":[0,-0.8]}},{"type":"Feature","geometry":{"type":"Point","coordinates":[21.428052,46.156992]},"properties":{"line":"Vladimirescu","mode":"bus","color":"#0059a9","colorDark":"#00294f","band":0,"off":[0,1.1]}},{"type":"Feature","geometry":{"type":"Point","coordinates":[21.29164,46.202755]},"properties":{"name":"Făt Frumos","band":0,"modes":"tram","arr":["1","1b","3","7","15","18b"],"off":[0,-0.8]}},{"type":"Feature","geometry":{"type":"Point","coordinates":[21.29164,46.202755]},"properties":{"line":"1","mode":"tram","color":"#d6212b","colorDark":"#7c1116","band":0,"off":[-6.8,1.1]}},{"type":"Feature","geometry":{"type":"Point","coordinates":[21.29164,46.202755]},"properties":{"line":"1b","mode":"tram","color":"#d6212b","colorDark":"#7c1116","band":0,"off":[-3.4,1.1]}},{"type":"Feature","geometry":{"type":"Point","coordinates":[21.29164,46.202755]},"properties":{"line":"3","mode":"tram","color":"#d6212b","colorDark":"#7c1116","band":0,"off":[0,1.1]}},{"type":"Feature","geometry":{"type":"Point","coordinates":[21.29164,46.202755]},"properties":{"line":"7","mode":"tram","color":"#d6212b","colorDark":"#7c1116","band":0,"off":[3.4,1.1]}},{"type":"Feature","geometry":{"type":"Point","coordinates":[21.29164,46.202755]},"properties":{"line":"15","mode":"tram","color":"#d6212b","colorDark":"#7c1116","band":0,"off":[6.8,1.1]}},{"type":"Feature","geometry":{"type":"Point","coordinates":[21.29164,46.202755]},"properties":{"line":"18b","mode":"tram","color":"#d6212b","colorDark":"#7c1116","band":0,"off":[0,3.1]}},{"type":"Feature","geometry":{"type":"Point","coordinates":[21.255503,46.20494]},"properties":{"name":"Platforma Vest","band":0,"modes":"tram","arr":["1b"],"off":[0,-0.8]}},{"type":"Feature","geometry":{"type":"Point","coordinates":[21.255503,46.20494]},"properties":{"line":"1b","mode":"tram","color":"#d6212b","colorDark":"#7c1116","band":0,"off":[0,1.1]}},{"type":"Feature","geometry":{"type":"Point","coordinates":[21.278047,46.209484]},"properties":{"name":"Piața Gai","band":0,"modes":"tram","arr":["6"],"off":[0,-0.8]}},{"type":"Feature","geometry":{"type":"Point","coordinates":[21.278047,46.209484]},"properties":{"line":"6","mode":"tram","color":"#d6212b","colorDark":"#7c1116","band":0,"off":[0,1.1]}},{"type":"Feature","geometry":{"type":"Point","coordinates":[21.342426,46.202794]},"properties":{"name":"Sere","band":0,"modes":"tram","arr":["15","16"],"off":[0,-0.8]}},{"type":"Feature","geometry":{"type":"Point","coordinates":[21.342426,46.202794]},"properties":{"line":"15","mode":"tram","color":"#d6212b","colorDark":"#7c1116","band":0,"off":[-1.7,1.1]}},{"type":"Feature","geometry":{"type":"Point","coordinates":[21.342426,46.202794]},"properties":{"line":"16","mode":"tram","color":"#d6212b","colorDark":"#7c1116","band":0,"off":[1.7,1.1]}},{"type":"Feature","geometry":{"type":"Point","coordinates":[21.324545,46.182407]},"properties":{"name":"Podgoria","band":1,"modes":"bus","arr":["7A","13","18A","21","31","39b","52","54","Ghioroc","Vladimirescu"],"off":[0,-0.8]}},{"type":"Feature","geometry":{"type":"Point","coordinates":[21.324545,46.182407]},"properties":{"line":"7A","mode":"bus","color":"#0059a9","colorDark":"#00294f","band":1,"off":[-6.8,1.1]}},{"type":"Feature","geometry":{"type":"Point","coordinates":[21.324545,46.182407]},"properties":{"line":"13","mode":"bus","color":"#0059a9","colorDark":"#00294f","band":1,"off":[-3.4,1.1]}},{"type":"Feature","geometry":{"type":"Point","coordinates":[21.324545,46.182407]},"properties":{"line":"18A","mode":"bus","color":"#0059a9","colorDark":"#00294f","band":1,"off":[0,1.1]}},{"type":"Feature","geometry":{"type":"Point","coordinates":[21.324545,46.182407]},"properties":{"line":"21","mode":"bus","color":"#0059a9","colorDark":"#00294f","band":1,"off":[3.4,1.1]}},{"type":"Feature","geometry":{"type":"Point","coordinates":[21.324545,46.182407]},"properties":{"line":"31","mode":"bus","color":"#0059a9","colorDark":"#00294f","band":1,"off":[6.8,1.1]}},{"type":"Feature","geometry":{"type":"Point","coordinates":[21.324545,46.182407]},"properties":{"line":"39b","mode":"bus","color":"#0059a9","colorDark":"#00294f","band":1,"off":[-10.49,3.1]}},{"type":"Feature","geometry":{"type":"Point","coordinates":[21.324545,46.182407]},"properties":{"line":"52","mode":"bus","color":"#0059a9","colorDark":"#00294f","band":1,"off":[-7.09,3.1]}},{"type":"Feature","geometry":{"type":"Point","coordinates":[21.324545,46.182407]},"properties":{"line":"54","mode":"bus","color":"#0059a9","colorDark":"#00294f","band":1,"off":[-3.69,3.1]}},{"type":"Feature","geometry":{"type":"Point","coordinates":[21.324545,46.182407]},"properties":{"line":"Ghioroc","mode":"bus","color":"#0059a9","colorDark":"#00294f","band":1,"off":[0.78,3.1]}},{"type":"Feature","geometry":{"type":"Point","coordinates":[21.324545,46.182407]},"properties":{"line":"Vladimirescu","mode":"bus","color":"#0059a9","colorDark":"#00294f","band":1,"off":[7.87,3.1]}},{"type":"Feature","geometry":{"type":"Point","coordinates":[21.462957,46.208501]},"properties":{"name":"Horia","band":1,"modes":"bus","arr":["13"],"off":[0,-0.8]}},{"type":"Feature","geometry":{"type":"Point","coordinates":[21.462957,46.208501]},"properties":{"line":"13","mode":"bus","color":"#0059a9","colorDark":"#00294f","band":1,"off":[0,1.1]}},{"type":"Feature","geometry":{"type":"Point","coordinates":[21.308936,46.191819]},"properties":{"name":"U.T.A.","band":1,"modes":"bus","arr":["19","49b"],"off":[0,-0.8]}},{"type":"Feature","geometry":{"type":"Point","coordinates":[21.308936,46.191819]},"properties":{"line":"19","mode":"bus","color":"#0059a9","colorDark":"#00294f","band":1,"off":[-1.7,1.1]}},{"type":"Feature","geometry":{"type":"Point","coordinates":[21.308936,46.191819]},"properties":{"line":"49b","mode":"bus","color":"#0059a9","colorDark":"#00294f","band":1,"off":[1.7,1.1]}},{"type":"Feature","geometry":{"type":"Point","coordinates":[21.32177,46.154023]},"properties":{"name":"Caraiman","band":1,"modes":"bus","arr":["49"],"off":[0,-0.8]}},{"type":"Feature","geometry":{"type":"Point","coordinates":[21.32177,46.154023]},"properties":{"line":"49","mode":"bus","color":"#0059a9","colorDark":"#00294f","band":1,"off":[0,1.1]}},{"type":"Feature","geometry":{"type":"Point","coordinates":[21.334448,46.145002]},"properties":{"name":"Gara Aradul Nou","band":1,"modes":"tram,bus","arr":["3","49b"],"off":[0,-0.8]}},{"type":"Feature","geometry":{"type":"Point","coordinates":[21.334448,46.145002]},"properties":{"line":"3","mode":"tram","color":"#d6212b","colorDark":"#7c1116","band":1,"off":[-1.7,1.1]}},{"type":"Feature","geometry":{"type":"Point","coordinates":[21.334448,46.145002]},"properties":{"line":"49b","mode":"bus","color":"#0059a9","colorDark":"#00294f","band":1,"off":[1.7,1.1]}},{"type":"Feature","geometry":{"type":"Point","coordinates":[21.352111,46.131824]},"properties":{"name":"Vântului","band":1,"modes":"bus","arr":["19"],"off":[0,-0.8]}},{"type":"Feature","geometry":{"type":"Point","coordinates":[21.352111,46.131824]},"properties":{"line":"19","mode":"bus","color":"#0059a9","colorDark":"#00294f","band":1,"off":[0,1.1]}},{"type":"Feature","geometry":{"type":"Point","coordinates":[21.348849,46.173028]},"properties":{"name":"Billa","band":1,"modes":"bus","arr":["48"],"off":[0,-0.8]}},{"type":"Feature","geometry":{"type":"Point","coordinates":[21.348849,46.173028]},"properties":{"line":"48","mode":"bus","color":"#0059a9","colorDark":"#00294f","band":1,"off":[0,1.1]}},{"type":"Feature","geometry":{"type":"Point","coordinates":[21.29069,46.163842]},"properties":{"name":"Faleză Sud","band":1,"modes":"bus","arr":["21"],"off":[0,-0.8]}},{"type":"Feature","geometry":{"type":"Point","coordinates":[21.29069,46.163842]},"properties":{"line":"21","mode":"bus","color":"#0059a9","colorDark":"#00294f","band":1,"off":[0,1.1]}},{"type":"Feature","geometry":{"type":"Point","coordinates":[21.323009,46.206593]},"properties":{"name":"Trenului","band":1,"modes":"bus","arr":["31"],"off":[0,-0.8]}},{"type":"Feature","geometry":{"type":"Point","coordinates":[21.323009,46.206593]},"properties":{"line":"31","mode":"bus","color":"#0059a9","colorDark":"#00294f","band":1,"off":[0,1.1]}},{"type":"Feature","geometry":{"type":"Point","coordinates":[21.32057,46.21281]},"properties":{"name":"Arțarului","band":1,"modes":"bus","arr":["39b"],"off":[0,-0.8]}},{"type":"Feature","geometry":{"type":"Point","coordinates":[21.32057,46.21281]},"properties":{"line":"39b","mode":"bus","color":"#0059a9","colorDark":"#00294f","band":1,"off":[0,1.1]}},{"type":"Feature","geometry":{"type":"Point","coordinates":[21.319809,46.16715]},"properties":{"name":"Piața Romană","band":1,"modes":"tram,bus","arr":["1","6","7","16","41","60"],"off":[0,-0.8]}},{"type":"Feature","geometry":{"type":"Point","coordinates":[21.319809,46.16715]},"properties":{"line":"1","mode":"tram","color":"#d6212b","colorDark":"#7c1116","band":1,"off":[-6.8,1.1]}},{"type":"Feature","geometry":{"type":"Point","coordinates":[21.319809,46.16715]},"properties":{"line":"6","mode":"tram","color":"#d6212b","colorDark":"#7c1116","band":1,"off":[-3.4,1.1]}},{"type":"Feature","geometry":{"type":"Point","coordinates":[21.319809,46.16715]},"properties":{"line":"7","mode":"tram","color":"#d6212b","colorDark":"#7c1116","band":1,"off":[0,1.1]}},{"type":"Feature","geometry":{"type":"Point","coordinates":[21.319809,46.16715]},"properties":{"line":"16","mode":"tram","color":"#d6212b","colorDark":"#7c1116","band":1,"off":[3.4,1.1]}},{"type":"Feature","geometry":{"type":"Point","coordinates":[21.319809,46.16715]},"properties":{"line":"41","mode":"bus","color":"#0059a9","colorDark":"#00294f","band":1,"off":[6.8,1.1]}},{"type":"Feature","geometry":{"type":"Point","coordinates":[21.319809,46.16715]},"properties":{"line":"60","mode":"bus","color":"#0059a9","colorDark":"#00294f","band":1,"off":[0,3.1]}},{"type":"Feature","geometry":{"type":"Point","coordinates":[21.276023,46.196695]},"properties":{"name":"Bujac","band":1,"modes":"bus","arr":["41"],"off":[0,-0.8]}},{"type":"Feature","geometry":{"type":"Point","coordinates":[21.276023,46.196695]},"properties":{"line":"41","mode":"bus","color":"#0059a9","colorDark":"#00294f","band":1,"off":[0,1.1]}},{"type":"Feature","geometry":{"type":"Point","coordinates":[21.308249,46.171139]},"properties":{"name":"Parcul Reconcilierii","band":1,"modes":"bus","arr":["46"],"off":[0,-0.8]}},{"type":"Feature","geometry":{"type":"Point","coordinates":[21.308249,46.171139]},"properties":{"line":"46","mode":"bus","color":"#0059a9","colorDark":"#00294f","band":1,"off":[0,1.1]}},{"type":"Feature","geometry":{"type":"Point","coordinates":[21.261799,46.252619]},"properties":{"name":"Cartier San Paolo","band":1,"modes":"bus","arr":["46"],"off":[0,-0.8]}},{"type":"Feature","geometry":{"type":"Point","coordinates":[21.261799,46.252619]},"properties":{"line":"46","mode":"bus","color":"#0059a9","colorDark":"#00294f","band":1,"off":[0,1.1]}},{"type":"Feature","geometry":{"type":"Point","coordinates":[21.378725,46.169664]},"properties":{"name":"Real","band":1,"modes":"bus","arr":["48"],"off":[0,-0.8]}},{"type":"Feature","geometry":{"type":"Point","coordinates":[21.378725,46.169664]},"properties":{"line":"48","mode":"bus","color":"#0059a9","colorDark":"#00294f","band":1,"off":[0,1.1]}},{"type":"Feature","geometry":{"type":"Point","coordinates":[21.349736,46.186]},"properties":{"name":"Grădina Poștei","band":1,"modes":"bus","arr":["52"],"off":[0,-0.8]}},{"type":"Feature","geometry":{"type":"Point","coordinates":[21.349736,46.186]},"properties":{"line":"52","mode":"bus","color":"#0059a9","colorDark":"#00294f","band":1,"off":[0,1.1]}},{"type":"Feature","geometry":{"type":"Point","coordinates":[21.238038,46.17256]},"properties":{"name":"IAS Mureșul","band":1,"modes":"bus","arr":["54"],"off":[0,-0.8]}},{"type":"Feature","geometry":{"type":"Point","coordinates":[21.238038,46.17256]},"properties":{"line":"54","mode":"bus","color":"#0059a9","colorDark":"#00294f","band":1,"off":[0,1.1]}},{"type":"Feature","geometry":{"type":"Point","coordinates":[21.269445,46.204809]},"properties":{"name":"Concordiei","band":1,"modes":"bus","arr":["60"],"off":[0,-0.8]}},{"type":"Feature","geometry":{"type":"Point","coordinates":[21.269445,46.204809]},"properties":{"line":"60","mode":"bus","color":"#0059a9","colorDark":"#00294f","band":1,"off":[0,1.1]}},{"type":"Feature","geometry":{"type":"Point","coordinates":[21.593681,46.156451]},"properties":{"name":"Ghioroc","band":1,"modes":"bus","arr":["Ghioroc"],"off":[0,-0.8]}},{"type":"Feature","geometry":{"type":"Point","coordinates":[21.593681,46.156451]},"properties":{"line":"Ghioroc","mode":"bus","color":"#0059a9","colorDark":"#00294f","band":1,"off":[0,1.1]}},{"type":"Feature","geometry":{"type":"Point","coordinates":[21.586767,46.155135]},"properties":{"name":"Ghioroc 1","band":1,"modes":"bus","arr":["Ghioroc"],"off":[0,-0.8]}},{"type":"Feature","geometry":{"type":"Point","coordinates":[21.586767,46.155135]},"properties":{"line":"Ghioroc","mode":"bus","color":"#0059a9","colorDark":"#00294f","band":1,"off":[0,1.1]}},{"type":"Feature","geometry":{"type":"Point","coordinates":[21.428052,46.156992]},"properties":{"name":"DN 7_2","band":1,"modes":"bus","arr":["Vladimirescu"],"off":[0,-0.8]}},{"type":"Feature","geometry":{"type":"Point","coordinates":[21.428052,46.156992]},"properties":{"line":"Vladimirescu","mode":"bus","color":"#0059a9","colorDark":"#00294f","band":1,"off":[0,1.1]}},{"type":"Feature","geometry":{"type":"Point","coordinates":[21.29164,46.202755]},"properties":{"name":"Făt Frumos","band":1,"modes":"tram","arr":["1","1b","3","7","15","18b"],"off":[0,-0.8]}},{"type":"Feature","geometry":{"type":"Point","coordinates":[21.29164,46.202755]},"properties":{"line":"1","mode":"tram","color":"#d6212b","colorDark":"#7c1116","band":1,"off":[-6.8,1.1]}},{"type":"Feature","geometry":{"type":"Point","coordinates":[21.29164,46.202755]},"properties":{"line":"1b","mode":"tram","color":"#d6212b","colorDark":"#7c1116","band":1,"off":[-3.4,1.1]}},{"type":"Feature","geometry":{"type":"Point","coordinates":[21.29164,46.202755]},"properties":{"line":"3","mode":"tram","color":"#d6212b","colorDark":"#7c1116","band":1,"off":[0,1.1]}},{"type":"Feature","geometry":{"type":"Point","coordinates":[21.29164,46.202755]},"properties":{"line":"7","mode":"tram","color":"#d6212b","colorDark":"#7c1116","band":1,"off":[3.4,1.1]}},{"type":"Feature","geometry":{"type":"Point","coordinates":[21.29164,46.202755]},"properties":{"line":"15","mode":"tram","color":"#d6212b","colorDark":"#7c1116","band":1,"off":[6.8,1.1]}},{"type":"Feature","geometry":{"type":"Point","coordinates":[21.29164,46.202755]},"properties":{"line":"18b","mode":"tram","color":"#d6212b","colorDark":"#7c1116","band":1,"off":[0,3.1]}},{"type":"Feature","geometry":{"type":"Point","coordinates":[21.255503,46.20494]},"properties":{"name":"Platforma Vest","band":1,"modes":"tram","arr":["1b"],"off":[0,-0.8]}},{"type":"Feature","geometry":{"type":"Point","coordinates":[21.255503,46.20494]},"properties":{"line":"1b","mode":"tram","color":"#d6212b","colorDark":"#7c1116","band":1,"off":[0,1.1]}},{"type":"Feature","geometry":{"type":"Point","coordinates":[21.278047,46.209484]},"properties":{"name":"Piața Gai","band":1,"modes":"tram","arr":["6"],"off":[0,-0.8]}},{"type":"Feature","geometry":{"type":"Point","coordinates":[21.278047,46.209484]},"properties":{"line":"6","mode":"tram","color":"#d6212b","colorDark":"#7c1116","band":1,"off":[0,1.1]}},{"type":"Feature","geometry":{"type":"Point","coordinates":[21.342426,46.202794]},"properties":{"name":"Sere","band":1,"modes":"tram","arr":["15","16"],"off":[0,-0.8]}},{"type":"Feature","geometry":{"type":"Point","coordinates":[21.342426,46.202794]},"properties":{"line":"15","mode":"tram","color":"#d6212b","colorDark":"#7c1116","band":1,"off":[-1.7,1.1]}},{"type":"Feature","geometry":{"type":"Point","coordinates":[21.342426,46.202794]},"properties":{"line":"16","mode":"tram","color":"#d6212b","colorDark":"#7c1116","band":1,"off":[1.7,1.1]}},{"type":"Feature","geometry":{"type":"Point","coordinates":[21.324545,46.182407]},"properties":{"name":"Podgoria","band":2,"modes":"bus","arr":["7A","13","18A","21","31","39b","52","54","Ghioroc","Vladimirescu"],"off":[0,-0.8]}},{"type":"Feature","geometry":{"type":"Point","coordinates":[21.324545,46.182407]},"properties":{"line":"7A","mode":"bus","color":"#0059a9","colorDark":"#00294f","band":2,"off":[-6.8,1.1]}},{"type":"Feature","geometry":{"type":"Point","coordinates":[21.324545,46.182407]},"properties":{"line":"13","mode":"bus","color":"#0059a9","colorDark":"#00294f","band":2,"off":[-3.4,1.1]}},{"type":"Feature","geometry":{"type":"Point","coordinates":[21.324545,46.182407]},"properties":{"line":"18A","mode":"bus","color":"#0059a9","colorDark":"#00294f","band":2,"off":[0,1.1]}},{"type":"Feature","geometry":{"type":"Point","coordinates":[21.324545,46.182407]},"properties":{"line":"21","mode":"bus","color":"#0059a9","colorDark":"#00294f","band":2,"off":[3.4,1.1]}},{"type":"Feature","geometry":{"type":"Point","coordinates":[21.324545,46.182407]},"properties":{"line":"31","mode":"bus","color":"#0059a9","colorDark":"#00294f","band":2,"off":[6.8,1.1]}},{"type":"Feature","geometry":{"type":"Point","coordinates":[21.324545,46.182407]},"properties":{"line":"39b","mode":"bus","color":"#0059a9","colorDark":"#00294f","band":2,"off":[-10.49,3.1]}},{"type":"Feature","geometry":{"type":"Point","coordinates":[21.324545,46.182407]},"properties":{"line":"52","mode":"bus","color":"#0059a9","colorDark":"#00294f","band":2,"off":[-7.09,3.1]}},{"type":"Feature","geometry":{"type":"Point","coordinates":[21.324545,46.182407]},"properties":{"line":"54","mode":"bus","color":"#0059a9","colorDark":"#00294f","band":2,"off":[-3.69,3.1]}},{"type":"Feature","geometry":{"type":"Point","coordinates":[21.324545,46.182407]},"properties":{"line":"Ghioroc","mode":"bus","color":"#0059a9","colorDark":"#00294f","band":2,"off":[0.78,3.1]}},{"type":"Feature","geometry":{"type":"Point","coordinates":[21.324545,46.182407]},"properties":{"line":"Vladimirescu","mode":"bus","color":"#0059a9","colorDark":"#00294f","band":2,"off":[7.87,3.1]}},{"type":"Feature","geometry":{"type":"Point","coordinates":[21.462957,46.208501]},"properties":{"name":"Horia","band":2,"modes":"bus","arr":["13"],"off":[0,-0.8]}},{"type":"Feature","geometry":{"type":"Point","coordinates":[21.462957,46.208501]},"properties":{"line":"13","mode":"bus","color":"#0059a9","colorDark":"#00294f","band":2,"off":[0,1.1]}},{"type":"Feature","geometry":{"type":"Point","coordinates":[21.308936,46.191819]},"properties":{"name":"U.T.A.","band":2,"modes":"bus","arr":["19","49b"],"off":[0,-0.8]}},{"type":"Feature","geometry":{"type":"Point","coordinates":[21.308936,46.191819]},"properties":{"line":"19","mode":"bus","color":"#0059a9","colorDark":"#00294f","band":2,"off":[-1.7,1.1]}},{"type":"Feature","geometry":{"type":"Point","coordinates":[21.308936,46.191819]},"properties":{"line":"49b","mode":"bus","color":"#0059a9","colorDark":"#00294f","band":2,"off":[1.7,1.1]}},{"type":"Feature","geometry":{"type":"Point","coordinates":[21.32177,46.154023]},"properties":{"name":"Caraiman","band":2,"modes":"bus","arr":["49"],"off":[0,-0.8]}},{"type":"Feature","geometry":{"type":"Point","coordinates":[21.32177,46.154023]},"properties":{"line":"49","mode":"bus","color":"#0059a9","colorDark":"#00294f","band":2,"off":[0,1.1]}},{"type":"Feature","geometry":{"type":"Point","coordinates":[21.334448,46.145002]},"properties":{"name":"Gara Aradul Nou","band":2,"modes":"tram,bus","arr":["3","49b"],"off":[0,-0.8]}},{"type":"Feature","geometry":{"type":"Point","coordinates":[21.334448,46.145002]},"properties":{"line":"3","mode":"tram","color":"#d6212b","colorDark":"#7c1116","band":2,"off":[-1.7,1.1]}},{"type":"Feature","geometry":{"type":"Point","coordinates":[21.334448,46.145002]},"properties":{"line":"49b","mode":"bus","color":"#0059a9","colorDark":"#00294f","band":2,"off":[1.7,1.1]}},{"type":"Feature","geometry":{"type":"Point","coordinates":[21.352111,46.131824]},"properties":{"name":"Vântului","band":2,"modes":"bus","arr":["19"],"off":[0,-0.8]}},{"type":"Feature","geometry":{"type":"Point","coordinates":[21.352111,46.131824]},"properties":{"line":"19","mode":"bus","color":"#0059a9","colorDark":"#00294f","band":2,"off":[0,1.1]}},{"type":"Feature","geometry":{"type":"Point","coordinates":[21.348849,46.173028]},"properties":{"name":"Billa","band":2,"modes":"bus","arr":["48"],"off":[0,-0.8]}},{"type":"Feature","geometry":{"type":"Point","coordinates":[21.348849,46.173028]},"properties":{"line":"48","mode":"bus","color":"#0059a9","colorDark":"#00294f","band":2,"off":[0,1.1]}},{"type":"Feature","geometry":{"type":"Point","coordinates":[21.29069,46.163842]},"properties":{"name":"Faleză Sud","band":2,"modes":"bus","arr":["21"],"off":[0,-0.8]}},{"type":"Feature","geometry":{"type":"Point","coordinates":[21.29069,46.163842]},"properties":{"line":"21","mode":"bus","color":"#0059a9","colorDark":"#00294f","band":2,"off":[0,1.1]}},{"type":"Feature","geometry":{"type":"Point","coordinates":[21.323009,46.206593]},"properties":{"name":"Trenului","band":2,"modes":"bus","arr":["31"],"off":[0,-0.8]}},{"type":"Feature","geometry":{"type":"Point","coordinates":[21.323009,46.206593]},"properties":{"line":"31","mode":"bus","color":"#0059a9","colorDark":"#00294f","band":2,"off":[0,1.1]}},{"type":"Feature","geometry":{"type":"Point","coordinates":[21.32057,46.21281]},"properties":{"name":"Arțarului","band":2,"modes":"bus","arr":["39b"],"off":[0,-0.8]}},{"type":"Feature","geometry":{"type":"Point","coordinates":[21.32057,46.21281]},"properties":{"line":"39b","mode":"bus","color":"#0059a9","colorDark":"#00294f","band":2,"off":[0,1.1]}},{"type":"Feature","geometry":{"type":"Point","coordinates":[21.319935,46.166461]},"properties":{"name":"Piața Romană","band":2,"modes":"bus","arr":["41","60"],"off":[0,-0.8]}},{"type":"Feature","geometry":{"type":"Point","coordinates":[21.319935,46.166461]},"properties":{"line":"41","mode":"bus","color":"#0059a9","colorDark":"#00294f","band":2,"off":[-1.7,1.1]}},{"type":"Feature","geometry":{"type":"Point","coordinates":[21.319935,46.166461]},"properties":{"line":"60","mode":"bus","color":"#0059a9","colorDark":"#00294f","band":2,"off":[1.7,1.1]}},{"type":"Feature","geometry":{"type":"Point","coordinates":[21.276023,46.196695]},"properties":{"name":"Bujac","band":2,"modes":"bus","arr":["41"],"off":[0,-0.8]}},{"type":"Feature","geometry":{"type":"Point","coordinates":[21.276023,46.196695]},"properties":{"line":"41","mode":"bus","color":"#0059a9","colorDark":"#00294f","band":2,"off":[0,1.1]}},{"type":"Feature","geometry":{"type":"Point","coordinates":[21.308249,46.171139]},"properties":{"name":"Parcul Reconcilierii","band":2,"modes":"bus","arr":["46"],"off":[0,-0.8]}},{"type":"Feature","geometry":{"type":"Point","coordinates":[21.308249,46.171139]},"properties":{"line":"46","mode":"bus","color":"#0059a9","colorDark":"#00294f","band":2,"off":[0,1.1]}},{"type":"Feature","geometry":{"type":"Point","coordinates":[21.261799,46.252619]},"properties":{"name":"Cartier San Paolo","band":2,"modes":"bus","arr":["46"],"off":[0,-0.8]}},{"type":"Feature","geometry":{"type":"Point","coordinates":[21.261799,46.252619]},"properties":{"line":"46","mode":"bus","color":"#0059a9","colorDark":"#00294f","band":2,"off":[0,1.1]}},{"type":"Feature","geometry":{"type":"Point","coordinates":[21.378725,46.169664]},"properties":{"name":"Real","band":2,"modes":"bus","arr":["48"],"off":[0,-0.8]}},{"type":"Feature","geometry":{"type":"Point","coordinates":[21.378725,46.169664]},"properties":{"line":"48","mode":"bus","color":"#0059a9","colorDark":"#00294f","band":2,"off":[0,1.1]}},{"type":"Feature","geometry":{"type":"Point","coordinates":[21.349736,46.186]},"properties":{"name":"Grădina Poștei","band":2,"modes":"bus","arr":["52"],"off":[0,-0.8]}},{"type":"Feature","geometry":{"type":"Point","coordinates":[21.349736,46.186]},"properties":{"line":"52","mode":"bus","color":"#0059a9","colorDark":"#00294f","band":2,"off":[0,1.1]}},{"type":"Feature","geometry":{"type":"Point","coordinates":[21.238038,46.17256]},"properties":{"name":"IAS Mureșul","band":2,"modes":"bus","arr":["54"],"off":[0,-0.8]}},{"type":"Feature","geometry":{"type":"Point","coordinates":[21.238038,46.17256]},"properties":{"line":"54","mode":"bus","color":"#0059a9","colorDark":"#00294f","band":2,"off":[0,1.1]}},{"type":"Feature","geometry":{"type":"Point","coordinates":[21.269445,46.204809]},"properties":{"name":"Concordiei","band":2,"modes":"bus","arr":["60"],"off":[0,-0.8]}},{"type":"Feature","geometry":{"type":"Point","coordinates":[21.269445,46.204809]},"properties":{"line":"60","mode":"bus","color":"#0059a9","colorDark":"#00294f","band":2,"off":[0,1.1]}},{"type":"Feature","geometry":{"type":"Point","coordinates":[21.593681,46.156451]},"properties":{"name":"Ghioroc","band":2,"modes":"bus","arr":["Ghioroc"],"off":[0,-0.8]}},{"type":"Feature","geometry":{"type":"Point","coordinates":[21.593681,46.156451]},"properties":{"line":"Ghioroc","mode":"bus","color":"#0059a9","colorDark":"#00294f","band":2,"off":[0,1.1]}},{"type":"Feature","geometry":{"type":"Point","coordinates":[21.586767,46.155135]},"properties":{"name":"Ghioroc 1","band":2,"modes":"bus","arr":["Ghioroc"],"off":[0,-0.8]}},{"type":"Feature","geometry":{"type":"Point","coordinates":[21.586767,46.155135]},"properties":{"line":"Ghioroc","mode":"bus","color":"#0059a9","colorDark":"#00294f","band":2,"off":[0,1.1]}},{"type":"Feature","geometry":{"type":"Point","coordinates":[21.428052,46.156992]},"properties":{"name":"DN 7_2","band":2,"modes":"bus","arr":["Vladimirescu"],"off":[0,-0.8]}},{"type":"Feature","geometry":{"type":"Point","coordinates":[21.428052,46.156992]},"properties":{"line":"Vladimirescu","mode":"bus","color":"#0059a9","colorDark":"#00294f","band":2,"off":[0,1.1]}},{"type":"Feature","geometry":{"type":"Point","coordinates":[21.319683,46.167839]},"properties":{"name":"Piața Romană","band":2,"modes":"tram","arr":["1","6","7","16"],"off":[0,-0.8]}},{"type":"Feature","geometry":{"type":"Point","coordinates":[21.319683,46.167839]},"properties":{"line":"1","mode":"tram","color":"#d6212b","colorDark":"#7c1116","band":2,"off":[-5.1,1.1]}},{"type":"Feature","geometry":{"type":"Point","coordinates":[21.319683,46.167839]},"properties":{"line":"6","mode":"tram","color":"#d6212b","colorDark":"#7c1116","band":2,"off":[-1.7,1.1]}},{"type":"Feature","geometry":{"type":"Point","coordinates":[21.319683,46.167839]},"properties":{"line":"7","mode":"tram","color":"#d6212b","colorDark":"#7c1116","band":2,"off":[1.7,1.1]}},{"type":"Feature","geometry":{"type":"Point","coordinates":[21.319683,46.167839]},"properties":{"line":"16","mode":"tram","color":"#d6212b","colorDark":"#7c1116","band":2,"off":[5.1,1.1]}},{"type":"Feature","geometry":{"type":"Point","coordinates":[21.29164,46.202755]},"properties":{"name":"Făt Frumos","band":2,"modes":"tram","arr":["1","1b","3","7","15","18b"],"off":[0,-0.8]}},{"type":"Feature","geometry":{"type":"Point","coordinates":[21.29164,46.202755]},"properties":{"line":"1","mode":"tram","color":"#d6212b","colorDark":"#7c1116","band":2,"off":[-6.8,1.1]}},{"type":"Feature","geometry":{"type":"Point","coordinates":[21.29164,46.202755]},"properties":{"line":"1b","mode":"tram","color":"#d6212b","colorDark":"#7c1116","band":2,"off":[-3.4,1.1]}},{"type":"Feature","geometry":{"type":"Point","coordinates":[21.29164,46.202755]},"properties":{"line":"3","mode":"tram","color":"#d6212b","colorDark":"#7c1116","band":2,"off":[0,1.1]}},{"type":"Feature","geometry":{"type":"Point","coordinates":[21.29164,46.202755]},"properties":{"line":"7","mode":"tram","color":"#d6212b","colorDark":"#7c1116","band":2,"off":[3.4,1.1]}},{"type":"Feature","geometry":{"type":"Point","coordinates":[21.29164,46.202755]},"properties":{"line":"15","mode":"tram","color":"#d6212b","colorDark":"#7c1116","band":2,"off":[6.8,1.1]}},{"type":"Feature","geometry":{"type":"Point","coordinates":[21.29164,46.202755]},"properties":{"line":"18b","mode":"tram","color":"#d6212b","colorDark":"#7c1116","band":2,"off":[0,3.1]}},{"type":"Feature","geometry":{"type":"Point","coordinates":[21.255503,46.20494]},"properties":{"name":"Platforma Vest","band":2,"modes":"tram","arr":["1b"],"off":[0,-0.8]}},{"type":"Feature","geometry":{"type":"Point","coordinates":[21.255503,46.20494]},"properties":{"line":"1b","mode":"tram","color":"#d6212b","colorDark":"#7c1116","band":2,"off":[0,1.1]}},{"type":"Feature","geometry":{"type":"Point","coordinates":[21.278047,46.209484]},"properties":{"name":"Piața Gai","band":2,"modes":"tram","arr":["6"],"off":[0,-0.8]}},{"type":"Feature","geometry":{"type":"Point","coordinates":[21.278047,46.209484]},"properties":{"line":"6","mode":"tram","color":"#d6212b","colorDark":"#7c1116","band":2,"off":[0,1.1]}},{"type":"Feature","geometry":{"type":"Point","coordinates":[21.342426,46.202794]},"properties":{"name":"Sere","band":2,"modes":"tram","arr":["15","16"],"off":[0,-0.8]}},{"type":"Feature","geometry":{"type":"Point","coordinates":[21.342426,46.202794]},"properties":{"line":"15","mode":"tram","color":"#d6212b","colorDark":"#7c1116","band":2,"off":[-1.7,1.1]}},{"type":"Feature","geometry":{"type":"Point","coordinates":[21.342426,46.202794]},"properties":{"line":"16","mode":"tram","color":"#d6212b","colorDark":"#7c1116","band":2,"off":[1.7,1.1]}},{"type":"Feature","geometry":{"type":"Point","coordinates":[21.324545,46.182407]},"properties":{"name":"Podgoria","band":3,"modes":"bus","arr":["7A","13","18A","21","31","39b","52","54","Ghioroc","Vladimirescu"],"off":[0,-0.8]}},{"type":"Feature","geometry":{"type":"Point","coordinates":[21.324545,46.182407]},"properties":{"line":"7A","mode":"bus","color":"#0059a9","colorDark":"#00294f","band":3,"off":[-6.8,1.1]}},{"type":"Feature","geometry":{"type":"Point","coordinates":[21.324545,46.182407]},"properties":{"line":"13","mode":"bus","color":"#0059a9","colorDark":"#00294f","band":3,"off":[-3.4,1.1]}},{"type":"Feature","geometry":{"type":"Point","coordinates":[21.324545,46.182407]},"properties":{"line":"18A","mode":"bus","color":"#0059a9","colorDark":"#00294f","band":3,"off":[0,1.1]}},{"type":"Feature","geometry":{"type":"Point","coordinates":[21.324545,46.182407]},"properties":{"line":"21","mode":"bus","color":"#0059a9","colorDark":"#00294f","band":3,"off":[3.4,1.1]}},{"type":"Feature","geometry":{"type":"Point","coordinates":[21.324545,46.182407]},"properties":{"line":"31","mode":"bus","color":"#0059a9","colorDark":"#00294f","band":3,"off":[6.8,1.1]}},{"type":"Feature","geometry":{"type":"Point","coordinates":[21.324545,46.182407]},"properties":{"line":"39b","mode":"bus","color":"#0059a9","colorDark":"#00294f","band":3,"off":[-10.49,3.1]}},{"type":"Feature","geometry":{"type":"Point","coordinates":[21.324545,46.182407]},"properties":{"line":"52","mode":"bus","color":"#0059a9","colorDark":"#00294f","band":3,"off":[-7.09,3.1]}},{"type":"Feature","geometry":{"type":"Point","coordinates":[21.324545,46.182407]},"properties":{"line":"54","mode":"bus","color":"#0059a9","colorDark":"#00294f","band":3,"off":[-3.69,3.1]}},{"type":"Feature","geometry":{"type":"Point","coordinates":[21.324545,46.182407]},"properties":{"line":"Ghioroc","mode":"bus","color":"#0059a9","colorDark":"#00294f","band":3,"off":[0.78,3.1]}},{"type":"Feature","geometry":{"type":"Point","coordinates":[21.324545,46.182407]},"properties":{"line":"Vladimirescu","mode":"bus","color":"#0059a9","colorDark":"#00294f","band":3,"off":[7.87,3.1]}},{"type":"Feature","geometry":{"type":"Point","coordinates":[21.462957,46.208501]},"properties":{"name":"Horia","band":3,"modes":"bus","arr":["13"],"off":[0,-0.8]}},{"type":"Feature","geometry":{"type":"Point","coordinates":[21.462957,46.208501]},"properties":{"line":"13","mode":"bus","color":"#0059a9","colorDark":"#00294f","band":3,"off":[0,1.1]}},{"type":"Feature","geometry":{"type":"Point","coordinates":[21.308936,46.191819]},"properties":{"name":"U.T.A.","band":3,"modes":"bus","arr":["19","49b"],"off":[0,-0.8]}},{"type":"Feature","geometry":{"type":"Point","coordinates":[21.308936,46.191819]},"properties":{"line":"19","mode":"bus","color":"#0059a9","colorDark":"#00294f","band":3,"off":[-1.7,1.1]}},{"type":"Feature","geometry":{"type":"Point","coordinates":[21.308936,46.191819]},"properties":{"line":"49b","mode":"bus","color":"#0059a9","colorDark":"#00294f","band":3,"off":[1.7,1.1]}},{"type":"Feature","geometry":{"type":"Point","coordinates":[21.32177,46.154023]},"properties":{"name":"Caraiman","band":3,"modes":"bus","arr":["49"],"off":[0,-0.8]}},{"type":"Feature","geometry":{"type":"Point","coordinates":[21.32177,46.154023]},"properties":{"line":"49","mode":"bus","color":"#0059a9","colorDark":"#00294f","band":3,"off":[0,1.1]}},{"type":"Feature","geometry":{"type":"Point","coordinates":[21.334511,46.145328]},"properties":{"name":"Gara Aradul Nou","band":3,"modes":"bus","arr":["49b"],"off":[0,-0.8]}},{"type":"Feature","geometry":{"type":"Point","coordinates":[21.334511,46.145328]},"properties":{"line":"49b","mode":"bus","color":"#0059a9","colorDark":"#00294f","band":3,"off":[0,1.1]}},{"type":"Feature","geometry":{"type":"Point","coordinates":[21.352111,46.131824]},"properties":{"name":"Vântului","band":3,"modes":"bus","arr":["19"],"off":[0,-0.8]}},{"type":"Feature","geometry":{"type":"Point","coordinates":[21.352111,46.131824]},"properties":{"line":"19","mode":"bus","color":"#0059a9","colorDark":"#00294f","band":3,"off":[0,1.1]}},{"type":"Feature","geometry":{"type":"Point","coordinates":[21.348849,46.173028]},"properties":{"name":"Billa","band":3,"modes":"bus","arr":["48"],"off":[0,-0.8]}},{"type":"Feature","geometry":{"type":"Point","coordinates":[21.348849,46.173028]},"properties":{"line":"48","mode":"bus","color":"#0059a9","colorDark":"#00294f","band":3,"off":[0,1.1]}},{"type":"Feature","geometry":{"type":"Point","coordinates":[21.29069,46.163842]},"properties":{"name":"Faleză Sud","band":3,"modes":"bus","arr":["21"],"off":[0,-0.8]}},{"type":"Feature","geometry":{"type":"Point","coordinates":[21.29069,46.163842]},"properties":{"line":"21","mode":"bus","color":"#0059a9","colorDark":"#00294f","band":3,"off":[0,1.1]}},{"type":"Feature","geometry":{"type":"Point","coordinates":[21.323009,46.206593]},"properties":{"name":"Trenului","band":3,"modes":"bus","arr":["31"],"off":[0,-0.8]}},{"type":"Feature","geometry":{"type":"Point","coordinates":[21.323009,46.206593]},"properties":{"line":"31","mode":"bus","color":"#0059a9","colorDark":"#00294f","band":3,"off":[0,1.1]}},{"type":"Feature","geometry":{"type":"Point","coordinates":[21.32057,46.21281]},"properties":{"name":"Arțarului","band":3,"modes":"bus","arr":["39b"],"off":[0,-0.8]}},{"type":"Feature","geometry":{"type":"Point","coordinates":[21.32057,46.21281]},"properties":{"line":"39b","mode":"bus","color":"#0059a9","colorDark":"#00294f","band":3,"off":[0,1.1]}},{"type":"Feature","geometry":{"type":"Point","coordinates":[21.319935,46.166461]},"properties":{"name":"Piața Romană","band":3,"modes":"bus","arr":["41","60"],"off":[0,-0.8]}},{"type":"Feature","geometry":{"type":"Point","coordinates":[21.319935,46.166461]},"properties":{"line":"41","mode":"bus","color":"#0059a9","colorDark":"#00294f","band":3,"off":[-1.7,1.1]}},{"type":"Feature","geometry":{"type":"Point","coordinates":[21.319935,46.166461]},"properties":{"line":"60","mode":"bus","color":"#0059a9","colorDark":"#00294f","band":3,"off":[1.7,1.1]}},{"type":"Feature","geometry":{"type":"Point","coordinates":[21.276023,46.196695]},"properties":{"name":"Bujac","band":3,"modes":"bus","arr":["41"],"off":[0,-0.8]}},{"type":"Feature","geometry":{"type":"Point","coordinates":[21.276023,46.196695]},"properties":{"line":"41","mode":"bus","color":"#0059a9","colorDark":"#00294f","band":3,"off":[0,1.1]}},{"type":"Feature","geometry":{"type":"Point","coordinates":[21.308249,46.171139]},"properties":{"name":"Parcul Reconcilierii","band":3,"modes":"bus","arr":["46"],"off":[0,-0.8]}},{"type":"Feature","geometry":{"type":"Point","coordinates":[21.308249,46.171139]},"properties":{"line":"46","mode":"bus","color":"#0059a9","colorDark":"#00294f","band":3,"off":[0,1.1]}},{"type":"Feature","geometry":{"type":"Point","coordinates":[21.261799,46.252619]},"properties":{"name":"Cartier San Paolo","band":3,"modes":"bus","arr":["46"],"off":[0,-0.8]}},{"type":"Feature","geometry":{"type":"Point","coordinates":[21.261799,46.252619]},"properties":{"line":"46","mode":"bus","color":"#0059a9","colorDark":"#00294f","band":3,"off":[0,1.1]}},{"type":"Feature","geometry":{"type":"Point","coordinates":[21.378725,46.169664]},"properties":{"name":"Real","band":3,"modes":"bus","arr":["48"],"off":[0,-0.8]}},{"type":"Feature","geometry":{"type":"Point","coordinates":[21.378725,46.169664]},"properties":{"line":"48","mode":"bus","color":"#0059a9","colorDark":"#00294f","band":3,"off":[0,1.1]}},{"type":"Feature","geometry":{"type":"Point","coordinates":[21.349736,46.186]},"properties":{"name":"Grădina Poștei","band":3,"modes":"bus","arr":["52"],"off":[0,-0.8]}},{"type":"Feature","geometry":{"type":"Point","coordinates":[21.349736,46.186]},"properties":{"line":"52","mode":"bus","color":"#0059a9","colorDark":"#00294f","band":3,"off":[0,1.1]}},{"type":"Feature","geometry":{"type":"Point","coordinates":[21.238038,46.17256]},"properties":{"name":"IAS Mureșul","band":3,"modes":"bus","arr":["54"],"off":[0,-0.8]}},{"type":"Feature","geometry":{"type":"Point","coordinates":[21.238038,46.17256]},"properties":{"line":"54","mode":"bus","color":"#0059a9","colorDark":"#00294f","band":3,"off":[0,1.1]}},{"type":"Feature","geometry":{"type":"Point","coordinates":[21.269445,46.204809]},"properties":{"name":"Concordiei","band":3,"modes":"bus","arr":["60"],"off":[0,-0.8]}},{"type":"Feature","geometry":{"type":"Point","coordinates":[21.269445,46.204809]},"properties":{"line":"60","mode":"bus","color":"#0059a9","colorDark":"#00294f","band":3,"off":[0,1.1]}},{"type":"Feature","geometry":{"type":"Point","coordinates":[21.593681,46.156451]},"properties":{"name":"Ghioroc","band":3,"modes":"bus","arr":["Ghioroc"],"off":[0,-0.8]}},{"type":"Feature","geometry":{"type":"Point","coordinates":[21.593681,46.156451]},"properties":{"line":"Ghioroc","mode":"bus","color":"#0059a9","colorDark":"#00294f","band":3,"off":[0,1.1]}},{"type":"Feature","geometry":{"type":"Point","coordinates":[21.586767,46.155135]},"properties":{"name":"Ghioroc 1","band":3,"modes":"bus","arr":["Ghioroc"],"off":[0,-0.8]}},{"type":"Feature","geometry":{"type":"Point","coordinates":[21.586767,46.155135]},"properties":{"line":"Ghioroc","mode":"bus","color":"#0059a9","colorDark":"#00294f","band":3,"off":[0,1.1]}},{"type":"Feature","geometry":{"type":"Point","coordinates":[21.428052,46.156992]},"properties":{"name":"DN 7_2","band":3,"modes":"bus","arr":["Vladimirescu"],"off":[0,-0.8]}},{"type":"Feature","geometry":{"type":"Point","coordinates":[21.428052,46.156992]},"properties":{"line":"Vladimirescu","mode":"bus","color":"#0059a9","colorDark":"#00294f","band":3,"off":[0,1.1]}},{"type":"Feature","geometry":{"type":"Point","coordinates":[21.319683,46.167839]},"properties":{"name":"Piața Romană","band":3,"modes":"tram","arr":["1","6","7","16"],"off":[0,-0.8]}},{"type":"Feature","geometry":{"type":"Point","coordinates":[21.319683,46.167839]},"properties":{"line":"1","mode":"tram","color":"#d6212b","colorDark":"#7c1116","band":3,"off":[-5.1,1.1]}},{"type":"Feature","geometry":{"type":"Point","coordinates":[21.319683,46.167839]},"properties":{"line":"6","mode":"tram","color":"#d6212b","colorDark":"#7c1116","band":3,"off":[-1.7,1.1]}},{"type":"Feature","geometry":{"type":"Point","coordinates":[21.319683,46.167839]},"properties":{"line":"7","mode":"tram","color":"#d6212b","colorDark":"#7c1116","band":3,"off":[1.7,1.1]}},{"type":"Feature","geometry":{"type":"Point","coordinates":[21.319683,46.167839]},"properties":{"line":"16","mode":"tram","color":"#d6212b","colorDark":"#7c1116","band":3,"off":[5.1,1.1]}},{"type":"Feature","geometry":{"type":"Point","coordinates":[21.29164,46.202755]},"properties":{"name":"Făt Frumos","band":3,"modes":"tram","arr":["1","1b","3","7","15","18b"],"off":[0,-0.8]}},{"type":"Feature","geometry":{"type":"Point","coordinates":[21.29164,46.202755]},"properties":{"line":"1","mode":"tram","color":"#d6212b","colorDark":"#7c1116","band":3,"off":[-6.8,1.1]}},{"type":"Feature","geometry":{"type":"Point","coordinates":[21.29164,46.202755]},"properties":{"line":"1b","mode":"tram","color":"#d6212b","colorDark":"#7c1116","band":3,"off":[-3.4,1.1]}},{"type":"Feature","geometry":{"type":"Point","coordinates":[21.29164,46.202755]},"properties":{"line":"3","mode":"tram","color":"#d6212b","colorDark":"#7c1116","band":3,"off":[0,1.1]}},{"type":"Feature","geometry":{"type":"Point","coordinates":[21.29164,46.202755]},"properties":{"line":"7","mode":"tram","color":"#d6212b","colorDark":"#7c1116","band":3,"off":[3.4,1.1]}},{"type":"Feature","geometry":{"type":"Point","coordinates":[21.29164,46.202755]},"properties":{"line":"15","mode":"tram","color":"#d6212b","colorDark":"#7c1116","band":3,"off":[6.8,1.1]}},{"type":"Feature","geometry":{"type":"Point","coordinates":[21.29164,46.202755]},"properties":{"line":"18b","mode":"tram","color":"#d6212b","colorDark":"#7c1116","band":3,"off":[0,3.1]}},{"type":"Feature","geometry":{"type":"Point","coordinates":[21.255503,46.20494]},"properties":{"name":"Platforma Vest","band":3,"modes":"tram","arr":["1b"],"off":[0,-0.8]}},{"type":"Feature","geometry":{"type":"Point","coordinates":[21.255503,46.20494]},"properties":{"line":"1b","mode":"tram","color":"#d6212b","colorDark":"#7c1116","band":3,"off":[0,1.1]}},{"type":"Feature","geometry":{"type":"Point","coordinates":[21.334384,46.144675]},"properties":{"name":"Gara Aradul Nou","band":3,"modes":"tram","arr":["3"],"off":[0,-0.8]}},{"type":"Feature","geometry":{"type":"Point","coordinates":[21.334384,46.144675]},"properties":{"line":"3","mode":"tram","color":"#d6212b","colorDark":"#7c1116","band":3,"off":[0,1.1]}},{"type":"Feature","geometry":{"type":"Point","coordinates":[21.278047,46.209484]},"properties":{"name":"Piața Gai","band":3,"modes":"tram","arr":["6"],"off":[0,-0.8]}},{"type":"Feature","geometry":{"type":"Point","coordinates":[21.278047,46.209484]},"properties":{"line":"6","mode":"tram","color":"#d6212b","colorDark":"#7c1116","band":3,"off":[0,1.1]}},{"type":"Feature","geometry":{"type":"Point","coordinates":[21.342426,46.202794]},"properties":{"name":"Sere","band":3,"modes":"tram","arr":["15","16"],"off":[0,-0.8]}},{"type":"Feature","geometry":{"type":"Point","coordinates":[21.342426,46.202794]},"properties":{"line":"15","mode":"tram","color":"#d6212b","colorDark":"#7c1116","band":3,"off":[-1.7,1.1]}},{"type":"Feature","geometry":{"type":"Point","coordinates":[21.342426,46.202794]},"properties":{"line":"16","mode":"tram","color":"#d6212b","colorDark":"#7c1116","band":3,"off":[1.7,1.1]}},{"type":"Feature","geometry":{"type":"Point","coordinates":[21.324545,46.182407]},"properties":{"name":"Podgoria","band":4,"modes":"bus","arr":["7A","13","18A","21","31","39b","52","54","Ghioroc","Vladimirescu"],"off":[0,-0.8]}},{"type":"Feature","geometry":{"type":"Point","coordinates":[21.324545,46.182407]},"properties":{"line":"7A","mode":"bus","color":"#0059a9","colorDark":"#00294f","band":4,"off":[-6.8,1.1]}},{"type":"Feature","geometry":{"type":"Point","coordinates":[21.324545,46.182407]},"properties":{"line":"13","mode":"bus","color":"#0059a9","colorDark":"#00294f","band":4,"off":[-3.4,1.1]}},{"type":"Feature","geometry":{"type":"Point","coordinates":[21.324545,46.182407]},"properties":{"line":"18A","mode":"bus","color":"#0059a9","colorDark":"#00294f","band":4,"off":[0,1.1]}},{"type":"Feature","geometry":{"type":"Point","coordinates":[21.324545,46.182407]},"properties":{"line":"21","mode":"bus","color":"#0059a9","colorDark":"#00294f","band":4,"off":[3.4,1.1]}},{"type":"Feature","geometry":{"type":"Point","coordinates":[21.324545,46.182407]},"properties":{"line":"31","mode":"bus","color":"#0059a9","colorDark":"#00294f","band":4,"off":[6.8,1.1]}},{"type":"Feature","geometry":{"type":"Point","coordinates":[21.324545,46.182407]},"properties":{"line":"39b","mode":"bus","color":"#0059a9","colorDark":"#00294f","band":4,"off":[-10.49,3.1]}},{"type":"Feature","geometry":{"type":"Point","coordinates":[21.324545,46.182407]},"properties":{"line":"52","mode":"bus","color":"#0059a9","colorDark":"#00294f","band":4,"off":[-7.09,3.1]}},{"type":"Feature","geometry":{"type":"Point","coordinates":[21.324545,46.182407]},"properties":{"line":"54","mode":"bus","color":"#0059a9","colorDark":"#00294f","band":4,"off":[-3.69,3.1]}},{"type":"Feature","geometry":{"type":"Point","coordinates":[21.324545,46.182407]},"properties":{"line":"Ghioroc","mode":"bus","color":"#0059a9","colorDark":"#00294f","band":4,"off":[0.78,3.1]}},{"type":"Feature","geometry":{"type":"Point","coordinates":[21.324545,46.182407]},"properties":{"line":"Vladimirescu","mode":"bus","color":"#0059a9","colorDark":"#00294f","band":4,"off":[7.87,3.1]}},{"type":"Feature","geometry":{"type":"Point","coordinates":[21.462957,46.208501]},"properties":{"name":"Horia","band":4,"modes":"bus","arr":["13"],"off":[0,-0.8]}},{"type":"Feature","geometry":{"type":"Point","coordinates":[21.462957,46.208501]},"properties":{"line":"13","mode":"bus","color":"#0059a9","colorDark":"#00294f","band":4,"off":[0,1.1]}},{"type":"Feature","geometry":{"type":"Point","coordinates":[21.308936,46.191819]},"properties":{"name":"U.T.A.","band":4,"modes":"bus","arr":["19","49b"],"off":[0,-0.8]}},{"type":"Feature","geometry":{"type":"Point","coordinates":[21.308936,46.191819]},"properties":{"line":"19","mode":"bus","color":"#0059a9","colorDark":"#00294f","band":4,"off":[-1.7,1.1]}},{"type":"Feature","geometry":{"type":"Point","coordinates":[21.308936,46.191819]},"properties":{"line":"49b","mode":"bus","color":"#0059a9","colorDark":"#00294f","band":4,"off":[1.7,1.1]}},{"type":"Feature","geometry":{"type":"Point","coordinates":[21.32177,46.154023]},"properties":{"name":"Caraiman","band":4,"modes":"bus","arr":["49"],"off":[0,-0.8]}},{"type":"Feature","geometry":{"type":"Point","coordinates":[21.32177,46.154023]},"properties":{"line":"49","mode":"bus","color":"#0059a9","colorDark":"#00294f","band":4,"off":[0,1.1]}},{"type":"Feature","geometry":{"type":"Point","coordinates":[21.334511,46.145328]},"properties":{"name":"Gara Aradul Nou","band":4,"modes":"bus","arr":["49b"],"off":[0,-0.8]}},{"type":"Feature","geometry":{"type":"Point","coordinates":[21.334511,46.145328]},"properties":{"line":"49b","mode":"bus","color":"#0059a9","colorDark":"#00294f","band":4,"off":[0,1.1]}},{"type":"Feature","geometry":{"type":"Point","coordinates":[21.352111,46.131824]},"properties":{"name":"Vântului","band":4,"modes":"bus","arr":["19"],"off":[0,-0.8]}},{"type":"Feature","geometry":{"type":"Point","coordinates":[21.352111,46.131824]},"properties":{"line":"19","mode":"bus","color":"#0059a9","colorDark":"#00294f","band":4,"off":[0,1.1]}},{"type":"Feature","geometry":{"type":"Point","coordinates":[21.348849,46.173028]},"properties":{"name":"Billa","band":4,"modes":"bus","arr":["48"],"off":[0,-0.8]}},{"type":"Feature","geometry":{"type":"Point","coordinates":[21.348849,46.173028]},"properties":{"line":"48","mode":"bus","color":"#0059a9","colorDark":"#00294f","band":4,"off":[0,1.1]}},{"type":"Feature","geometry":{"type":"Point","coordinates":[21.29069,46.163842]},"properties":{"name":"Faleză Sud","band":4,"modes":"bus","arr":["21"],"off":[0,-0.8]}},{"type":"Feature","geometry":{"type":"Point","coordinates":[21.29069,46.163842]},"properties":{"line":"21","mode":"bus","color":"#0059a9","colorDark":"#00294f","band":4,"off":[0,1.1]}},{"type":"Feature","geometry":{"type":"Point","coordinates":[21.323009,46.206593]},"properties":{"name":"Trenului","band":4,"modes":"bus","arr":["31"],"off":[0,-0.8]}},{"type":"Feature","geometry":{"type":"Point","coordinates":[21.323009,46.206593]},"properties":{"line":"31","mode":"bus","color":"#0059a9","colorDark":"#00294f","band":4,"off":[0,1.1]}},{"type":"Feature","geometry":{"type":"Point","coordinates":[21.32057,46.21281]},"properties":{"name":"Arțarului","band":4,"modes":"bus","arr":["39b"],"off":[0,-0.8]}},{"type":"Feature","geometry":{"type":"Point","coordinates":[21.32057,46.21281]},"properties":{"line":"39b","mode":"bus","color":"#0059a9","colorDark":"#00294f","band":4,"off":[0,1.1]}},{"type":"Feature","geometry":{"type":"Point","coordinates":[21.319935,46.166461]},"properties":{"name":"Piața Romană","band":4,"modes":"bus","arr":["41","60"],"off":[0,-0.8]}},{"type":"Feature","geometry":{"type":"Point","coordinates":[21.319935,46.166461]},"properties":{"line":"41","mode":"bus","color":"#0059a9","colorDark":"#00294f","band":4,"off":[-1.7,1.1]}},{"type":"Feature","geometry":{"type":"Point","coordinates":[21.319935,46.166461]},"properties":{"line":"60","mode":"bus","color":"#0059a9","colorDark":"#00294f","band":4,"off":[1.7,1.1]}},{"type":"Feature","geometry":{"type":"Point","coordinates":[21.276023,46.196695]},"properties":{"name":"Bujac","band":4,"modes":"bus","arr":["41"],"off":[0,-0.8]}},{"type":"Feature","geometry":{"type":"Point","coordinates":[21.276023,46.196695]},"properties":{"line":"41","mode":"bus","color":"#0059a9","colorDark":"#00294f","band":4,"off":[0,1.1]}},{"type":"Feature","geometry":{"type":"Point","coordinates":[21.308249,46.171139]},"properties":{"name":"Parcul Reconcilierii","band":4,"modes":"bus","arr":["46"],"off":[0,-0.8]}},{"type":"Feature","geometry":{"type":"Point","coordinates":[21.308249,46.171139]},"properties":{"line":"46","mode":"bus","color":"#0059a9","colorDark":"#00294f","band":4,"off":[0,1.1]}},{"type":"Feature","geometry":{"type":"Point","coordinates":[21.261799,46.252619]},"properties":{"name":"Cartier San Paolo","band":4,"modes":"bus","arr":["46"],"off":[0,-0.8]}},{"type":"Feature","geometry":{"type":"Point","coordinates":[21.261799,46.252619]},"properties":{"line":"46","mode":"bus","color":"#0059a9","colorDark":"#00294f","band":4,"off":[0,1.1]}},{"type":"Feature","geometry":{"type":"Point","coordinates":[21.378725,46.169664]},"properties":{"name":"Real","band":4,"modes":"bus","arr":["48"],"off":[0,-0.8]}},{"type":"Feature","geometry":{"type":"Point","coordinates":[21.378725,46.169664]},"properties":{"line":"48","mode":"bus","color":"#0059a9","colorDark":"#00294f","band":4,"off":[0,1.1]}},{"type":"Feature","geometry":{"type":"Point","coordinates":[21.349736,46.186]},"properties":{"name":"Grădina Poștei","band":4,"modes":"bus","arr":["52"],"off":[0,-0.8]}},{"type":"Feature","geometry":{"type":"Point","coordinates":[21.349736,46.186]},"properties":{"line":"52","mode":"bus","color":"#0059a9","colorDark":"#00294f","band":4,"off":[0,1.1]}},{"type":"Feature","geometry":{"type":"Point","coordinates":[21.238038,46.17256]},"properties":{"name":"IAS Mureșul","band":4,"modes":"bus","arr":["54"],"off":[0,-0.8]}},{"type":"Feature","geometry":{"type":"Point","coordinates":[21.238038,46.17256]},"properties":{"line":"54","mode":"bus","color":"#0059a9","colorDark":"#00294f","band":4,"off":[0,1.1]}},{"type":"Feature","geometry":{"type":"Point","coordinates":[21.269445,46.204809]},"properties":{"name":"Concordiei","band":4,"modes":"bus","arr":["60"],"off":[0,-0.8]}},{"type":"Feature","geometry":{"type":"Point","coordinates":[21.269445,46.204809]},"properties":{"line":"60","mode":"bus","color":"#0059a9","colorDark":"#00294f","band":4,"off":[0,1.1]}},{"type":"Feature","geometry":{"type":"Point","coordinates":[21.593681,46.156451]},"properties":{"name":"Ghioroc","band":4,"modes":"bus","arr":["Ghioroc"],"off":[0,-0.8]}},{"type":"Feature","geometry":{"type":"Point","coordinates":[21.593681,46.156451]},"properties":{"line":"Ghioroc","mode":"bus","color":"#0059a9","colorDark":"#00294f","band":4,"off":[0,1.1]}},{"type":"Feature","geometry":{"type":"Point","coordinates":[21.586767,46.155135]},"properties":{"name":"Ghioroc 1","band":4,"modes":"bus","arr":["Ghioroc"],"off":[0,-0.8]}},{"type":"Feature","geometry":{"type":"Point","coordinates":[21.586767,46.155135]},"properties":{"line":"Ghioroc","mode":"bus","color":"#0059a9","colorDark":"#00294f","band":4,"off":[0,1.1]}},{"type":"Feature","geometry":{"type":"Point","coordinates":[21.428052,46.156992]},"properties":{"name":"DN 7_2","band":4,"modes":"bus","arr":["Vladimirescu"],"off":[0,-0.8]}},{"type":"Feature","geometry":{"type":"Point","coordinates":[21.428052,46.156992]},"properties":{"line":"Vladimirescu","mode":"bus","color":"#0059a9","colorDark":"#00294f","band":4,"off":[0,1.1]}},{"type":"Feature","geometry":{"type":"Point","coordinates":[21.319683,46.167839]},"properties":{"name":"Piața Romană","band":4,"modes":"tram","arr":["1","6","7","16"],"off":[0,-0.8]}},{"type":"Feature","geometry":{"type":"Point","coordinates":[21.319683,46.167839]},"properties":{"line":"1","mode":"tram","color":"#d6212b","colorDark":"#7c1116","band":4,"off":[-5.1,1.1]}},{"type":"Feature","geometry":{"type":"Point","coordinates":[21.319683,46.167839]},"properties":{"line":"6","mode":"tram","color":"#d6212b","colorDark":"#7c1116","band":4,"off":[-1.7,1.1]}},{"type":"Feature","geometry":{"type":"Point","coordinates":[21.319683,46.167839]},"properties":{"line":"7","mode":"tram","color":"#d6212b","colorDark":"#7c1116","band":4,"off":[1.7,1.1]}},{"type":"Feature","geometry":{"type":"Point","coordinates":[21.319683,46.167839]},"properties":{"line":"16","mode":"tram","color":"#d6212b","colorDark":"#7c1116","band":4,"off":[5.1,1.1]}},{"type":"Feature","geometry":{"type":"Point","coordinates":[21.29164,46.202755]},"properties":{"name":"Făt Frumos","band":4,"modes":"tram","arr":["1","1b","3","7","15","18b"],"off":[0,-0.8]}},{"type":"Feature","geometry":{"type":"Point","coordinates":[21.29164,46.202755]},"properties":{"line":"1","mode":"tram","color":"#d6212b","colorDark":"#7c1116","band":4,"off":[-6.8,1.1]}},{"type":"Feature","geometry":{"type":"Point","coordinates":[21.29164,46.202755]},"properties":{"line":"1b","mode":"tram","color":"#d6212b","colorDark":"#7c1116","band":4,"off":[-3.4,1.1]}},{"type":"Feature","geometry":{"type":"Point","coordinates":[21.29164,46.202755]},"properties":{"line":"3","mode":"tram","color":"#d6212b","colorDark":"#7c1116","band":4,"off":[0,1.1]}},{"type":"Feature","geometry":{"type":"Point","coordinates":[21.29164,46.202755]},"properties":{"line":"7","mode":"tram","color":"#d6212b","colorDark":"#7c1116","band":4,"off":[3.4,1.1]}},{"type":"Feature","geometry":{"type":"Point","coordinates":[21.29164,46.202755]},"properties":{"line":"15","mode":"tram","color":"#d6212b","colorDark":"#7c1116","band":4,"off":[6.8,1.1]}},{"type":"Feature","geometry":{"type":"Point","coordinates":[21.29164,46.202755]},"properties":{"line":"18b","mode":"tram","color":"#d6212b","colorDark":"#7c1116","band":4,"off":[0,3.1]}},{"type":"Feature","geometry":{"type":"Point","coordinates":[21.255503,46.20494]},"properties":{"name":"Platforma Vest","band":4,"modes":"tram","arr":["1b"],"off":[0,-0.8]}},{"type":"Feature","geometry":{"type":"Point","coordinates":[21.255503,46.20494]},"properties":{"line":"1b","mode":"tram","color":"#d6212b","colorDark":"#7c1116","band":4,"off":[0,1.1]}},{"type":"Feature","geometry":{"type":"Point","coordinates":[21.334384,46.144675]},"properties":{"name":"Gara Aradul Nou","band":4,"modes":"tram","arr":["3"],"off":[0,-0.8]}},{"type":"Feature","geometry":{"type":"Point","coordinates":[21.334384,46.144675]},"properties":{"line":"3","mode":"tram","color":"#d6212b","colorDark":"#7c1116","band":4,"off":[0,1.1]}},{"type":"Feature","geometry":{"type":"Point","coordinates":[21.278047,46.209484]},"properties":{"name":"Piața Gai","band":4,"modes":"tram","arr":["6"],"off":[0,-0.8]}},{"type":"Feature","geometry":{"type":"Point","coordinates":[21.278047,46.209484]},"properties":{"line":"6","mode":"tram","color":"#d6212b","colorDark":"#7c1116","band":4,"off":[0,1.1]}},{"type":"Feature","geometry":{"type":"Point","coordinates":[21.342426,46.202794]},"properties":{"name":"Sere","band":4,"modes":"tram","arr":["15","16"],"off":[0,-0.8]}},{"type":"Feature","geometry":{"type":"Point","coordinates":[21.342426,46.202794]},"properties":{"line":"15","mode":"tram","color":"#d6212b","colorDark":"#7c1116","band":4,"off":[-1.7,1.1]}},{"type":"Feature","geometry":{"type":"Point","coordinates":[21.342426,46.202794]},"properties":{"line":"16","mode":"tram","color":"#d6212b","colorDark":"#7c1116","band":4,"off":[1.7,1.1]}}]}