{"type":"FeatureCollection","features":[{"type":"Feature","properties":{"mode":"bus","n":6,"arr":["19","21","46","49b","54","60"],"lines":"19, 21, 46, 49b, 54, 60"},"geometry":{"type":"LineString","coordinates":[[21.309887,46.182135],[21.309953,46.182316]]}},{"type":"Feature","properties":{"mode":"bus","n":6,"arr":["19","21","46","49b","54","60"],"lines":"19, 21, 46, 49b, 54, 60"},"geometry":{"type":"LineString","coordinates":[[21.310581,46.182122],[21.310432,46.181926],[21.310288,46.181876]]}},{"type":"Feature","properties":{"mode":"bus","n":6,"arr":["19","21","46","49b","54","60"],"lines":"19, 21, 46, 49b, 54, 60"},"geometry":{"type":"LineString","coordinates":[[21.31038,46.18255],[21.310404,46.182546]]}},{"type":"Feature","properties":{"mode":"bus","n":5,"arr":["7A","13","18A","19","Ghioroc"],"lines":"7A, 13, 18A, 19, Ghioroc"},"geometry":{"type":"LineString","coordinates":[[21.324432,46.182425],[21.325322,46.182288]]}},{"type":"Feature","properties":{"mode":"bus","n":5,"arr":["7A","13","18A","19","Ghioroc"],"lines":"7A, 13, 18A, 19, Ghioroc"},"geometry":{"type":"LineString","coordinates":[[21.324401,46.182811],[21.324559,46.182719]]}},{"type":"Feature","properties":{"mode":"bus","n":6,"arr":["7A","13","18A","19","Ghioroc","Vladimirescu"],"lines":"7A, 13, 18A, 19, Ghioroc, Vladimirescu"},"geometry":{"type":"LineString","coordinates":[[21.325322,46.182288],[21.334358,46.18093]]}},{"type":"Feature","properties":{"mode":"bus","n":5,"arr":["7A","18A","19","Ghioroc","Vladimirescu"],"lines":"7A, 18A, 19, Ghioroc, Vladimirescu"},"geometry":{"type":"LineString","coordinates":[[21.334391,46.181051],[21.329705,46.181763],[21.325659,46.182344],[21.325076,46.182482]]}},{"type":"Feature","properties":{"mode":"bus","n":6,"arr":["7A","18A","31","39b","52","Ghioroc"],"lines":"7A, 18A, 31, 39b, 52, Ghioroc"},"geometry":{"type":"LineString","coordinates":[[21.323603,46.183147],[21.323328,46.182849]]}},{"type":"Feature","properties":{"mode":"bus","n":9,"arr":["7A","18A","19","21","31","39b","52","54","Ghioroc"],"lines":"7A, 18A, 19, 21, 31, 39b, 52, 54, Ghioroc"},"geometry":{"type":"LineString","coordinates":[[21.323328,46.182849],[21.323396,46.182705],[21.323504,46.182609],[21.323902,46.182504]]}},{"type":"Feature","properties":{"mode":"bus","n":6,"arr":["13","21","31","39b","52","54"],"lines":"13, 21, 31, 39b, 52, 54"},"geometry":{"type":"LineString","coordinates":[[21.324712,46.183048],[21.324401,46.182811]]}},{"type":"Feature","properties":{"mode":"bus","n":5,"arr":["21","31","39b","52","54"],"lines":"21, 31, 39b, 52, 54"},"geometry":{"type":"LineString","coordinates":[[21.324776,46.1831],[21.325691,46.183844]]}},{"type":"Feature","properties":{"mode":"bus","n":5,"arr":["21","31","39b","52","54"],"lines":"21, 31, 39b, 52, 54"},"geometry":{"type":"LineString","coordinates":[[21.323902,46.182504],[21.324401,46.182811]]}},{"type":"Feature","properties":{"mode":"bus","n":5,"arr":["21","46","49b","54","60"],"lines":"21, 46, 49b, 54, 60"},"geometry":{"type":"LineString","coordinates":[[21.309664,46.181609],[21.309726,46.181829],[21.309887,46.182135]]}},{"type":"Feature","properties":{"mode":"bus","n":5,"arr":["21","46","49b","54","60"],"lines":"21, 46, 49b, 54, 60"},"geometry":{"type":"LineString","coordinates":[[21.310288,46.181876],[21.309803,46.181686],[21.309664,46.181609],[21.309163,46.180685],[21.308639,46.179635]]}},{"type":"Feature","properties":{"mode":"bus","n":5,"arr":["41","46","49b","54","60"],"lines":"41, 46, 49b, 54, 60"},"geometry":{"type":"LineString","coordinates":[[21.307529,46.177468],[21.306929,46.176356],[21.30338,46.16942]]}},{"type":"Feature","properties":{"mode":"bus","n":6,"arr":["21","41","46","49b","54","60"],"lines":"21, 41, 46, 49b, 54, 60"},"geometry":{"type":"LineString","coordinates":[[21.308639,46.179635],[21.307529,46.177468]]}},{"type":"Feature","properties":{"mode":"tram","n":5,"arr":["1","3","6","16","18b"],"lines":"1, 3, 6, 16, 18b"},"geometry":{"type":"LineString","coordinates":[[21.319561,46.167884],[21.318654,46.168251],[21.318246,46.168477],[21.317647,46.168921],[21.317218,46.169352],[21.316962,46.169689],[21.316534,46.170362],[21.315989,46.171565],[21.315946,46.171841],[21.315957,46.171992],[21.316015,46.172153],[21.316715,46.173376],[21.317282,46.174212],[21.318197,46.175424],[21.318675,46.17613],[21.320116,46.17842],[21.321893,46.180759],[21.322779,46.181801],[21.323194,46.182336],[21.323697,46.18302],[21.323759,46.183167]]}},{"type":"Feature","properties":{"mode":"tram","n":5,"arr":["1","3","6","16","18b"],"lines":"1, 3, 6, 16, 18b"},"geometry":{"type":"LineString","coordinates":[[21.324843,46.184754],[21.324748,46.184658]]}},{"type":"Feature","properties":{"mode":"tram","n":6,"arr":["1","3","6","7","16","18b"],"lines":"1, 3, 6, 7, 16, 18b"},"geometry":{"type":"LineString","coordinates":[[21.324748,46.184658],[21.324386,46.183881],[21.323759,46.183167]]}},{"type":"Feature","properties":{"mode":"tram","n":5,"arr":["1","3","6","15","18b"],"lines":"1, 3, 6, 15, 18b"},"geometry":{"type":"LineString","coordinates":[[21.305974,46.193016],[21.3076,46.192361],[21.307855,46.192286],[21.319268,46.190017],[21.322851,46.189324],[21.324137,46.189039],[21.32475,46.188715],[21.325042,46.188488],[21.325512,46.187956],[21.325644,46.187739],[21.325699,46.187591],[21.325717,46.187366],[21.325675,46.187142],[21.325148,46.185873],[21.32499,46.185235]]}},{"type":"Feature","properties":{"mode":"tram","n":6,"arr":["1","3","6","7","15","18b"],"lines":"1, 3, 6, 7, 15, 18b"},"geometry":{"type":"LineString","coordinates":[[21.293244,46.200489],[21.296004,46.1988],[21.29634,46.198549],[21.299222,46.195981],[21.299575,46.195719],[21.299691,46.195651],[21.301272,46.194966],[21.305974,46.193016]]}},{"type":"Feature","properties":{"mode":"tram","n":6,"arr":["1","3","6","7","15","18b"],"lines":"1, 3, 6, 7, 15, 18b"},"geometry":{"type":"LineString","coordinates":[[21.291073,46.201376],[21.291203,46.201301]]}},{"type":"Feature","properties":{"mode":"tram","n":6,"arr":["1","3","6","7","15","18b"],"lines":"1, 3, 6, 7, 15, 18b"},"geometry":{"type":"LineString","coordinates":[[21.292205,46.200962],[21.292582,46.200802],[21.292977,46.200597],[21.295222,46.19924],[21.296109,46.198661],[21.296593,46.198273],[21.299238,46.195909],[21.299516,46.195699],[21.301246,46.194936],[21.305641,46.193111],[21.305949,46.192966]]}},{"type":"Feature","properties":{"mode":"tram","n":5,"arr":["1","3","7","15","18b"],"lines":"1, 3, 7, 15, 18b"},"geometry":{"type":"LineString","coordinates":[[21.292852,46.201298],[21.292888,46.20109],[21.293012,46.200775],[21.29313,46.200598],[21.293244,46.200489]]}},{"type":"Feature","properties":{"mode":"tram","n":5,"arr":["1","3","7","15","18b"],"lines":"1, 3, 7, 15, 18b"},"geometry":{"type":"LineString","coordinates":[[21.290933,46.20176],[21.290915,46.201551],[21.290962,46.201469],[21.291073,46.201376]]}},{"type":"Feature","properties":{"mode":"tram","n":6,"arr":["1","1b","3","7","15","18b"],"lines":"1, 1b, 3, 7, 15, 18b"},"geometry":{"type":"LineString","coordinates":[[21.291676,46.202783],[21.292591,46.203499],[21.29271,46.203565],[21.292881,46.203599],[21.293022,46.203575],[21.293234,46.203446],[21.293282,46.203352],[21.293279,46.203203],[21.292852,46.201298]]}},{"type":"Feature","properties":{"mode":"tram","n":6,"arr":["1","1b","3","7","15","18b"],"lines":"1, 1b, 3, 7, 15, 18b"},"geometry":{"type":"LineString","coordinates":[[21.29136,46.202538],[21.291137,46.20232],[21.290933,46.20176]]}},{"type":"Feature","properties":{"mode":"tram","n":5,"arr":["1","1b","3","7","15"],"lines":"1, 1b, 3, 7, 15"},"geometry":{"type":"LineString","coordinates":[[21.29136,46.202538],[21.291676,46.202783]]}},{"type":"Feature","properties":{"mode":"tram","n":7,"arr":["1","1b","3","6","7","15","18b"],"lines":"1, 1b, 3, 6, 7, 15, 18b"},"geometry":{"type":"LineString","coordinates":[[21.291203,46.201301],[21.291708,46.20115],[21.292205,46.200962]]}},{"type":"Feature","properties":{"mode":"tram","n":5,"arr":["1","3","6","7","15"],"lines":"1, 3, 6, 7, 15"},"geometry":{"type":"LineString","coordinates":[[21.305949,46.192966],[21.30743,46.192349],[21.307812,46.192226],[21.30918,46.191951],[21.30995,46.191828],[21.312837,46.191273],[21.32246,46.189368],[21.323396,46.189178],[21.32415,46.188991],[21.324877,46.188588],[21.325446,46.187965],[21.325558,46.187797],[21.325638,46.187611],[21.325666,46.187417],[21.325628,46.187153],[21.325094,46.185884],[21.324927,46.185198]]}},{"type":"Feature","properties":{"mode":"tram","n":5,"arr":["1","3","6","7","16"],"lines":"1, 3, 6, 7, 16"},"geometry":{"type":"LineString","coordinates":[[21.323759,46.183167],[21.321704,46.180864],[21.320844,46.179758],[21.32002,46.178602],[21.318096,46.175464],[21.316606,46.173406],[21.315932,46.172173],[21.315898,46.172061],[21.315884,46.171795],[21.315926,46.171579],[21.315992,46.17142],[21.316504,46.170357],[21.316918,46.16968],[21.317193,46.169316],[21.317602,46.168901],[21.318282,46.168408],[21.318817,46.168133],[21.319641,46.16782]]}}]}