{"type":"FeatureCollection","features":[{"type":"Feature","geometry":{"type":"Point","coordinates":[21.324545,46.182407]},"properties":{"name":"Podgoria","sid":"B109","lines":"7A, 13, 18A, 19","arr":["7A","13","18A","19"],"terminus":1,"mode":"bus","color":"#0059a9","colorDark":"#00294f","angle":192.5,"snapDist":5,"label":1}},{"type":"Feature","geometry":{"type":"Point","coordinates":[21.334055,46.181105]},"properties":{"name":"Uzina Electrică","sid":"T118","lines":"7A, 18A, Ghioroc, Vladimirescu","arr":["7A","18A","Ghioroc","Vladimirescu"],"terminus":0,"mode":"bus","color":"#0059a9","colorDark":"#00294f","angle":13.1,"snapDist":2,"label":1}},{"type":"Feature","geometry":{"type":"Point","coordinates":[21.344325,46.180156]},"properties":{"name":"Maximilian","sid":"T065","lines":"7A, Ghioroc, Vladimirescu","arr":["7A","Ghioroc","Vladimirescu"],"terminus":0,"mode":"bus","color":"#0059a9","colorDark":"#00294f","angle":18.5,"snapDist":11,"label":1}},{"type":"Feature","geometry":{"type":"Point","coordinates":[21.349155,46.17904]},"properties":{"name":"Miorița","sid":"T067","lines":"7A, Ghioroc, Vladimirescu","arr":["7A","Ghioroc","Vladimirescu"],"terminus":0,"mode":"bus","color":"#0059a9","colorDark":"#00294f","angle":197.7,"snapDist":1,"label":1}},{"type":"Feature","geometry":{"type":"Point","coordinates":[21.356205,46.177482]},"properties":{"name":"Pășunii","sid":"T071","lines":"7A, Ghioroc, Vladimirescu","arr":["7A","Ghioroc","Vladimirescu"],"terminus":0,"mode":"bus","color":"#0059a9","colorDark":"#00294f","angle":197.4,"snapDist":4,"label":1}},{"type":"Feature","geometry":{"type":"Point","coordinates":[21.360062,46.176641]},"properties":{"name":"Renașterii 1","sid":"T099","lines":"7A, Ghioroc, Vladimirescu","arr":["7A","Ghioroc","Vladimirescu"],"terminus":0,"mode":"bus","color":"#0059a9","colorDark":"#00294f","angle":197.5,"snapDist":5,"label":1}},{"type":"Feature","geometry":{"type":"Point","coordinates":[21.359875,46.175295]},"properties":{"name":"Renașterii 4","sid":"T100","lines":"7A","arr":["7A"],"terminus":0,"mode":"bus","color":"#0059a9","colorDark":"#00294f","angle":287.4,"snapDist":2,"label":1}},{"type":"Feature","geometry":{"type":"Point","coordinates":[21.358159,46.17148]},"properties":{"name":"Grădinița","sid":"T057","lines":"7A","arr":["7A"],"terminus":0,"mode":"bus","color":"#0059a9","colorDark":"#00294f","angle":291.1,"snapDist":0,"label":1}},{"type":"Feature","geometry":{"type":"Point","coordinates":[21.354644,46.171432]},"properties":{"name":"Voinicilor 2","sid":"T124","lines":"7A, 18A, 48","arr":["7A","18A","48"],"terminus":0,"mode":"bus","color":"#0059a9","colorDark":"#00294f","angle":17.5,"snapDist":7,"label":1}},{"type":"Feature","geometry":{"type":"Point","coordinates":[21.348377,46.174359]},"properties":{"name":"Billa","sid":"B029","lines":"7A","arr":["7A"],"terminus":0,"mode":"bus","color":"#0059a9","colorDark":"#00294f","angle":67.7,"snapDist":6,"label":0}},{"type":"Feature","geometry":{"type":"Point","coordinates":[21.345651,46.17687]},"properties":{"name":"Universitate","sid":"T116","lines":"7A","arr":["7A"],"terminus":0,"mode":"bus","color":"#0059a9","colorDark":"#00294f","angle":35.4,"snapDist":3,"label":1}},{"type":"Feature","geometry":{"type":"Point","coordinates":[21.341038,46.179059]},"properties":{"name":"Maranata","sid":"B094","lines":"7A, 19","arr":["7A","19"],"terminus":0,"mode":"bus","color":"#0059a9","colorDark":"#00294f","angle":34.2,"snapDist":3,"label":1}},{"type":"Feature","geometry":{"type":"Point","coordinates":[21.333477,46.181196]},"properties":{"name":"Uzina Electrică","sid":"T117","lines":"7A, 18A, Ghioroc, Vladimirescu","arr":["7A","18A","Ghioroc","Vladimirescu"],"terminus":0,"mode":"bus","color":"#0059a9","colorDark":"#00294f","angle":-167.8,"snapDist":6,"label":0}},{"type":"Feature","geometry":{"type":"Point","coordinates":[21.462957,46.208501]},"properties":{"name":"Horia","sid":"X003","lines":"13","arr":["13"],"terminus":1,"mode":"bus","color":"#0059a9","colorDark":"#00294f","angle":247.1,"snapDist":9,"label":1}},{"type":"Feature","geometry":{"type":"Point","coordinates":[21.324813,46.183072]},"properties":{"name":"Podgoria","sid":"B110","lines":"13, 21, 31, 39b, 52, 54","arr":["13","21","31","39b","52","54"],"terminus":1,"mode":"bus","color":"#0059a9","colorDark":"#00294f","angle":166.4,"snapDist":1,"label":0}},{"type":"Feature","geometry":{"type":"Point","coordinates":[21.341424,46.178684]},"properties":{"name":"Maranata","sid":"B093","lines":"18A, 19","arr":["18A","19"],"terminus":0,"mode":"bus","color":"#0059a9","colorDark":"#00294f","angle":213.9,"snapDist":1,"label":0}},{"type":"Feature","geometry":{"type":"Point","coordinates":[21.345014,46.176996]},"properties":{"name":"Universitate","sid":"T115","lines":"18A","arr":["18A"],"terminus":0,"mode":"bus","color":"#0059a9","colorDark":"#00294f","angle":35.2,"snapDist":10,"label":0}},{"type":"Feature","geometry":{"type":"Point","coordinates":[21.347212,46.175564]},"properties":{"name":"Euromedic","sid":"T047","lines":"18A, 19","arr":["18A","19"],"terminus":0,"mode":"bus","color":"#0059a9","colorDark":"#00294f","angle":53.3,"snapDist":10,"label":1}},{"type":"Feature","geometry":{"type":"Point","coordinates":[21.348151,46.17418]},"properties":{"name":"Billa","sid":"B028","lines":"18A, 19","arr":["18A","19"],"terminus":0,"mode":"bus","color":"#0059a9","colorDark":"#00294f","angle":270.6,"snapDist":5,"label":0}},{"type":"Feature","geometry":{"type":"Point","coordinates":[21.358108,46.170978]},"properties":{"name":"Grădinița","sid":"T058","lines":"18A","arr":["18A"],"terminus":0,"mode":"bus","color":"#0059a9","colorDark":"#00294f","angle":-71.6,"snapDist":11,"label":0}},{"type":"Feature","geometry":{"type":"Point","coordinates":[21.360053,46.176782]},"properties":{"name":"Renașterii","sid":"B125","lines":"18A, Ghioroc, Vladimirescu","arr":["18A","Ghioroc","Vladimirescu"],"terminus":0,"mode":"bus","color":"#0059a9","colorDark":"#00294f","angle":17.7,"snapDist":4,"label":1}},{"type":"Feature","geometry":{"type":"Point","coordinates":[21.355895,46.177694]},"properties":{"name":"Pășunii","sid":"T072","lines":"18A, Ghioroc, Vladimirescu","arr":["18A","Ghioroc","Vladimirescu"],"terminus":0,"mode":"bus","color":"#0059a9","colorDark":"#00294f","angle":-163.1,"snapDist":12,"label":0}},{"type":"Feature","geometry":{"type":"Point","coordinates":[21.347748,46.179491]},"properties":{"name":"Miorița","sid":"B098","lines":"18A, Ghioroc, Vladimirescu","arr":["18A","Ghioroc","Vladimirescu"],"terminus":0,"mode":"bus","color":"#0059a9","colorDark":"#00294f","angle":18.4,"snapDist":10,"label":0}},{"type":"Feature","geometry":{"type":"Point","coordinates":[21.344658,46.180226]},"properties":{"name":"Maximilian","sid":"T066","lines":"18A, Ghioroc, Vladimirescu","arr":["18A","Ghioroc","Vladimirescu"],"terminus":0,"mode":"bus","color":"#0059a9","colorDark":"#00294f","angle":20.2,"snapDist":0,"label":0}},{"type":"Feature","geometry":{"type":"Point","coordinates":[21.308936,46.191819]},"properties":{"name":"U.T.A.","sid":"B145","lines":"19, 46, 49b, 60","arr":["19","46","49b","60"],"terminus":1,"mode":"bus","color":"#0059a9","colorDark":"#00294f","angle":186.2,"snapDist":11,"label":1}},{"type":"Feature","geometry":{"type":"Point","coordinates":[21.309923,46.186541]},"properties":{"name":"Simion Bărnuțiu","sid":"B134","lines":"19, 46, 49b, 60","arr":["19","46","49b","60"],"terminus":0,"mode":"bus","color":"#0059a9","colorDark":"#00294f","angle":276.2,"snapDist":10,"label":1}},{"type":"Feature","geometry":{"type":"Point","coordinates":[21.311633,46.18269]},"properties":{"name":"Piața Spitalului","sid":"B106","lines":"19, 21, 54","arr":["19","21","54"],"terminus":0,"mode":"bus","color":"#0059a9","colorDark":"#00294f","angle":166.6,"snapDist":9,"label":1}},{"type":"Feature","geometry":{"type":"Point","coordinates":[21.316015,46.185112]},"properties":{"name":"Banu Mărăcine","sid":"B024","lines":"19, 21, 54","arr":["19","21","54"],"terminus":0,"mode":"bus","color":"#0059a9","colorDark":"#00294f","angle":159.2,"snapDist":21,"label":1}},{"type":"Feature","geometry":{"type":"Point","coordinates":[21.33012,46.16157]},"properties":{"name":"Infanteriei","sid":"B085","lines":"19","arr":["19"],"terminus":0,"mode":"bus","color":"#0059a9","colorDark":"#00294f","angle":294,"snapDist":11,"label":1}},{"type":"Feature","geometry":{"type":"Point","coordinates":[21.32177,46.154023]},"properties":{"name":"Caraiman","sid":"B042","lines":"19, 49","arr":["19","49"],"terminus":1,"mode":"bus","color":"#0059a9","colorDark":"#00294f","angle":269.6,"snapDist":2,"label":1}},{"type":"Feature","geometry":{"type":"Point","coordinates":[21.334511,46.145328]},"properties":{"name":"Gara Aradul Nou","sid":"B076","lines":"19, 49b","arr":["19","49b"],"terminus":1,"mode":"bus","color":"#0059a9","colorDark":"#00294f","angle":107.1,"snapDist":3,"label":1}},{"type":"Feature","geometry":{"type":"Point","coordinates":[21.339213,46.146248]},"properties":{"name":"Clopotului","sid":"B052","lines":"19","arr":["19"],"terminus":0,"mode":"bus","color":"#0059a9","colorDark":"#00294f","angle":284.9,"snapDist":1,"label":1}},{"type":"Feature","geometry":{"type":"Point","coordinates":[21.338488,46.141941]},"properties":{"name":"Flacăra","sid":"B070","lines":"19","arr":["19"],"terminus":0,"mode":"bus","color":"#0059a9","colorDark":"#00294f","angle":284.3,"snapDist":9,"label":1}},{"type":"Feature","geometry":{"type":"Point","coordinates":[21.346089,46.13874]},"properties":{"name":"Ștefan Zarie","sid":"B136","lines":"19","arr":["19"],"terminus":0,"mode":"bus","color":"#0059a9","colorDark":"#00294f","angle":214.7,"snapDist":4,"label":1}},{"type":"Feature","geometry":{"type":"Point","coordinates":[21.352111,46.131824]},"properties":{"name":"Vântului","sid":"B153","lines":"19","arr":["19"],"terminus":1,"mode":"bus","color":"#0059a9","colorDark":"#00294f","angle":276.1,"snapDist":5,"label":1}},{"type":"Feature","geometry":{"type":"Point","coordinates":[21.352573,46.135574]},"properties":{"name":"Sânicolaul Mic","sid":"B130","lines":"19","arr":["19"],"terminus":0,"mode":"bus","color":"#0059a9","colorDark":"#00294f","angle":35.2,"snapDist":4,"label":1}},{"type":"Feature","geometry":{"type":"Point","coordinates":[21.346157,46.138707]},"properties":{"name":"Ștefan Zarie","sid":"B135","lines":"19","arr":["19"],"terminus":0,"mode":"bus","color":"#0059a9","colorDark":"#00294f","angle":34.7,"snapDist":9,"label":0}},{"type":"Feature","geometry":{"type":"Point","coordinates":[21.338506,46.14199]},"properties":{"name":"Flacăra","sid":"B071","lines":"19","arr":["19"],"terminus":0,"mode":"bus","color":"#0059a9","colorDark":"#00294f","angle":104.3,"snapDist":4,"label":0}},{"type":"Feature","geometry":{"type":"Point","coordinates":[21.339126,46.14602]},"properties":{"name":"Clopotului","sid":"B051","lines":"19","arr":["19"],"terminus":0,"mode":"bus","color":"#0059a9","colorDark":"#00294f","angle":104.9,"snapDist":4,"label":0}},{"type":"Feature","geometry":{"type":"Point","coordinates":[21.334496,46.145295]},"properties":{"name":"Gara Aradul Nou","sid":"B075","lines":"19, 49b","arr":["19","49b"],"terminus":1,"mode":"bus","color":"#0059a9","colorDark":"#00294f","angle":287.1,"snapDist":9,"label":0}},{"type":"Feature","geometry":{"type":"Point","coordinates":[21.32891,46.148122]},"properties":{"name":"Zimbrului","sid":"B156","lines":"19","arr":["19"],"terminus":0,"mode":"bus","color":"#0059a9","colorDark":"#00294f","angle":76.8,"snapDist":4,"label":1}},{"type":"Feature","geometry":{"type":"Point","coordinates":[21.326512,46.154689]},"properties":{"name":"Cibinului","sid":"B050","lines":"19","arr":["19"],"terminus":0,"mode":"bus","color":"#0059a9","colorDark":"#00294f","angle":76.6,"snapDist":1,"label":1}},{"type":"Feature","geometry":{"type":"Point","coordinates":[21.32988,46.161195]},"properties":{"name":"Infanteriei","sid":"B084","lines":"19","arr":["19"],"terminus":0,"mode":"bus","color":"#0059a9","colorDark":"#00294f","angle":114,"snapDist":4,"label":0}},{"type":"Feature","geometry":{"type":"Point","coordinates":[21.348849,46.173028]},"properties":{"name":"Billa","sid":"P27","lines":"19, 48","arr":["19","48"],"terminus":1,"mode":"bus","color":"#0059a9","colorDark":"#00294f","angle":80.3,"snapDist":3,"label":1}},{"type":"Feature","geometry":{"type":"Point","coordinates":[21.345408,46.176994]},"properties":{"name":"Euromedic","sid":"P56","lines":"19","arr":["19"],"terminus":0,"mode":"bus","color":"#0059a9","colorDark":"#00294f","angle":37,"snapDist":6,"label":0}},{"type":"Feature","geometry":{"type":"Point","coordinates":[21.322707,46.183193]},"properties":{"name":"Lacului","sid":"B090","lines":"19","arr":["19"],"terminus":0,"mode":"bus","color":"#0059a9","colorDark":"#00294f","angle":11,"snapDist":5,"label":1}},{"type":"Feature","geometry":{"type":"Point","coordinates":[21.316939,46.185177]},"properties":{"name":"Banu Mărăcine","sid":"B025","lines":"19, 21, 54","arr":["19","21","54"],"terminus":0,"mode":"bus","color":"#0059a9","colorDark":"#00294f","angle":10.8,"snapDist":21,"label":0}},{"type":"Feature","geometry":{"type":"Point","coordinates":[21.309675,46.183296]},"properties":{"name":"Piața Spitalului","sid":"B108","lines":"19, 46, 49b, 60","arr":["19","46","49b","60"],"terminus":0,"mode":"bus","color":"#0059a9","colorDark":"#00294f","angle":76.6,"snapDist":11,"label":0}},{"type":"Feature","geometry":{"type":"Point","coordinates":[21.309953,46.186733]},"properties":{"name":"Simion Bărnuțiu","sid":"B133","lines":"19, 46, 49b, 60","arr":["19","46","49b","60"],"terminus":0,"mode":"bus","color":"#0059a9","colorDark":"#00294f","angle":96.2,"snapDist":5,"label":0}},{"type":"Feature","geometry":{"type":"Point","coordinates":[21.309823,46.191999]},"properties":{"name":"U.T.A.","sid":"B146","lines":"19, 46, 49b, 60","arr":["19","46","49b","60"],"terminus":1,"mode":"bus","color":"#0059a9","colorDark":"#00294f","angle":17.2,"snapDist":7,"label":0}},{"type":"Feature","geometry":{"type":"Point","coordinates":[21.325774,46.187253]},"properties":{"name":"Gara CFR","sid":"B077","lines":"21, 39b","arr":["21","39b"],"terminus":0,"mode":"bus","color":"#0059a9","colorDark":"#00294f","angle":94.7,"snapDist":4,"label":1}},{"type":"Feature","geometry":{"type":"Point","coordinates":[21.309425,46.181165]},"properties":{"name":"Piața Spitalului","sid":"B107","lines":"21, 46, 49b, 54, 60","arr":["21","46","49b","54","60"],"terminus":0,"mode":"bus","color":"#0059a9","colorDark":"#00294f","angle":290.6,"snapDist":8,"label":1}},{"type":"Feature","geometry":{"type":"Point","coordinates":[21.303385,46.178512]},"properties":{"name":"Liviu Rebreanu","sid":"B091","lines":"21","arr":["21"],"terminus":0,"mode":"bus","color":"#0059a9","colorDark":"#00294f","angle":19.8,"snapDist":3,"label":1}},{"type":"Feature","geometry":{"type":"Point","coordinates":[21.29706,46.180108]},"properties":{"name":"Confecții","sid":"B053","lines":"21","arr":["21"],"terminus":0,"mode":"bus","color":"#0059a9","colorDark":"#00294f","angle":20,"snapDist":4,"label":1}},{"type":"Feature","geometry":{"type":"Point","coordinates":[21.293897,46.173578]},"properties":{"name":"Cpt. Ignat","sid":"B056","lines":"21","arr":["21"],"terminus":0,"mode":"bus","color":"#0059a9","colorDark":"#00294f","angle":279,"snapDist":22,"label":1}},{"type":"Feature","geometry":{"type":"Point","coordinates":[21.291634,46.168799]},"properties":{"name":"Pomenirea","sid":"B113","lines":"21","arr":["21"],"terminus":0,"mode":"bus","color":"#0059a9","colorDark":"#00294f","angle":289.3,"snapDist":0,"label":1}},{"type":"Feature","geometry":{"type":"Point","coordinates":[21.29069,46.163842]},"properties":{"name":"Faleză Sud","sid":"B064","lines":"21","arr":["21"],"terminus":1,"mode":"bus","color":"#0059a9","colorDark":"#00294f","angle":198.6,"snapDist":14,"label":1}},{"type":"Feature","geometry":{"type":"Point","coordinates":[21.292022,46.169579]},"properties":{"name":"Pomenirea","sid":"B114","lines":"21","arr":["21"],"terminus":0,"mode":"bus","color":"#0059a9","colorDark":"#00294f","angle":108.6,"snapDist":3,"label":0}},{"type":"Feature","geometry":{"type":"Point","coordinates":[21.294222,46.174819]},"properties":{"name":"Cpt. Ignat","sid":"B057","lines":"21","arr":["21"],"terminus":0,"mode":"bus","color":"#0059a9","colorDark":"#00294f","angle":108.3,"snapDist":3,"label":0}},{"type":"Feature","geometry":{"type":"Point","coordinates":[21.297399,46.180023]},"properties":{"name":"Confecții","sid":"B054","lines":"21","arr":["21"],"terminus":0,"mode":"bus","color":"#0059a9","colorDark":"#00294f","angle":20,"snapDist":9,"label":0}},{"type":"Feature","geometry":{"type":"Point","coordinates":[21.304152,46.17832]},"properties":{"name":"Liviu Rebreanu","sid":"B092","lines":"21","arr":["21"],"terminus":0,"mode":"bus","color":"#0059a9","colorDark":"#00294f","angle":20.3,"snapDist":26,"label":0}},{"type":"Feature","geometry":{"type":"Point","coordinates":[21.323009,46.206593]},"properties":{"name":"Trenului","sid":"B140","lines":"31","arr":["31"],"terminus":1,"mode":"bus","color":"#0059a9","colorDark":"#00294f","angle":267.6,"snapDist":7,"label":1}},{"type":"Feature","geometry":{"type":"Point","coordinates":[21.323049,46.203356]},"properties":{"name":"Viitorului","sid":"B155","lines":"31","arr":["31"],"terminus":0,"mode":"bus","color":"#0059a9","colorDark":"#00294f","angle":275.3,"snapDist":5,"label":1}},{"type":"Feature","geometry":{"type":"Point","coordinates":[21.323567,46.199294]},"properties":{"name":"Râșnov","sid":"B121","lines":"31","arr":["31"],"terminus":0,"mode":"bus","color":"#0059a9","colorDark":"#00294f","angle":175.2,"snapDist":3,"label":1}},{"type":"Feature","geometry":{"type":"Point","coordinates":[21.325681,46.198615]},"properties":{"name":"Vezuviului","sid":"X001","lines":"31","arr":["31"],"terminus":0,"mode":"bus","color":"#0059a9","colorDark":"#00294f","angle":258.9,"snapDist":6,"label":1}},{"type":"Feature","geometry":{"type":"Point","coordinates":[21.326713,46.197944]},"properties":{"name":"Rândunicii","sid":"B119","lines":"31","arr":["31"],"terminus":0,"mode":"bus","color":"#0059a9","colorDark":"#00294f","angle":196.7,"snapDist":2,"label":1}},{"type":"Feature","geometry":{"type":"Point","coordinates":[21.33314,46.196028]},"properties":{"name":"Gorunului","sid":"B079","lines":"31","arr":["31"],"terminus":0,"mode":"bus","color":"#0059a9","colorDark":"#00294f","angle":217.4,"snapDist":3,"label":1}},{"type":"Feature","geometry":{"type":"Point","coordinates":[21.329996,46.190978]},"properties":{"name":"Astra Sector II","sid":"B010","lines":"31, 52","arr":["31","52"],"terminus":0,"mode":"bus","color":"#0059a9","colorDark":"#00294f","angle":295.6,"snapDist":11,"label":1}},{"type":"Feature","geometry":{"type":"Point","coordinates":[21.330204,46.191279]},"properties":{"name":"Astra Sector II","sid":"B009","lines":"31, 52","arr":["31","52"],"terminus":0,"mode":"bus","color":"#0059a9","colorDark":"#00294f","angle":115.6,"snapDist":5,"label":0}},{"type":"Feature","geometry":{"type":"Point","coordinates":[21.333072,46.196064]},"properties":{"name":"Gorunului","sid":"B080","lines":"31","arr":["31"],"terminus":0,"mode":"bus","color":"#0059a9","colorDark":"#00294f","angle":37.4,"snapDist":4,"label":0}},{"type":"Feature","geometry":{"type":"Point","coordinates":[21.327492,46.20131]},"properties":{"name":"Bisericii","sid":"B151","lines":"31","arr":["31"],"terminus":0,"mode":"bus","color":"#0059a9","colorDark":"#00294f","angle":101.5,"snapDist":5,"label":1}},{"type":"Feature","geometry":{"type":"Point","coordinates":[21.326629,46.206742]},"properties":{"name":"Păpădiei","sid":"B152","lines":"31","arr":["31"],"terminus":0,"mode":"bus","color":"#0059a9","colorDark":"#00294f","angle":2.8,"snapDist":2,"label":1}},{"type":"Feature","geometry":{"type":"Point","coordinates":[21.319529,46.191626]},"properties":{"name":"Atrium","sid":"B013","lines":"39b","arr":["39b"],"terminus":0,"mode":"bus","color":"#0059a9","colorDark":"#00294f","angle":102.1,"snapDist":3,"label":1}},{"type":"Feature","geometry":{"type":"Point","coordinates":[21.32015,46.199268]},"properties":{"name":"Feroneria","sid":"B069","lines":"39b","arr":["39b"],"terminus":0,"mode":"bus","color":"#0059a9","colorDark":"#00294f","angle":74.6,"snapDist":1,"label":1}},{"type":"Feature","geometry":{"type":"Point","coordinates":[21.320572,46.20723]},"properties":{"name":"Cedrului","sid":"B047","lines":"39b","arr":["39b"],"terminus":0,"mode":"bus","color":"#0059a9","colorDark":"#00294f","angle":89.8,"snapDist":2,"label":1}},{"type":"Feature","geometry":{"type":"Point","coordinates":[21.32057,46.21281]},"properties":{"name":"Arțarului","sid":"B007","lines":"39b","arr":["39b"],"terminus":1,"mode":"bus","color":"#0059a9","colorDark":"#00294f","angle":359.3,"snapDist":1,"label":1}},{"type":"Feature","geometry":{"type":"Point","coordinates":[21.320551,46.2127]},"properties":{"name":"Arțarului","sid":"B008","lines":"39b","arr":["39b"],"terminus":1,"mode":"bus","color":"#0059a9","colorDark":"#00294f","angle":269.9,"snapDist":9,"label":0}},{"type":"Feature","geometry":{"type":"Point","coordinates":[21.320571,46.20736]},"properties":{"name":"Cedrului","sid":"B046","lines":"39b","arr":["39b"],"terminus":0,"mode":"bus","color":"#0059a9","colorDark":"#00294f","angle":269.8,"snapDist":14,"label":0}},{"type":"Feature","geometry":{"type":"Point","coordinates":[21.320259,46.198967]},"properties":{"name":"Feroneria","sid":"B068","lines":"39b","arr":["39b"],"terminus":0,"mode":"bus","color":"#0059a9","colorDark":"#00294f","angle":256.3,"snapDist":3,"label":0}},{"type":"Feature","geometry":{"type":"Point","coordinates":[21.319635,46.191968]},"properties":{"name":"Atrium","sid":"B014","lines":"39b","arr":["39b"],"terminus":0,"mode":"bus","color":"#0059a9","colorDark":"#00294f","angle":282.1,"snapDist":1,"label":0}},{"type":"Feature","geometry":{"type":"Point","coordinates":[21.319935,46.166461]},"properties":{"name":"Piața Romană","sid":"P92","lines":"41, 60","arr":["41","60"],"terminus":1,"mode":"bus","color":"#0059a9","colorDark":"#00294f","angle":102.8,"snapDist":3,"label":1}},{"type":"Feature","geometry":{"type":"Point","coordinates":[21.310781,46.167044]},"properties":{"name":"Biserica Sârbească","sid":"T027","lines":"41, 60","arr":["41","60"],"terminus":0,"mode":"bus","color":"#0059a9","colorDark":"#00294f","angle":358.9,"snapDist":5,"label":1}},{"type":"Feature","geometry":{"type":"Point","coordinates":[21.3047,46.171997]},"properties":{"name":"Eminescu","sid":"B060","lines":"41, 46, 49b, 54, 60","arr":["41","46","49b","54","60"],"terminus":0,"mode":"bus","color":"#0059a9","colorDark":"#00294f","angle":109.7,"snapDist":2,"label":1}},{"type":"Feature","geometry":{"type":"Point","coordinates":[21.30831,46.179718]},"properties":{"name":"Bela Bartók","sid":"B026","lines":"41","arr":["41"],"terminus":0,"mode":"bus","color":"#0059a9","colorDark":"#00294f","angle":19.9,"snapDist":4,"label":1}},{"type":"Feature","geometry":{"type":"Point","coordinates":[21.303779,46.180856]},"properties":{"name":"Ion Rațiu","sid":"B086","lines":"41","arr":["41"],"terminus":0,"mode":"bus","color":"#0059a9","colorDark":"#00294f","angle":20,"snapDist":2,"label":1}},{"type":"Feature","geometry":{"type":"Point","coordinates":[21.29727,46.182059]},"properties":{"name":"Abatorului","sid":"B001","lines":"41","arr":["41"],"terminus":0,"mode":"bus","color":"#0059a9","colorDark":"#00294f","angle":350.3,"snapDist":9,"label":1}},{"type":"Feature","geometry":{"type":"Point","coordinates":[21.298458,46.188608]},"properties":{"name":"Brâncoveanu","sid":"B030","lines":"41","arr":["41"],"terminus":0,"mode":"bus","color":"#0059a9","colorDark":"#00294f","angle":-89.3,"snapDist":23,"label":1}},{"type":"Feature","geometry":{"type":"Point","coordinates":[21.292168,46.189263]},"properties":{"name":"Brâncuși","sid":"B033","lines":"41","arr":["41"],"terminus":0,"mode":"bus","color":"#0059a9","colorDark":"#00294f","angle":73.4,"snapDist":3,"label":1}},{"type":"Feature","geometry":{"type":"Point","coordinates":[21.287943,46.192649]},"properties":{"name":"Independenței","sid":"B082","lines":"41","arr":["41"],"terminus":0,"mode":"bus","color":"#0059a9","colorDark":"#00294f","angle":89,"snapDist":4,"label":1}},{"type":"Feature","geometry":{"type":"Point","coordinates":[21.282539,46.19294]},"properties":{"name":"Piața Bujac","sid":"B102","lines":"41","arr":["41"],"terminus":0,"mode":"bus","color":"#0059a9","colorDark":"#00294f","angle":1.5,"snapDist":3,"label":1}},{"type":"Feature","geometry":{"type":"Point","coordinates":[21.275324,46.19335]},"properties":{"name":"Trotușului","sid":"B143","lines":"41","arr":["41"],"terminus":0,"mode":"bus","color":"#0059a9","colorDark":"#00294f","angle":91.5,"snapDist":1,"label":1}},{"type":"Feature","geometry":{"type":"Point","coordinates":[21.276023,46.196695]},"properties":{"name":"Bujac","sid":"B036","lines":"41","arr":["41"],"terminus":1,"mode":"bus","color":"#0059a9","colorDark":"#00294f","angle":137,"snapDist":1,"label":1}},{"type":"Feature","geometry":{"type":"Point","coordinates":[21.275347,46.193919]},"properties":{"name":"Trotușului","sid":"B144","lines":"41","arr":["41"],"terminus":0,"mode":"bus","color":"#0059a9","colorDark":"#00294f","angle":271.5,"snapDist":5,"label":0}},{"type":"Feature","geometry":{"type":"Point","coordinates":[21.282021,46.19295]},"properties":{"name":"Piața Bujac","sid":"B103","lines":"41","arr":["41"],"terminus":0,"mode":"bus","color":"#0059a9","colorDark":"#00294f","angle":181.5,"snapDist":2,"label":0}},{"type":"Feature","geometry":{"type":"Point","coordinates":[21.286749,46.192874]},"properties":{"name":"Independenței","sid":"B083","lines":"41","arr":["41"],"terminus":0,"mode":"bus","color":"#0059a9","colorDark":"#00294f","angle":181.5,"snapDist":2,"label":0}},{"type":"Feature","geometry":{"type":"Point","coordinates":[21.292202,46.189186]},"properties":{"name":"Brâncuși","sid":"B034","lines":"41","arr":["41"],"terminus":0,"mode":"bus","color":"#0059a9","colorDark":"#00294f","angle":253.4,"snapDist":18,"label":0}},{"type":"Feature","geometry":{"type":"Point","coordinates":[21.297906,46.190121]},"properties":{"name":"Brâncoveanu","sid":"B031","lines":"41","arr":["41"],"terminus":0,"mode":"bus","color":"#0059a9","colorDark":"#00294f","angle":162.2,"snapDist":4,"label":0}},{"type":"Feature","geometry":{"type":"Point","coordinates":[21.296536,46.181959]},"properties":{"name":"Abatorului","sid":"B002","lines":"41","arr":["41"],"terminus":0,"mode":"bus","color":"#0059a9","colorDark":"#00294f","angle":168.8,"snapDist":6,"label":0}},{"type":"Feature","geometry":{"type":"Point","coordinates":[21.304169,46.180758]},"properties":{"name":"Ion Rațiu","sid":"B087","lines":"41","arr":["41"],"terminus":0,"mode":"bus","color":"#0059a9","colorDark":"#00294f","angle":200,"snapDist":2,"label":0}},{"type":"Feature","geometry":{"type":"Point","coordinates":[21.306669,46.180129]},"properties":{"name":"Bela Bartók","sid":"B027","lines":"41","arr":["41"],"terminus":0,"mode":"bus","color":"#0059a9","colorDark":"#00294f","angle":200,"snapDist":45,"label":0}},{"type":"Feature","geometry":{"type":"Point","coordinates":[21.304409,46.171421]},"properties":{"name":"Eminescu","sid":"B061","lines":"41, 46, 49b, 54, 60","arr":["41","46","49b","54","60"],"terminus":0,"mode":"bus","color":"#0059a9","colorDark":"#00294f","angle":289.4,"snapDist":10,"label":0}},{"type":"Feature","geometry":{"type":"Point","coordinates":[21.31095,46.167051]},"properties":{"name":"Biserica Sârbească","sid":"T028","lines":"41, 60","arr":["41","60"],"terminus":0,"mode":"bus","color":"#0059a9","colorDark":"#00294f","angle":176.5,"snapDist":26,"label":0}},{"type":"Feature","geometry":{"type":"Point","coordinates":[21.308249,46.171139]},"properties":{"name":"Parcul Reconcilierii","sid":"B101","lines":"46","arr":["46"],"terminus":1,"mode":"bus","color":"#0059a9","colorDark":"#00294f","angle":149.9,"snapDist":6,"label":1}},{"type":"Feature","geometry":{"type":"Point","coordinates":[21.307347,46.194708]},"properties":{"name":"Bumbacului","sid":"B037","lines":"46, 60","arr":["46","60"],"terminus":0,"mode":"bus","color":"#0059a9","colorDark":"#00294f","angle":41.8,"snapDist":0,"label":1}},{"type":"Feature","geometry":{"type":"Point","coordinates":[21.301122,46.19876]},"properties":{"name":"Călărașilor","sid":"B039","lines":"46, 60","arr":["46","60"],"terminus":0,"mode":"bus","color":"#0059a9","colorDark":"#00294f","angle":49.5,"snapDist":7,"label":1}},{"type":"Feature","geometry":{"type":"Point","coordinates":[21.29802,46.202344]},"properties":{"name":"Saturn","sid":"B127","lines":"46, 60","arr":["46","60"],"terminus":0,"mode":"bus","color":"#0059a9","colorDark":"#00294f","angle":59.7,"snapDist":8,"label":1}},{"type":"Feature","geometry":{"type":"Point","coordinates":[21.290711,46.211621]},"properties":{"name":"Toth Arpad","sid":"B138","lines":"46, 60","arr":["46","60"],"terminus":0,"mode":"bus","color":"#0059a9","colorDark":"#00294f","angle":60.9,"snapDist":4,"label":1}},{"type":"Feature","geometry":{"type":"Point","coordinates":[21.287135,46.215208]},"properties":{"name":"Tribunul Corcheș","sid":"B142","lines":"46","arr":["46"],"terminus":0,"mode":"bus","color":"#0059a9","colorDark":"#00294f","angle":48,"snapDist":4,"label":1}},{"type":"Feature","geometry":{"type":"Point","coordinates":[21.283237,46.218265]},"properties":{"name":"Radu Negru","sid":"B116","lines":"46","arr":["46"],"terminus":0,"mode":"bus","color":"#0059a9","colorDark":"#00294f","angle":49.5,"snapDist":4,"label":1}},{"type":"Feature","geometry":{"type":"Point","coordinates":[21.279527,46.221184]},"properties":{"name":"Universului","sid":"B148","lines":"46","arr":["46"],"terminus":0,"mode":"bus","color":"#0059a9","colorDark":"#00294f","angle":48.9,"snapDist":4,"label":1}},{"type":"Feature","geometry":{"type":"Point","coordinates":[21.269514,46.225709]},"properties":{"name":"Westfield ram","sid":"B174","lines":"46","arr":["46"],"terminus":0,"mode":"bus","color":"#0059a9","colorDark":"#00294f","angle":45.3,"snapDist":5,"label":1}},{"type":"Feature","geometry":{"type":"Point","coordinates":[21.261799,46.252619]},"properties":{"name":"Cartier San Paolo","sid":"B043","lines":"46","arr":["46"],"terminus":1,"mode":"bus","color":"#0059a9","colorDark":"#00294f","angle":17.9,"snapDist":8,"label":1}},{"type":"Feature","geometry":{"type":"Point","coordinates":[21.269522,46.225703]},"properties":{"name":"Westfield ram","sid":"B175","lines":"46","arr":["46"],"terminus":0,"mode":"bus","color":"#0059a9","colorDark":"#00294f","angle":225.3,"snapDist":10,"label":0}},{"type":"Feature","geometry":{"type":"Point","coordinates":[21.279293,46.22137]},"properties":{"name":"Universului","sid":"B147","lines":"46","arr":["46"],"terminus":0,"mode":"bus","color":"#0059a9","colorDark":"#00294f","angle":228.9,"snapDist":3,"label":0}},{"type":"Feature","geometry":{"type":"Point","coordinates":[21.28355,46.218016]},"properties":{"name":"Radu Negru","sid":"B117","lines":"46","arr":["46"],"terminus":0,"mode":"bus","color":"#0059a9","colorDark":"#00294f","angle":228.9,"snapDist":1,"label":0}},{"type":"Feature","geometry":{"type":"Point","coordinates":[21.288077,46.214484]},"properties":{"name":"Tribunul Corcheș","sid":"B141","lines":"46","arr":["46"],"terminus":0,"mode":"bus","color":"#0059a9","colorDark":"#00294f","angle":228,"snapDist":9,"label":0}},{"type":"Feature","geometry":{"type":"Point","coordinates":[21.290445,46.211954]},"properties":{"name":"Toth Arpad","sid":"B139","lines":"46, 60","arr":["46","60"],"terminus":0,"mode":"bus","color":"#0059a9","colorDark":"#00294f","angle":241.2,"snapDist":10,"label":0}},{"type":"Feature","geometry":{"type":"Point","coordinates":[21.297875,46.202516]},"properties":{"name":"Saturn","sid":"B128","lines":"46, 60","arr":["46","60"],"terminus":0,"mode":"bus","color":"#0059a9","colorDark":"#00294f","angle":239.9,"snapDist":1,"label":0}},{"type":"Feature","geometry":{"type":"Point","coordinates":[21.301058,46.198812]},"properties":{"name":"Călărașilor","sid":"B040","lines":"46, 60","arr":["46","60"],"terminus":0,"mode":"bus","color":"#0059a9","colorDark":"#00294f","angle":229.5,"snapDist":9,"label":0}},{"type":"Feature","geometry":{"type":"Point","coordinates":[21.306317,46.195335]},"properties":{"name":"Bumbacului","sid":"B038","lines":"46, 60","arr":["46","60"],"terminus":0,"mode":"bus","color":"#0059a9","colorDark":"#00294f","angle":222.7,"snapDist":1,"label":0}},{"type":"Feature","geometry":{"type":"Point","coordinates":[21.351864,46.169021]},"properties":{"name":"Felix","sid":"B067","lines":"48","arr":["48"],"terminus":0,"mode":"bus","color":"#0059a9","colorDark":"#00294f","angle":287.8,"snapDist":0,"label":1}},{"type":"Feature","geometry":{"type":"Point","coordinates":[21.352986,46.166671]},"properties":{"name":"Frăției","sid":"B074","lines":"48","arr":["48"],"terminus":0,"mode":"bus","color":"#0059a9","colorDark":"#00294f","angle":197.3,"snapDist":1,"label":1}},{"type":"Feature","geometry":{"type":"Point","coordinates":[21.359545,46.170367]},"properties":{"name":"Renașterii","sid":"B123","lines":"48","arr":["48"],"terminus":0,"mode":"bus","color":"#0059a9","colorDark":"#00294f","angle":197.2,"snapDist":7,"label":1}},{"type":"Feature","geometry":{"type":"Point","coordinates":[21.366407,46.167933]},"properties":{"name":"ANL","sid":"B004","lines":"48","arr":["48"],"terminus":0,"mode":"bus","color":"#0059a9","colorDark":"#00294f","angle":104.2,"snapDist":14,"label":1}},{"type":"Feature","geometry":{"type":"Point","coordinates":[21.372663,46.172552]},"properties":{"name":"Selgros","sid":"P297","lines":"48","arr":["48"],"terminus":0,"mode":"bus","color":"#0059a9","colorDark":"#00294f","angle":106.7,"snapDist":1,"label":1}},{"type":"Feature","geometry":{"type":"Point","coordinates":[21.378725,46.169664]},"properties":{"name":"Real","sid":"B122","lines":"48","arr":["48"],"terminus":1,"mode":"bus","color":"#0059a9","colorDark":"#00294f","angle":25.6,"snapDist":8,"label":1}},{"type":"Feature","geometry":{"type":"Point","coordinates":[21.321994,46.153653]},"properties":{"name":"Caraiman","sid":"B041","lines":"49","arr":["49"],"terminus":1,"mode":"bus","color":"#0059a9","colorDark":"#00294f","angle":90.6,"snapDist":1,"label":0}},{"type":"Feature","geometry":{"type":"Point","coordinates":[21.316308,46.155479]},"properties":{"name":"Posada","sid":"B157","lines":"49","arr":["49"],"terminus":0,"mode":"bus","color":"#0059a9","colorDark":"#00294f","angle":3,"snapDist":21,"label":1}},{"type":"Feature","geometry":{"type":"Point","coordinates":[21.307409,46.152422]},"properties":{"name":"Constituției","sid":"B159","lines":"49","arr":["49"],"terminus":0,"mode":"bus","color":"#0059a9","colorDark":"#00294f","angle":325.2,"snapDist":20,"label":1}},{"type":"Feature","geometry":{"type":"Point","coordinates":[21.303606,46.154081]},"properties":{"name":"C. Turzii","sid":"B161","lines":"49","arr":["49"],"terminus":0,"mode":"bus","color":"#0059a9","colorDark":"#00294f","angle":11.3,"snapDist":6,"label":1}},{"type":"Feature","geometry":{"type":"Point","coordinates":[21.298704,46.154053]},"properties":{"name":"Economu","sid":"B164","lines":"49, 49b","arr":["49","49b"],"terminus":0,"mode":"bus","color":"#0059a9","colorDark":"#00294f","angle":282.3,"snapDist":9,"label":1}},{"type":"Feature","geometry":{"type":"Point","coordinates":[21.302943,46.152369]},"properties":{"name":"Coloniștilor","sid":"B166","lines":"49, 49b","arr":["49","49b"],"terminus":0,"mode":"bus","color":"#0059a9","colorDark":"#00294f","angle":192.1,"snapDist":1,"label":1}},{"type":"Feature","geometry":{"type":"Point","coordinates":[21.307699,46.152561]},"properties":{"name":"Constituției","sid":"B160","lines":"49","arr":["49"],"terminus":0,"mode":"bus","color":"#0059a9","colorDark":"#00294f","angle":145.2,"snapDist":4,"label":0}},{"type":"Feature","geometry":{"type":"Point","coordinates":[21.315719,46.155401]},"properties":{"name":"Posada","sid":"B158","lines":"49","arr":["49"],"terminus":0,"mode":"bus","color":"#0059a9","colorDark":"#00294f","angle":166.6,"snapDist":47,"label":0}},{"type":"Feature","geometry":{"type":"Point","coordinates":[21.321472,46.148159]},"properties":{"name":"Calea Timișorii","sid":"X002","lines":"49","arr":["49"],"terminus":0,"mode":"bus","color":"#0059a9","colorDark":"#00294f","angle":93,"snapDist":2,"label":1}},{"type":"Feature","geometry":{"type":"Point","coordinates":[21.320068,46.141052]},"properties":{"name":"Ogorului","sid":"B099","lines":"49, 49b","arr":["49","49b"],"terminus":0,"mode":"bus","color":"#0059a9","colorDark":"#00294f","angle":1.1,"snapDist":6,"label":1}},{"type":"Feature","geometry":{"type":"Point","coordinates":[21.314808,46.141125]},"properties":{"name":"Bagdazar","sid":"B023","lines":"49, 49b","arr":["49","49b"],"terminus":0,"mode":"bus","color":"#0059a9","colorDark":"#00294f","angle":1.6,"snapDist":5,"label":1}},{"type":"Feature","geometry":{"type":"Point","coordinates":[21.312123,46.141174]},"properties":{"name":"Armoniei","sid":"B005","lines":"49, 49b","arr":["49","49b"],"terminus":0,"mode":"bus","color":"#0059a9","colorDark":"#00294f","angle":1.8,"snapDist":16,"label":1}},{"type":"Feature","geometry":{"type":"Point","coordinates":[21.312722,46.141166]},"properties":{"name":"Armoniei","sid":"B006","lines":"49, 49b","arr":["49","49b"],"terminus":0,"mode":"bus","color":"#0059a9","colorDark":"#00294f","angle":-178.4,"snapDist":6,"label":0}},{"type":"Feature","geometry":{"type":"Point","coordinates":[21.315452,46.141114]},"properties":{"name":"Bagdazar","sid":"B022","lines":"49, 49b","arr":["49","49b"],"terminus":0,"mode":"bus","color":"#0059a9","colorDark":"#00294f","angle":-178.9,"snapDist":7,"label":0}},{"type":"Feature","geometry":{"type":"Point","coordinates":[21.319822,46.141055]},"properties":{"name":"Ogorului","sid":"B100","lines":"49, 49b","arr":["49","49b"],"terminus":0,"mode":"bus","color":"#0059a9","colorDark":"#00294f","angle":-178.9,"snapDist":6,"label":0}},{"type":"Feature","geometry":{"type":"Point","coordinates":[21.301652,46.166109]},"properties":{"name":"Andrei Șaguna","sid":"B162","lines":"49b","arr":["49b"],"terminus":0,"mode":"bus","color":"#0059a9","colorDark":"#00294f","angle":290.5,"snapDist":0,"label":1}},{"type":"Feature","geometry":{"type":"Point","coordinates":[21.307705,46.14805]},"properties":{"name":"C-tin Ticu Dumitrescu","sid":"B168","lines":"49b","arr":["49b"],"terminus":0,"mode":"bus","color":"#0059a9","colorDark":"#00294f","angle":269.6,"snapDist":2,"label":1}},{"type":"Feature","geometry":{"type":"Point","coordinates":[21.321493,46.144767]},"properties":{"name":"Autoservice","sid":"B016","lines":"49b","arr":["49b"],"terminus":0,"mode":"bus","color":"#0059a9","colorDark":"#00294f","angle":87.6,"snapDist":8,"label":1}},{"type":"Feature","geometry":{"type":"Point","coordinates":[21.321408,46.145585]},"properties":{"name":"Autoservice","sid":"B017","lines":"49b","arr":["49b"],"terminus":0,"mode":"bus","color":"#0059a9","colorDark":"#00294f","angle":255.5,"snapDist":20,"label":0}},{"type":"Feature","geometry":{"type":"Point","coordinates":[21.307705,46.14805]},"properties":{"name":"C-tin Ticu Dumitrescu","sid":"B169","lines":"49b","arr":["49b"],"terminus":0,"mode":"bus","color":"#0059a9","colorDark":"#00294f","angle":89.6,"snapDist":2,"label":0}},{"type":"Feature","geometry":{"type":"Point","coordinates":[21.30228,46.152467]},"properties":{"name":"Coloniștilor","sid":"B167","lines":"49b","arr":["49b"],"terminus":0,"mode":"bus","color":"#0059a9","colorDark":"#00294f","angle":12.1,"snapDist":7,"label":0}},{"type":"Feature","geometry":{"type":"Point","coordinates":[21.298649,46.153879]},"properties":{"name":"Economu","sid":"B165","lines":"49b","arr":["49b"],"terminus":0,"mode":"bus","color":"#0059a9","colorDark":"#00294f","angle":102.4,"snapDist":5,"label":0}},{"type":"Feature","geometry":{"type":"Point","coordinates":[21.301687,46.166175]},"properties":{"name":"Andrei Șaguna","sid":"B163","lines":"49b","arr":["49b"],"terminus":0,"mode":"bus","color":"#0059a9","colorDark":"#00294f","angle":110.5,"snapDist":5,"label":0}},{"type":"Feature","geometry":{"type":"Point","coordinates":[21.335425,46.194455]},"properties":{"name":"Budai Deleanu","sid":"B035","lines":"52","arr":["52"],"terminus":0,"mode":"bus","color":"#0059a9","colorDark":"#00294f","angle":215.9,"snapDist":4,"label":1}},{"type":"Feature","geometry":{"type":"Point","coordinates":[21.33953,46.192287]},"properties":{"name":"Mierlei","sid":"P350","lines":"52","arr":["52"],"terminus":0,"mode":"bus","color":"#0059a9","colorDark":"#00294f","angle":230.8,"snapDist":4,"label":1}},{"type":"Feature","geometry":{"type":"Point","coordinates":[21.342578,46.188729]},"properties":{"name":"Orient","sid":"P351","lines":"52","arr":["52"],"terminus":0,"mode":"bus","color":"#0059a9","colorDark":"#00294f","angle":286.8,"snapDist":3,"label":1}},{"type":"Feature","geometry":{"type":"Point","coordinates":[21.349736,46.186]},"properties":{"name":"Grădina Poștei","sid":"P367","lines":"52","arr":["52"],"terminus":1,"mode":"bus","color":"#0059a9","colorDark":"#00294f","angle":330.7,"snapDist":6,"label":1}},{"type":"Feature","geometry":{"type":"Point","coordinates":[21.340527,46.186139]},"properties":{"name":"Gelu","sid":"P352","lines":"52","arr":["52"],"terminus":0,"mode":"bus","color":"#0059a9","colorDark":"#00294f","angle":322.4,"snapDist":1,"label":1}},{"type":"Feature","geometry":{"type":"Point","coordinates":[21.337523,46.187711]},"properties":{"name":"Vișinului","sid":"P353","lines":"52","arr":["52"],"terminus":0,"mode":"bus","color":"#0059a9","colorDark":"#00294f","angle":54.4,"snapDist":2,"label":1}},{"type":"Feature","geometry":{"type":"Point","coordinates":[21.335472,46.189671]},"properties":{"name":"Războieni","sid":"P354","lines":"52","arr":["52"],"terminus":0,"mode":"bus","color":"#0059a9","colorDark":"#00294f","angle":53,"snapDist":2,"label":1}},{"type":"Feature","geometry":{"type":"Point","coordinates":[21.290933,46.169156]},"properties":{"name":"Pomenirea","sid":"B111","lines":"54","arr":["54"],"terminus":0,"mode":"bus","color":"#0059a9","colorDark":"#00294f","angle":358.3,"snapDist":8,"label":0}},{"type":"Feature","geometry":{"type":"Point","coordinates":[21.238038,46.17256]},"properties":{"name":"IAS Mureșul","sid":"B081","lines":"54","arr":["54"],"terminus":1,"mode":"bus","color":"#0059a9","colorDark":"#00294f","angle":89.5,"snapDist":3,"label":1}},{"type":"Feature","geometry":{"type":"Point","coordinates":[21.290339,46.169144]},"properties":{"name":"Pomenirea","sid":"B112","lines":"54","arr":["54"],"terminus":0,"mode":"bus","color":"#0059a9","colorDark":"#00294f","angle":178.3,"snapDist":4,"label":0}},{"type":"Feature","geometry":{"type":"Point","coordinates":[21.282833,46.213211]},"properties":{"name":"Izvor","sid":"B088","lines":"60","arr":["60"],"terminus":0,"mode":"bus","color":"#0059a9","colorDark":"#00294f","angle":72.6,"snapDist":0,"label":1}},{"type":"Feature","geometry":{"type":"Point","coordinates":[21.274312,46.21672]},"properties":{"name":"Mănăstire Gai","sid":"B095","lines":"60","arr":["60"],"terminus":0,"mode":"bus","color":"#0059a9","colorDark":"#00294f","angle":339.4,"snapDist":5,"label":1}},{"type":"Feature","geometry":{"type":"Point","coordinates":[21.271106,46.21283]},"properties":{"name":"Faurilor","sid":"B065","lines":"60","arr":["60"],"terminus":0,"mode":"bus","color":"#0059a9","colorDark":"#00294f","angle":161.5,"snapDist":4,"label":1}},{"type":"Feature","geometry":{"type":"Point","coordinates":[21.275298,46.213991]},"properties":{"name":"Anton Pann","sid":"B020","lines":"60","arr":["60"],"terminus":0,"mode":"bus","color":"#0059a9","colorDark":"#00294f","angle":158.2,"snapDist":2,"label":1}},{"type":"Feature","geometry":{"type":"Point","coordinates":[21.277156,46.211321]},"properties":{"name":"Călțunaș","sid":"B044","lines":"60","arr":["60"],"terminus":0,"mode":"bus","color":"#0059a9","colorDark":"#00294f","angle":250.5,"snapDist":7,"label":1}},{"type":"Feature","geometry":{"type":"Point","coordinates":[21.269445,46.204809]},"properties":{"name":"Concordiei","sid":"B055","lines":"60","arr":["60"],"terminus":1,"mode":"bus","color":"#0059a9","colorDark":"#00294f","angle":69.1,"snapDist":1,"label":1}},{"type":"Feature","geometry":{"type":"Point","coordinates":[21.277359,46.210922]},"properties":{"name":"Călțunaș","sid":"B045","lines":"60","arr":["60"],"terminus":0,"mode":"bus","color":"#0059a9","colorDark":"#00294f","angle":70.5,"snapDist":3,"label":0}},{"type":"Feature","geometry":{"type":"Point","coordinates":[21.275386,46.214015]},"properties":{"name":"Anton Pann","sid":"B021","lines":"60","arr":["60"],"terminus":0,"mode":"bus","color":"#0059a9","colorDark":"#00294f","angle":338.2,"snapDist":14,"label":0}},{"type":"Feature","geometry":{"type":"Point","coordinates":[21.270964,46.212922]},"properties":{"name":"Faurilor","sid":"B066","lines":"60","arr":["60"],"terminus":0,"mode":"bus","color":"#0059a9","colorDark":"#00294f","angle":69.5,"snapDist":9,"label":0}},{"type":"Feature","geometry":{"type":"Point","coordinates":[21.274479,46.216761]},"properties":{"name":"Mănăstire Gai","sid":"B096","lines":"60","arr":["60"],"terminus":0,"mode":"bus","color":"#0059a9","colorDark":"#00294f","angle":160.8,"snapDist":3,"label":0}},{"type":"Feature","geometry":{"type":"Point","coordinates":[21.282889,46.213087]},"properties":{"name":"Izvor","sid":"B089","lines":"60","arr":["60"],"terminus":0,"mode":"bus","color":"#0059a9","colorDark":"#00294f","angle":252.7,"snapDist":6,"label":0}},{"type":"Feature","geometry":{"type":"Point","coordinates":[21.593681,46.156451]},"properties":{"name":"Ghioroc","sid":"S012","lines":"Ghioroc","arr":["Ghioroc"],"terminus":1,"mode":"bus","color":"#0059a9","colorDark":"#00294f","angle":259.5,"snapDist":1,"label":1}},{"type":"Feature","geometry":{"type":"Point","coordinates":[21.524128,46.140953]},"properties":{"name":"Sâmbăteni 2","sid":"P283","lines":"Ghioroc","arr":["Ghioroc"],"terminus":0,"mode":"bus","color":"#0059a9","colorDark":"#00294f","angle":14,"snapDist":3,"label":1}},{"type":"Feature","geometry":{"type":"Point","coordinates":[21.480718,46.145876]},"properties":{"name":"Cicir","sid":"S002","lines":"Ghioroc","arr":["Ghioroc"],"terminus":0,"mode":"bus","color":"#0059a9","colorDark":"#00294f","angle":3.2,"snapDist":16,"label":1}},{"type":"Feature","geometry":{"type":"Point","coordinates":[21.465396,46.148031]},"properties":{"name":"Mândruloc","sid":"S008","lines":"Ghioroc","arr":["Ghioroc"],"terminus":0,"mode":"bus","color":"#0059a9","colorDark":"#00294f","angle":19,"snapDist":15,"label":1}},{"type":"Feature","geometry":{"type":"Point","coordinates":[21.405098,46.163375]},"properties":{"name":"Vladimirescu Moară","sid":"S019","lines":"Ghioroc, Vladimirescu","arr":["Ghioroc","Vladimirescu"],"terminus":0,"mode":"bus","color":"#0059a9","colorDark":"#00294f","angle":25.3,"snapDist":13,"label":1}},{"type":"Feature","geometry":{"type":"Point","coordinates":[21.397575,46.165737]},"properties":{"name":"Vladimirescu Poliție","sid":"S021","lines":"Ghioroc, Vladimirescu","arr":["Ghioroc","Vladimirescu"],"terminus":0,"mode":"bus","color":"#0059a9","colorDark":"#00294f","angle":23.6,"snapDist":12,"label":1}},{"type":"Feature","geometry":{"type":"Point","coordinates":[21.389716,46.166329]},"properties":{"name":"Vladimirescu Via Carmina","sid":"P366","lines":"Ghioroc, Vladimirescu","arr":["Ghioroc","Vladimirescu"],"terminus":0,"mode":"bus","color":"#0059a9","colorDark":"#00294f","angle":93.3,"snapDist":8,"label":1}},{"type":"Feature","geometry":{"type":"Point","coordinates":[21.365208,46.175659]},"properties":{"name":"Vama Micălaca","sid":"T122","lines":"Ghioroc, Vladimirescu","arr":["Ghioroc","Vladimirescu"],"terminus":0,"mode":"bus","color":"#0059a9","colorDark":"#00294f","angle":17.4,"snapDist":5,"label":1}},{"type":"Feature","geometry":{"type":"Point","coordinates":[21.325013,46.182336]},"properties":{"name":"Podgoria","sid":"T088","lines":"Ghioroc, Vladimirescu","arr":["Ghioroc","Vladimirescu"],"terminus":1,"mode":"bus","color":"#0059a9","colorDark":"#00294f","angle":12.5,"snapDist":6,"label":0}},{"type":"Feature","geometry":{"type":"Point","coordinates":[21.365715,46.175417]},"properties":{"name":"Vama Micălaca","sid":"T121","lines":"Ghioroc, Vladimirescu","arr":["Ghioroc","Vladimirescu"],"terminus":0,"mode":"bus","color":"#0059a9","colorDark":"#00294f","angle":197.8,"snapDist":4,"label":0}},{"type":"Feature","geometry":{"type":"Point","coordinates":[21.398137,46.165566]},"properties":{"name":"Vladimirescu Poliție","sid":"S020","lines":"Ghioroc, Vladimirescu","arr":["Ghioroc","Vladimirescu"],"terminus":0,"mode":"bus","color":"#0059a9","colorDark":"#00294f","angle":23.7,"snapDist":10,"label":0}},{"type":"Feature","geometry":{"type":"Point","coordinates":[21.405363,46.163288]},"properties":{"name":"Vladimirescu Moară","sid":"S018","lines":"Ghioroc, Vladimirescu","arr":["Ghioroc","Vladimirescu"],"terminus":0,"mode":"bus","color":"#0059a9","colorDark":"#00294f","angle":25.3,"snapDist":14,"label":0}},{"type":"Feature","geometry":{"type":"Point","coordinates":[21.465396,46.148031]},"properties":{"name":"Mândruloc","sid":"S007","lines":"Ghioroc","arr":["Ghioroc"],"terminus":0,"mode":"bus","color":"#0059a9","colorDark":"#00294f","angle":19,"snapDist":15,"label":0}},{"type":"Feature","geometry":{"type":"Point","coordinates":[21.480718,46.145876]},"properties":{"name":"Cicir","sid":"S001","lines":"Ghioroc","arr":["Ghioroc"],"terminus":0,"mode":"bus","color":"#0059a9","colorDark":"#00294f","angle":3.2,"snapDist":16,"label":0}},{"type":"Feature","geometry":{"type":"Point","coordinates":[21.52414,46.140951]},"properties":{"name":"Sâmbăteni 1","sid":"P282","lines":"Ghioroc","arr":["Ghioroc"],"terminus":0,"mode":"bus","color":"#0059a9","colorDark":"#00294f","angle":14,"snapDist":13,"label":1}},{"type":"Feature","geometry":{"type":"Point","coordinates":[21.586767,46.155135]},"properties":{"name":"Ghioroc 1","sid":"S013","lines":"Ghioroc","arr":["Ghioroc"],"terminus":1,"mode":"bus","color":"#0059a9","colorDark":"#00294f","angle":170.9,"snapDist":19,"label":1}},{"type":"Feature","geometry":{"type":"Point","coordinates":[21.428052,46.156992]},"properties":{"name":"DN 7_2","sid":"S006","lines":"Vladimirescu","arr":["Vladimirescu"],"terminus":1,"mode":"bus","color":"#0059a9","colorDark":"#00294f","angle":20,"snapDist":15,"label":1}},{"type":"Feature","geometry":{"type":"Point","coordinates":[21.319683,46.167839]},"properties":{"name":"Piața Romană","sid":"T078","lines":"1, 3, 6, 7, 16, 18b","arr":["1","3","6","7","16","18b"],"terminus":1,"mode":"tram","color":"#d6212b","colorDark":"#7c1116","angle":27.8,"snapDist":18,"label":1}},{"type":"Feature","geometry":{"type":"Point","coordinates":[21.316322,46.172692]},"properties":{"name":"Teatru","sid":"T110","lines":"1, 3, 6, 16, 18b","arr":["1","3","6","16","18b"],"terminus":0,"mode":"tram","color":"#d6212b","colorDark":"#7c1116","angle":111.7,"snapDist":6,"label":1}},{"type":"Feature","geometry":{"type":"Point","coordinates":[21.318835,46.176389]},"properties":{"name":"Primărie 2","sid":"P240","lines":"1, 3, 6, 16, 18b","arr":["1","3","6","16","18b"],"terminus":0,"mode":"tram","color":"#d6212b","colorDark":"#7c1116","angle":113.2,"snapDist":4,"label":1}},{"type":"Feature","geometry":{"type":"Point","coordinates":[21.32001,46.17826]},"properties":{"name":"Crișan","sid":"T044","lines":"1, 3, 6, 16, 18b","arr":["1","3","6","16","18b"],"terminus":0,"mode":"tram","color":"#d6212b","colorDark":"#7c1116","angle":114.6,"snapDist":3,"label":1}},{"type":"Feature","geometry":{"type":"Point","coordinates":[21.321787,46.18062]},"properties":{"name":"I.C. Brătianu","sid":"T126","lines":"1, 3, 6, 16, 18b","arr":["1","3","6","16","18b"],"terminus":0,"mode":"tram","color":"#d6212b","colorDark":"#7c1116","angle":117.9,"snapDist":2,"label":1}},{"type":"Feature","geometry":{"type":"Point","coordinates":[21.324334,46.183813]},"properties":{"name":"Podgoria","sid":"T087","lines":"1, 3, 6, 16, 18b","arr":["1","3","6","16","18b"],"terminus":0,"mode":"tram","color":"#d6212b","colorDark":"#7c1116","angle":117.8,"snapDist":3,"label":1}},{"type":"Feature","geometry":{"type":"Point","coordinates":[21.325089,46.185689]},"properties":{"name":"Caius Iacob","sid":"T019","lines":"1, 3, 6, 15, 18b","arr":["1","3","6","15","18b"],"terminus":0,"mode":"tram","color":"#d6212b","colorDark":"#7c1116","angle":102,"snapDist":5,"label":1}},{"type":"Feature","geometry":{"type":"Point","coordinates":[21.32491,46.188604]},"properties":{"name":"Gara CFR","sid":"T053","lines":"1, 3, 6, 15, 18b","arr":["1","3","6","15","18b"],"terminus":0,"mode":"tram","color":"#d6212b","colorDark":"#7c1116","angle":49,"snapDist":4,"label":1}},{"type":"Feature","geometry":{"type":"Point","coordinates":[21.319262,46.190018]},"properties":{"name":"Atrium 1","sid":"T011","lines":"1, 3, 6, 15, 18b","arr":["1","3","6","15","18b"],"terminus":0,"mode":"tram","color":"#d6212b","colorDark":"#7c1116","angle":16.7,"snapDist":13,"label":1}},{"type":"Feature","geometry":{"type":"Point","coordinates":[21.306642,46.192744]},"properties":{"name":"Piața U.T.A.","sid":"T082","lines":"1, 3, 6, 7, 15, 18b","arr":["1","3","6","7","15","18b"],"terminus":0,"mode":"tram","color":"#d6212b","colorDark":"#7c1116","angle":30.5,"snapDist":2,"label":1}},{"type":"Feature","geometry":{"type":"Point","coordinates":[21.302023,46.19462]},"properties":{"name":"Electrometal","sid":"T045","lines":"1, 3, 6, 7, 15, 18b","arr":["1","3","6","7","15","18b"],"terminus":0,"mode":"tram","color":"#d6212b","colorDark":"#7c1116","angle":210.9,"snapDist":5,"label":1}},{"type":"Feature","geometry":{"type":"Point","coordinates":[21.294064,46.199987]},"properties":{"name":"Fortuna 1","sid":"T049","lines":"1, 3, 6, 7, 15, 18b","arr":["1","3","6","7","15","18b"],"terminus":0,"mode":"tram","color":"#d6212b","colorDark":"#7c1116","angle":41.5,"snapDist":12,"label":1}},{"type":"Feature","geometry":{"type":"Point","coordinates":[21.29164,46.202755]},"properties":{"name":"Făt Frumos","sid":"T048","lines":"1, 1b, 3, 7, 15, 18b","arr":["1","1b","3","7","15","18b"],"terminus":1,"mode":"tram","color":"#d6212b","colorDark":"#7c1116","angle":311.7,"snapDist":4,"label":1}},{"type":"Feature","geometry":{"type":"Point","coordinates":[21.29212,46.200996]},"properties":{"name":"Galleria 2","sid":"P170","lines":"1, 1b, 3, 6, 15, 18b","arr":["1","1b","3","6","15","18b"],"terminus":0,"mode":"tram","color":"#d6212b","colorDark":"#7c1116","angle":209.4,"snapDist":0,"label":1}},{"type":"Feature","geometry":{"type":"Point","coordinates":[21.295513,46.199052]},"properties":{"name":"Fortuna 2","sid":"T050","lines":"1, 3, 6, 7, 15, 18b","arr":["1","3","6","7","15","18b"],"terminus":0,"mode":"tram","color":"#d6212b","colorDark":"#7c1116","angle":223,"snapDist":3,"label":1}},{"type":"Feature","geometry":{"type":"Point","coordinates":[21.300557,46.195276]},"properties":{"name":"Electrometal","sid":"T046","lines":"1, 3, 6, 7, 15, 18b","arr":["1","3","6","7","15","18b"],"terminus":0,"mode":"tram","color":"#d6212b","colorDark":"#7c1116","angle":32,"snapDist":2,"label":0}},{"type":"Feature","geometry":{"type":"Point","coordinates":[21.309175,46.191952]},"properties":{"name":"Piața U.T.A.","sid":"T081","lines":"1, 3, 6, 7, 15","arr":["1","3","6","7","15"],"terminus":0,"mode":"tram","color":"#d6212b","colorDark":"#7c1116","angle":195.6,"snapDist":1,"label":0}},{"type":"Feature","geometry":{"type":"Point","coordinates":[21.318684,46.190106]},"properties":{"name":"Atrium 2","sid":"T012","lines":"1, 3, 6, 7, 15","arr":["1","3","6","7","15"],"terminus":0,"mode":"tram","color":"#d6212b","colorDark":"#7c1116","angle":196.7,"snapDist":2,"label":1}},{"type":"Feature","geometry":{"type":"Point","coordinates":[21.324245,46.188947]},"properties":{"name":"Gara CFR","sid":"T054","lines":"1, 3, 6, 7, 15","arr":["1","3","6","7","15"],"terminus":0,"mode":"tram","color":"#d6212b","colorDark":"#7c1116","angle":217.9,"snapDist":3,"label":0}},{"type":"Feature","geometry":{"type":"Point","coordinates":[21.324924,46.185188]},"properties":{"name":"Caius Iacob","sid":"T020","lines":"1, 3, 6, 7, 15","arr":["1","3","6","7","15"],"terminus":0,"mode":"tram","color":"#d6212b","colorDark":"#7c1116","angle":281.4,"snapDist":7,"label":0}},{"type":"Feature","geometry":{"type":"Point","coordinates":[21.32273,46.18202]},"properties":{"name":"Podgoria","sid":"T086","lines":"1, 3, 6, 7, 16","arr":["1","3","6","7","16"],"terminus":0,"mode":"tram","color":"#d6212b","colorDark":"#7c1116","angle":301.7,"snapDist":6,"label":1}},{"type":"Feature","geometry":{"type":"Point","coordinates":[21.319975,46.178538]},"properties":{"name":"Crișan","sid":"T043","lines":"1, 3, 6, 7, 16","arr":["1","3","6","7","16"],"terminus":0,"mode":"tram","color":"#d6212b","colorDark":"#7c1116","angle":296,"snapDist":0,"label":0}},{"type":"Feature","geometry":{"type":"Point","coordinates":[21.317641,46.174841]},"properties":{"name":"Primărie 1","sid":"T091","lines":"1, 3, 6, 7, 16","arr":["1","3","6","7","16"],"terminus":0,"mode":"tram","color":"#d6212b","colorDark":"#7c1116","angle":297.4,"snapDist":7,"label":1}},{"type":"Feature","geometry":{"type":"Point","coordinates":[21.315956,46.172216]},"properties":{"name":"Teatru","sid":"T109","lines":"1, 3, 6, 7, 16","arr":["1","3","6","7","16"],"terminus":0,"mode":"tram","color":"#d6212b","colorDark":"#7c1116","angle":290.7,"snapDist":1,"label":0}},{"type":"Feature","geometry":{"type":"Point","coordinates":[21.320032,46.167421]},"properties":{"name":"Piața Romană","sid":"T077","lines":"1, 3, 6, 16","arr":["1","3","6","16"],"terminus":1,"mode":"tram","color":"#d6212b","colorDark":"#7c1116","angle":244.4,"snapDist":0,"label":0}},{"type":"Feature","geometry":{"type":"Point","coordinates":[21.288083,46.201625]},"properties":{"name":"Galleria 3","sid":"P171","lines":"1b, 6","arr":["1b","6"],"terminus":0,"mode":"tram","color":"#d6212b","colorDark":"#7c1116","angle":351.8,"snapDist":1,"label":1}},{"type":"Feature","geometry":{"type":"Point","coordinates":[21.283718,46.201266]},"properties":{"name":"Băile Termale","sid":"T017","lines":"1b, 6","arr":["1b","6"],"terminus":0,"mode":"tram","color":"#d6212b","colorDark":"#7c1116","angle":1.3,"snapDist":7,"label":1}},{"type":"Feature","geometry":{"type":"Point","coordinates":[21.276311,46.201332]},"properties":{"name":"RAR","sid":"T095","lines":"1b","arr":["1b"],"terminus":0,"mode":"tram","color":"#d6212b","colorDark":"#7c1116","angle":-179.5,"snapDist":11,"label":1}},{"type":"Feature","geometry":{"type":"Point","coordinates":[21.269623,46.201373]},"properties":{"name":"UM","sid":"T113","lines":"1b","arr":["1b"],"terminus":0,"mode":"tram","color":"#d6212b","colorDark":"#7c1116","angle":5,"snapDist":3,"label":1}},{"type":"Feature","geometry":{"type":"Point","coordinates":[21.260516,46.202057]},"properties":{"name":"Piața Auto","sid":"T073","lines":"1b","arr":["1b"],"terminus":0,"mode":"tram","color":"#d6212b","colorDark":"#7c1116","angle":6.7,"snapDist":3,"label":1}},{"type":"Feature","geometry":{"type":"Point","coordinates":[21.255503,46.20494]},"properties":{"name":"Platforma Vest","sid":"T085","lines":"1b","arr":["1b"],"terminus":1,"mode":"tram","color":"#d6212b","colorDark":"#7c1116","angle":346,"snapDist":12,"label":1}},{"type":"Feature","geometry":{"type":"Point","coordinates":[21.260516,46.202057]},"properties":{"name":"Piața Auto","sid":"T074","lines":"1b","arr":["1b"],"terminus":0,"mode":"tram","color":"#d6212b","colorDark":"#7c1116","angle":186.7,"snapDist":3,"label":0}},{"type":"Feature","geometry":{"type":"Point","coordinates":[21.27006,46.201346]},"properties":{"name":"UM","sid":"T114","lines":"1b","arr":["1b"],"terminus":0,"mode":"tram","color":"#d6212b","colorDark":"#7c1116","angle":185,"snapDist":0,"label":0}},{"type":"Feature","geometry":{"type":"Point","coordinates":[21.27658,46.201331]},"properties":{"name":"RAR","sid":"T096","lines":"1b","arr":["1b"],"terminus":0,"mode":"tram","color":"#d6212b","colorDark":"#7c1116","angle":180.4,"snapDist":2,"label":0}},{"type":"Feature","geometry":{"type":"Point","coordinates":[21.28407,46.20126]},"properties":{"name":"Băile Termale","sid":"T018","lines":"1b, 6","arr":["1b","6"],"terminus":0,"mode":"tram","color":"#d6212b","colorDark":"#7c1116","angle":181.3,"snapDist":1,"label":0}},{"type":"Feature","geometry":{"type":"Point","coordinates":[21.288178,46.201634]},"properties":{"name":"Galleria 4","sid":"P172","lines":"1b, 6","arr":["1b","6"],"terminus":0,"mode":"tram","color":"#d6212b","colorDark":"#7c1116","angle":171.8,"snapDist":1,"label":1}},{"type":"Feature","geometry":{"type":"Point","coordinates":[21.334384,46.144675]},"properties":{"name":"Gara Aradul Nou","sid":"T052","lines":"3","arr":["3"],"terminus":1,"mode":"tram","color":"#d6212b","colorDark":"#7c1116","angle":-70.5,"snapDist":8,"label":1}},{"type":"Feature","geometry":{"type":"Point","coordinates":[21.325944,46.145363]},"properties":{"name":"Stan Dragul","sid":"T108","lines":"3","arr":["3"],"terminus":0,"mode":"tram","color":"#d6212b","colorDark":"#7c1116","angle":15,"snapDist":8,"label":1}},{"type":"Feature","geometry":{"type":"Point","coordinates":[21.321929,46.146077]},"properties":{"name":"Autoservice","sid":"T014","lines":"3","arr":["3"],"terminus":0,"mode":"tram","color":"#d6212b","colorDark":"#7c1116","angle":13.9,"snapDist":0,"label":1}},{"type":"Feature","geometry":{"type":"Point","coordinates":[21.321911,46.153071]},"properties":{"name":"Caraimanul","sid":"T034","lines":"3","arr":["3"],"terminus":0,"mode":"tram","color":"#d6212b","colorDark":"#7c1116","angle":90.4,"snapDist":9,"label":1}},{"type":"Feature","geometry":{"type":"Point","coordinates":[21.321822,46.15717]},"properties":{"name":"Ana Ipătescu","sid":"T002","lines":"3","arr":["3"],"terminus":0,"mode":"tram","color":"#d6212b","colorDark":"#7c1116","angle":90.1,"snapDist":9,"label":1}},{"type":"Feature","geometry":{"type":"Point","coordinates":[21.323216,46.162511]},"properties":{"name":"Traian","sid":"T112","lines":"3","arr":["3"],"terminus":0,"mode":"tram","color":"#d6212b","colorDark":"#7c1116","angle":79.8,"snapDist":0,"label":1}},{"type":"Feature","geometry":{"type":"Point","coordinates":[21.321659,46.166173]},"properties":{"name":"Romanilor","sid":"T102","lines":"3","arr":["3"],"terminus":0,"mode":"tram","color":"#d6212b","colorDark":"#7c1116","angle":67.6,"snapDist":1,"label":1}},{"type":"Feature","geometry":{"type":"Point","coordinates":[21.321799,46.165843]},"properties":{"name":"Romanilor","sid":"T101","lines":"3","arr":["3"],"terminus":0,"mode":"tram","color":"#d6212b","colorDark":"#7c1116","angle":248.8,"snapDist":4,"label":0}},{"type":"Feature","geometry":{"type":"Point","coordinates":[21.323215,46.162]},"properties":{"name":"Traian","sid":"T111","lines":"3","arr":["3"],"terminus":0,"mode":"tram","color":"#d6212b","colorDark":"#7c1116","angle":275.8,"snapDist":0,"label":0}},{"type":"Feature","geometry":{"type":"Point","coordinates":[21.321791,46.155691]},"properties":{"name":"Ana Ipătescu","sid":"T001","lines":"3","arr":["3"],"terminus":0,"mode":"tram","color":"#d6212b","colorDark":"#7c1116","angle":268.4,"snapDist":4,"label":0}},{"type":"Feature","geometry":{"type":"Point","coordinates":[21.321798,46.151737]},"properties":{"name":"Caraimanul","sid":"T033","lines":"3","arr":["3"],"terminus":0,"mode":"tram","color":"#d6212b","colorDark":"#7c1116","angle":274.8,"snapDist":4,"label":0}},{"type":"Feature","geometry":{"type":"Point","coordinates":[21.32249,46.145943]},"properties":{"name":"Autoservice","sid":"T013","lines":"3","arr":["3"],"terminus":0,"mode":"tram","color":"#d6212b","colorDark":"#7c1116","angle":194.3,"snapDist":3,"label":0}},{"type":"Feature","geometry":{"type":"Point","coordinates":[21.326684,46.145188]},"properties":{"name":"Stan Dragul","sid":"T107","lines":"3","arr":["3"],"terminus":0,"mode":"tram","color":"#d6212b","colorDark":"#7c1116","angle":194.5,"snapDist":4,"label":0}},{"type":"Feature","geometry":{"type":"Point","coordinates":[21.33452,46.144941]},"properties":{"name":"Gara Aradul Nou","sid":"T051","lines":"3","arr":["3"],"terminus":1,"mode":"tram","color":"#d6212b","colorDark":"#7c1116","angle":109.5,"snapDist":2,"label":0}},{"type":"Feature","geometry":{"type":"Point","coordinates":[21.278047,46.209484]},"properties":{"name":"Piața Gai","sid":"T076","lines":"6","arr":["6"],"terminus":1,"mode":"tram","color":"#d6212b","colorDark":"#7c1116","angle":250.2,"snapDist":1,"label":1}},{"type":"Feature","geometry":{"type":"Point","coordinates":[21.280217,46.205358]},"properties":{"name":"Bogdan Voievod","sid":"T030","lines":"6","arr":["6"],"terminus":0,"mode":"tram","color":"#d6212b","colorDark":"#7c1116","angle":246.5,"snapDist":2,"label":1}},{"type":"Feature","geometry":{"type":"Point","coordinates":[21.281734,46.20295]},"properties":{"name":"Școala","sid":"T104","lines":"6","arr":["6"],"terminus":0,"mode":"tram","color":"#d6212b","colorDark":"#7c1116","angle":246.6,"snapDist":5,"label":1}},{"type":"Feature","geometry":{"type":"Point","coordinates":[21.291914,46.201115]},"properties":{"name":"Galleria 1","sid":"P169","lines":"6","arr":["6"],"terminus":0,"mode":"tram","color":"#d6212b","colorDark":"#7c1116","angle":29,"snapDist":1,"label":1}},{"type":"Feature","geometry":{"type":"Point","coordinates":[21.281734,46.20295]},"properties":{"name":"Școala","sid":"T103","lines":"6","arr":["6"],"terminus":0,"mode":"tram","color":"#d6212b","colorDark":"#7c1116","angle":66.6,"snapDist":5,"label":0}},{"type":"Feature","geometry":{"type":"Point","coordinates":[21.280174,46.205427]},"properties":{"name":"Bogdan Voievod","sid":"T029","lines":"6","arr":["6"],"terminus":0,"mode":"tram","color":"#d6212b","colorDark":"#7c1116","angle":66.5,"snapDist":2,"label":0}},{"type":"Feature","geometry":{"type":"Point","coordinates":[21.27769,46.210178]},"properties":{"name":"Piața Gai","sid":"T075","lines":"6","arr":["6"],"terminus":1,"mode":"tram","color":"#d6212b","colorDark":"#7c1116","angle":71.8,"snapDist":1,"label":0}},{"type":"Feature","geometry":{"type":"Point","coordinates":[21.291987,46.201047]},"properties":{"name":"Galleria 4","sid":"T024","lines":"7","arr":["7"],"terminus":0,"mode":"tram","color":"#d6212b","colorDark":"#7c1116","angle":29.4,"snapDist":62,"label":1}},{"type":"Feature","geometry":{"type":"Point","coordinates":[21.319025,46.166379]},"properties":{"name":"Piața Romană","sid":"T079","lines":"7","arr":["7"],"terminus":1,"mode":"tram","color":"#d6212b","colorDark":"#7c1116","angle":11,"snapDist":2,"label":0}},{"type":"Feature","geometry":{"type":"Point","coordinates":[21.313892,46.16695]},"properties":{"name":"Paul Chinezul 1","sid":"T093","lines":"7","arr":["7"],"terminus":0,"mode":"tram","color":"#d6212b","colorDark":"#7c1116","angle":4,"snapDist":2,"label":1}},{"type":"Feature","geometry":{"type":"Point","coordinates":[21.310783,46.167063]},"properties":{"name":"Biserica Sârbească","sid":"T027","lines":"7","arr":["7"],"terminus":0,"mode":"tram","color":"#d6212b","colorDark":"#7c1116","angle":355,"snapDist":3,"label":1}},{"type":"Feature","geometry":{"type":"Point","coordinates":[21.306331,46.166853]},"properties":{"name":"Hodoș","sid":"T061","lines":"7","arr":["7"],"terminus":0,"mode":"tram","color":"#d6212b","colorDark":"#7c1116","angle":356.8,"snapDist":1,"label":1}},{"type":"Feature","geometry":{"type":"Point","coordinates":[21.30098,46.166554]},"properties":{"name":"Andrei Șaguna","sid":"T005","lines":"7","arr":["7"],"terminus":0,"mode":"tram","color":"#d6212b","colorDark":"#7c1116","angle":355.8,"snapDist":0,"label":1}},{"type":"Feature","geometry":{"type":"Point","coordinates":[21.295777,46.16625]},"properties":{"name":"Clujului","sid":"T035","lines":"7","arr":["7"],"terminus":0,"mode":"tram","color":"#d6212b","colorDark":"#7c1116","angle":355.5,"snapDist":7,"label":1}},{"type":"Feature","geometry":{"type":"Point","coordinates":[21.291423,46.166013]},"properties":{"name":"Alfa","sid":"T003","lines":"7","arr":["7"],"terminus":0,"mode":"tram","color":"#d6212b","colorDark":"#7c1116","angle":354.8,"snapDist":6,"label":1}},{"type":"Feature","geometry":{"type":"Point","coordinates":[21.291655,46.169125]},"properties":{"name":"Pomenirea","sid":"T089","lines":"7","arr":["7"],"terminus":0,"mode":"tram","color":"#d6212b","colorDark":"#7c1116","angle":-70.9,"snapDist":9,"label":1}},{"type":"Feature","geometry":{"type":"Point","coordinates":[21.292573,46.171028]},"properties":{"name":"Piața Obor-fac.","sid":"T042","lines":"7","arr":["7"],"terminus":0,"mode":"tram","color":"#d6212b","colorDark":"#7c1116","angle":-70.6,"snapDist":17,"label":1}},{"type":"Feature","geometry":{"type":"Point","coordinates":[21.294244,46.175159]},"properties":{"name":"Cpt. Ignat","sid":"T039","lines":"7","arr":["7"],"terminus":0,"mode":"tram","color":"#d6212b","colorDark":"#7c1116","angle":109.2,"snapDist":3,"label":1}},{"type":"Feature","geometry":{"type":"Point","coordinates":[21.296715,46.180135]},"properties":{"name":"Confecții","sid":"T037","lines":"7","arr":["7"],"terminus":0,"mode":"tram","color":"#d6212b","colorDark":"#7c1116","angle":109,"snapDist":5,"label":1}},{"type":"Feature","geometry":{"type":"Point","coordinates":[21.300304,46.184939]},"properties":{"name":"Orologerie","sid":"T069","lines":"7","arr":["7"],"terminus":0,"mode":"tram","color":"#d6212b","colorDark":"#7c1116","angle":117.3,"snapDist":2,"label":1}},{"type":"Feature","geometry":{"type":"Point","coordinates":[21.303268,46.18882]},"properties":{"name":"Aris","sid":"T007","lines":"7","arr":["7"],"terminus":0,"mode":"tram","color":"#d6212b","colorDark":"#7c1116","angle":117.7,"snapDist":7,"label":1}},{"type":"Feature","geometry":{"type":"Point","coordinates":[21.342426,46.202794]},"properties":{"name":"Sere","sid":"T106","lines":"15, 16","arr":["15","16"],"terminus":1,"mode":"tram","color":"#d6212b","colorDark":"#7c1116","angle":306.7,"snapDist":8,"label":1}},{"type":"Feature","geometry":{"type":"Point","coordinates":[21.338772,46.199524]},"properties":{"name":"Vama Grădiște","sid":"T120","lines":"15, 16","arr":["15","16"],"terminus":0,"mode":"tram","color":"#d6212b","colorDark":"#7c1116","angle":306.2,"snapDist":1,"label":1}},{"type":"Feature","geometry":{"type":"Point","coordinates":[21.333804,46.19492]},"properties":{"name":"Gorunului","sid":"T056","lines":"15, 16","arr":["15","16"],"terminus":0,"mode":"tram","color":"#d6212b","colorDark":"#7c1116","angle":310.2,"snapDist":3,"label":1}},{"type":"Feature","geometry":{"type":"Point","coordinates":[21.329928,46.191004]},"properties":{"name":"Astra Sector II","sid":"B010","lines":"15, 16","arr":["15","16"],"terminus":0,"mode":"tram","color":"#d6212b","colorDark":"#7c1116","angle":291.2,"snapDist":5,"label":1}},{"type":"Feature","geometry":{"type":"Point","coordinates":[21.330096,46.191304]},"properties":{"name":"Astra Sector II","sid":"B009","lines":"15, 16","arr":["15","16"],"terminus":0,"mode":"tram","color":"#d6212b","colorDark":"#7c1116","angle":111.2,"snapDist":14,"label":0}},{"type":"Feature","geometry":{"type":"Point","coordinates":[21.333764,46.194943]},"properties":{"name":"Gorunului","sid":"T055","lines":"15, 16","arr":["15","16"],"terminus":0,"mode":"tram","color":"#d6212b","colorDark":"#7c1116","angle":125.3,"snapDist":1,"label":0}},{"type":"Feature","geometry":{"type":"Point","coordinates":[21.338936,46.19967]},"properties":{"name":"Vama Grădiște","sid":"T119","lines":"15, 16","arr":["15","16"],"terminus":0,"mode":"tram","color":"#d6212b","colorDark":"#7c1116","angle":128.2,"snapDist":5,"label":0}},{"type":"Feature","geometry":{"type":"Point","coordinates":[21.342779,46.203108]},"properties":{"name":"Sere","sid":"T105","lines":"15, 16","arr":["15","16"],"terminus":1,"mode":"tram","color":"#d6212b","colorDark":"#7c1116","angle":128,"snapDist":5,"label":0}},{"type":"Feature","geometry":{"type":"Point","coordinates":[21.306642,46.192744]},"properties":{"name":"Piața U.T.A.","sid":"T083","lines":"18b","arr":["18b"],"terminus":0,"mode":"tram","color":"#d6212b","colorDark":"#7c1116","angle":30.5,"snapDist":2,"label":0}},{"type":"Feature","geometry":{"type":"Point","coordinates":[21.30332,46.188941]},"properties":{"name":"Aris","sid":"T008","lines":"18b","arr":["18b"],"terminus":0,"mode":"tram","color":"#d6212b","colorDark":"#7c1116","angle":297.8,"snapDist":17,"label":0}},{"type":"Feature","geometry":{"type":"Point","coordinates":[21.300268,46.184966]},"properties":{"name":"Orologerie","sid":"T070","lines":"18b","arr":["18b"],"terminus":0,"mode":"tram","color":"#d6212b","colorDark":"#7c1116","angle":297.7,"snapDist":3,"label":0}},{"type":"Feature","geometry":{"type":"Point","coordinates":[21.296728,46.18028]},"properties":{"name":"Confecții","sid":"T038","lines":"18b","arr":["18b"],"terminus":0,"mode":"tram","color":"#d6212b","colorDark":"#7c1116","angle":289,"snapDist":3,"label":0}},{"type":"Feature","geometry":{"type":"Point","coordinates":[21.293889,46.174587]},"properties":{"name":"Cpt. Ignat","sid":"T040","lines":"18b","arr":["18b"],"terminus":0,"mode":"tram","color":"#d6212b","colorDark":"#7c1116","angle":290.8,"snapDist":4,"label":0}},{"type":"Feature","geometry":{"type":"Point","coordinates":[21.292701,46.171389]},"properties":{"name":"Piața Obor-fac.","sid":"T041","lines":"18b","arr":["18b"],"terminus":0,"mode":"tram","color":"#d6212b","colorDark":"#7c1116","angle":109.4,"snapDist":6,"label":0}},{"type":"Feature","geometry":{"type":"Point","coordinates":[21.291772,46.169463]},"properties":{"name":"Pomenirea","sid":"T090","lines":"18b","arr":["18b"],"terminus":0,"mode":"tram","color":"#d6212b","colorDark":"#7c1116","angle":288.5,"snapDist":6,"label":0}},{"type":"Feature","geometry":{"type":"Point","coordinates":[21.290369,46.16673]},"properties":{"name":"Alfa","sid":"T004","lines":"18b","arr":["18b"],"terminus":0,"mode":"tram","color":"#d6212b","colorDark":"#7c1116","angle":109.8,"snapDist":23,"label":0}},{"type":"Feature","geometry":{"type":"Point","coordinates":[21.294919,46.16617]},"properties":{"name":"Clujului","sid":"T036","lines":"18b","arr":["18b"],"terminus":0,"mode":"tram","color":"#d6212b","colorDark":"#7c1116","angle":175.6,"snapDist":1,"label":0}},{"type":"Feature","geometry":{"type":"Point","coordinates":[21.302417,46.166619]},"properties":{"name":"Andrei Șaguna","sid":"T006","lines":"18b","arr":["18b"],"terminus":0,"mode":"tram","color":"#d6212b","colorDark":"#7c1116","angle":174.7,"snapDist":2,"label":0}},{"type":"Feature","geometry":{"type":"Point","coordinates":[21.30586,46.166806]},"properties":{"name":"Hodoș","sid":"T062","lines":"18b","arr":["18b"],"terminus":0,"mode":"tram","color":"#d6212b","colorDark":"#7c1116","angle":176.7,"snapDist":0,"label":0}},{"type":"Feature","geometry":{"type":"Point","coordinates":[21.311016,46.166841]},"properties":{"name":"Biserica Sârbească","sid":"T028","lines":"18b","arr":["18b"],"terminus":0,"mode":"tram","color":"#d6212b","colorDark":"#7c1116","angle":236.2,"snapDist":4,"label":0}},{"type":"Feature","geometry":{"type":"Point","coordinates":[21.317174,46.165907]},"properties":{"name":"Paul Chinezul 2","sid":"T094","lines":"18b","arr":["18b"],"terminus":0,"mode":"tram","color":"#d6212b","colorDark":"#7c1116","angle":188.8,"snapDist":2,"label":1}}]}