{"type":"FeatureCollection","features":[{"type":"Feature","geometry":{"type":"LineString","coordinates":[[21.323603,46.183147],[21.323667,46.183144],[21.323733,46.183139],[21.323743,46.183138],[21.323796,46.183131],[21.323804,46.18313],[21.323862,46.18312],[21.323912,46.183108],[21.323965,46.183088],[21.324034,46.183053],[21.324089,46.183013],[21.324259,46.182898],[21.324401,46.182811],[21.324454,46.182779],[21.324504,46.182749],[21.324559,46.182719],[21.32468,46.182652],[21.324812,46.182591],[21.324948,46.182531],[21.325076,46.182482],[21.325222,46.182434],[21.325331,46.182408],[21.325485,46.182374],[21.325659,46.182344],[21.329705,46.181763],[21.329738,46.181758],[21.329851,46.181738],[21.331511,46.18149],[21.333682,46.181165],[21.334059,46.181105],[21.334391,46.181051],[21.334676,46.181006],[21.33538,46.180888],[21.336897,46.18066],[21.337661,46.180546],[21.338043,46.180511],[21.3383,46.180505],[21.338516,46.180513],[21.338671,46.180525],[21.338815,46.180538],[21.338994,46.180559],[21.339115,46.180579],[21.33931,46.180614],[21.339716,46.180702],[21.34012,46.180766],[21.340301,46.180788]]},"properties":{"name":"Calea Iuliu Maniu"}},{"type":"Feature","geometry":{"type":"LineString","coordinates":[[21.340312,46.180664],[21.340118,46.180638],[21.3398,46.180581],[21.339494,46.180517],[21.339235,46.180461],[21.339081,46.180436],[21.338926,46.180409],[21.338774,46.180395],[21.33857,46.180382],[21.338433,46.180378],[21.338119,46.180387],[21.337905,46.180397],[21.337656,46.180428],[21.336851,46.180535],[21.335372,46.180774],[21.334649,46.180889],[21.334358,46.18093],[21.33425,46.180945],[21.334123,46.180964],[21.334025,46.180982],[21.333988,46.180986],[21.333077,46.181125],[21.332576,46.181202],[21.332426,46.181225],[21.331258,46.181403],[21.330834,46.181467],[21.330232,46.18156],[21.329802,46.181627],[21.329675,46.181645],[21.329603,46.181655],[21.326549,46.182103],[21.325322,46.182288],[21.324432,46.182425],[21.324075,46.182476],[21.323902,46.182504],[21.323712,46.182545],[21.323601,46.182571],[21.323544,46.182592],[21.323504,46.182609],[21.323471,46.182629],[21.323455,46.182639],[21.323436,46.182656],[21.323421,46.182671],[21.323396,46.182705],[21.323383,46.18273],[21.323328,46.182849]]},"properties":{"name":"Calea Iuliu Maniu"}},{"type":"Feature","geometry":{"type":"LineString","coordinates":[[21.340312,46.180664],[21.340717,46.1807],[21.341029,46.180709],[21.341339,46.180707],[21.341653,46.180694],[21.341999,46.180648],[21.342151,46.180631],[21.342332,46.180601],[21.342495,46.180569],[21.342788,46.18051],[21.343,46.180465],[21.343671,46.180308],[21.344407,46.180137],[21.344641,46.18008],[21.344985,46.179988],[21.345779,46.1798],[21.3469,46.179546],[21.348563,46.179172],[21.348695,46.179143],[21.348774,46.179124],[21.349643,46.178932],[21.350802,46.178675],[21.351551,46.178514],[21.352121,46.178385],[21.352781,46.178235],[21.35283,46.178224],[21.353141,46.178149],[21.354755,46.177795],[21.354865,46.17777],[21.355275,46.177676],[21.355827,46.177564],[21.35829,46.177029],[21.360251,46.1766],[21.360362,46.176577],[21.360445,46.176559],[21.360576,46.17653],[21.360671,46.176509],[21.360729,46.176498],[21.360762,46.176491],[21.365032,46.175555],[21.365151,46.175542],[21.365718,46.175416],[21.365882,46.175384],[21.366291,46.175305],[21.366388,46.175286],[21.366944,46.175178],[21.367165,46.175143],[21.367965,46.174973],[21.368555,46.174849],[21.368797,46.174796],[21.36959,46.174606],[21.370467,46.174395],[21.371139,46.17426],[21.371461,46.174161],[21.37163,46.174104],[21.371725,46.17406],[21.371815,46.174008],[21.371888,46.173953],[21.371949,46.173896],[21.371977,46.173852],[21.371995,46.173795]]},"properties":{"name":"Calea Radnei"}},{"type":"Feature","geometry":{"type":"LineString","coordinates":[[21.366412,46.175343],[21.366247,46.175391],[21.366076,46.175444],[21.365932,46.175489],[21.365772,46.175536],[21.360786,46.17662],[21.360624,46.176655],[21.360501,46.176683],[21.358337,46.177161],[21.355899,46.177693],[21.355074,46.177866],[21.354948,46.177892],[21.353861,46.17814],[21.35296,46.178321],[21.352886,46.178336],[21.351852,46.178564],[21.350787,46.178803],[21.349785,46.179031],[21.34922,46.179159],[21.348838,46.179246],[21.348749,46.179265],[21.348623,46.17929],[21.347554,46.179536],[21.347095,46.179643],[21.346743,46.179729],[21.345942,46.17992],[21.345671,46.179983],[21.345484,46.180032],[21.345081,46.180125],[21.344959,46.180153],[21.344709,46.180213],[21.344482,46.180271],[21.343695,46.180439],[21.343222,46.180539],[21.342343,46.180722],[21.342041,46.180767],[21.341769,46.180799],[21.34163,46.180808],[21.341419,46.180818],[21.341277,46.180826],[21.341166,46.180827],[21.340974,46.180827],[21.340816,46.18082],[21.340675,46.180814],[21.340509,46.180805],[21.340301,46.180788]]},"properties":{"name":"Calea Radnei"}},{"type":"Feature","geometry":{"type":"LineString","coordinates":[[21.378588,46.17247],[21.377829,46.172788],[21.377587,46.172874],[21.377275,46.172975],[21.377028,46.173047],[21.376841,46.173096],[21.376622,46.173149],[21.37632,46.173216],[21.37592,46.173302],[21.375471,46.173397],[21.375009,46.173494],[21.374636,46.173569],[21.374263,46.173625],[21.374158,46.173641],[21.374042,46.17366]]},"properties":{"name":"Calea Radnei"}},{"type":"Feature","geometry":{"type":"LineString","coordinates":[[21.372752,46.173887],[21.372876,46.173808],[21.372914,46.17379],[21.37299,46.173771],[21.37306,46.173763],[21.373517,46.173757],[21.373701,46.173745],[21.373786,46.173738],[21.373901,46.173722],[21.374042,46.17366],[21.373852,46.17365],[21.373527,46.173666],[21.373087,46.173672],[21.372959,46.17366],[21.372779,46.173614]]},"properties":{"name":"Calea Radnei"}},{"type":"Feature","geometry":{"type":"LineString","coordinates":[[21.372207,46.173988],[21.372096,46.174022],[21.371989,46.174068],[21.371889,46.174113],[21.371764,46.17416],[21.371687,46.174177],[21.371602,46.174195],[21.371465,46.174215],[21.371139,46.17426]]},"properties":{"name":"Calea Radnei"}},{"type":"Feature","geometry":{"type":"LineString","coordinates":[[21.360445,46.176559],[21.360419,46.176501],[21.360405,46.176469],[21.360386,46.176425],[21.359863,46.175268],[21.359836,46.175207],[21.359218,46.173839],[21.358532,46.172262],[21.358504,46.1722],[21.358327,46.171798],[21.358298,46.171728],[21.358124,46.171417],[21.357929,46.171002],[21.357908,46.170962]]},"properties":{"name":"Strada Renașterii"}},{"type":"Feature","geometry":{"type":"LineString","coordinates":[[21.360624,46.176655],[21.360606,46.176609],[21.360595,46.176581],[21.360576,46.17653],[21.36055,46.176473],[21.360536,46.176441],[21.360523,46.176412],[21.360007,46.175265],[21.359996,46.17524],[21.359968,46.175178],[21.359346,46.173813],[21.358663,46.172231],[21.358631,46.172164],[21.35846,46.171769],[21.358377,46.171592],[21.35829,46.171356],[21.358102,46.170966],[21.358068,46.170911],[21.357961,46.170766],[21.357867,46.170723],[21.357798,46.170559],[21.357218,46.169176],[21.356531,46.167627],[21.356079,46.166645],[21.355816,46.166072]]},"properties":{"name":"Strada Renașterii"}},{"type":"Feature","geometry":{"type":"LineString","coordinates":[[21.365985,46.168995],[21.364451,46.169312],[21.363386,46.169545],[21.363114,46.169603],[21.363073,46.169612],[21.362853,46.169661],[21.362039,46.169834],[21.358263,46.170641],[21.358124,46.170671],[21.357952,46.170709],[21.357867,46.170723],[21.357798,46.170739],[21.357702,46.170759],[21.357556,46.170788],[21.35754,46.170791],[21.356009,46.171114],[21.355616,46.171198],[21.355385,46.171247],[21.355347,46.171254],[21.355276,46.171281],[21.355258,46.171288],[21.355205,46.171307],[21.355142,46.171323],[21.354241,46.17152],[21.354134,46.171544],[21.353639,46.171652],[21.353583,46.171664],[21.353322,46.171707],[21.353243,46.171716],[21.353144,46.171726],[21.352814,46.171797],[21.351727,46.172036],[21.35143,46.172098]]},"properties":{"name":"Strada Voinicilor"}},{"type":"Feature","geometry":{"type":"LineString","coordinates":[[21.36638,46.168862],[21.366312,46.16889],[21.366219,46.168928],[21.365985,46.168995],[21.366242,46.168964],[21.366426,46.168962]]},"properties":{"name":"Strada Voinicilor"}},{"type":"Feature","geometry":{"type":"LineString","coordinates":[[21.36655,46.168637],[21.366569,46.168541],[21.36659,46.168435]]},"properties":{"name":"Strada Voinicilor"}},{"type":"Feature","geometry":{"type":"LineString","coordinates":[[21.366403,46.16792],[21.36659,46.168435],[21.366682,46.168518],[21.366749,46.168578],[21.366784,46.16861]]},"properties":{"name":"Strada Voinicilor"}},{"type":"Feature","geometry":{"type":"LineString","coordinates":[[21.348046,46.172255],[21.348097,46.17225],[21.348141,46.172245],[21.348269,46.172221],[21.348286,46.172209],[21.34832,46.172196],[21.348339,46.172187],[21.348383,46.172174],[21.348418,46.172168],[21.348461,46.172163],[21.348501,46.172162],[21.348541,46.172164],[21.348586,46.17217],[21.348637,46.172183],[21.348668,46.172194],[21.34873,46.172222],[21.348771,46.172245],[21.348883,46.172327],[21.348939,46.172355],[21.348988,46.172369],[21.349043,46.172381],[21.349079,46.172385],[21.349135,46.172388],[21.349706,46.172375],[21.349809,46.17237],[21.3499,46.172362],[21.349991,46.172351],[21.350057,46.17234],[21.350699,46.172203],[21.350846,46.172176],[21.351103,46.172139],[21.351254,46.17212],[21.35143,46.172098],[21.351273,46.172148],[21.351176,46.172181],[21.351033,46.172226],[21.350747,46.172312],[21.350711,46.172323],[21.350251,46.172432],[21.350059,46.17247],[21.349877,46.172501],[21.349725,46.172519],[21.349548,46.172533],[21.349296,46.172541],[21.349083,46.172548],[21.349004,46.172552],[21.348948,46.172566],[21.348896,46.172583]]},"properties":{"name":"Strada Voinicilor"}},{"type":"Feature","geometry":{"type":"LineString","coordinates":[[21.334391,46.181051],[21.334695,46.18104],[21.334917,46.181033],[21.335038,46.181036],[21.335108,46.181038],[21.335836,46.181059],[21.336059,46.181062],[21.33622,46.181056],[21.336358,46.181048],[21.336493,46.181033],[21.336719,46.181006],[21.33688,46.180978],[21.337043,46.180949],[21.337208,46.180907],[21.33739,46.180849],[21.337527,46.180799],[21.337658,46.180743],[21.337774,46.180688],[21.337878,46.180638],[21.337993,46.180576],[21.338516,46.180268],[21.338988,46.180022],[21.339336,46.179851],[21.340249,46.179425],[21.34035,46.17938],[21.340407,46.179354],[21.340482,46.17932],[21.34051,46.179307],[21.340529,46.179299],[21.341184,46.17899],[21.342671,46.17827],[21.34391,46.1777],[21.344662,46.177363],[21.345218,46.177093],[21.345555,46.176917],[21.345687,46.176852],[21.345746,46.176822],[21.346173,46.176595],[21.346426,46.176442],[21.34655,46.176358],[21.346769,46.176187],[21.347004,46.175978],[21.347401,46.175604],[21.34756,46.175465],[21.347761,46.175267],[21.347889,46.175125],[21.34797,46.175018],[21.348051,46.174895],[21.348132,46.174773],[21.348506,46.174141],[21.348575,46.174],[21.348634,46.17383],[21.348758,46.173395],[21.348801,46.173222],[21.348863,46.172972],[21.34888,46.172854],[21.348891,46.172732],[21.348896,46.172583],[21.348894,46.172509],[21.348894,46.1725],[21.348894,46.172467],[21.348893,46.172434],[21.348892,46.172426],[21.348883,46.172327],[21.348864,46.172192],[21.348841,46.172124],[21.348827,46.172086],[21.348551,46.171337],[21.348534,46.171299],[21.348486,46.171184],[21.348442,46.171088],[21.348344,46.170902],[21.348289,46.17081],[21.348247,46.17075],[21.348206,46.170699],[21.348124,46.170607],[21.347404,46.169866],[21.34706,46.169536]]},"properties":{"name":"Bulevardul Nicolae Titulescu"}},{"type":"Feature","geometry":{"type":"LineString","coordinates":[[21.334358,46.18093],[21.335201,46.180647],[21.335655,46.180508],[21.336029,46.180411],[21.336492,46.18034],[21.337263,46.18023],[21.337844,46.180147],[21.338128,46.180099],[21.338341,46.180056],[21.338542,46.180003],[21.338743,46.179923],[21.338973,46.179823],[21.339292,46.179677],[21.340105,46.179299],[21.340194,46.179257],[21.340319,46.179197],[21.340398,46.179162],[21.341601,46.178602],[21.342204,46.178337],[21.342825,46.17805],[21.343287,46.177838],[21.345087,46.17696],[21.345355,46.176822],[21.345535,46.176724],[21.345597,46.17669],[21.346012,46.176463],[21.346342,46.176279],[21.346478,46.1762],[21.34663,46.176091],[21.34685,46.175901],[21.347248,46.17553],[21.347338,46.175444],[21.347422,46.175369],[21.347633,46.175167],[21.34773,46.175064],[21.347827,46.174928],[21.347875,46.174854],[21.348008,46.174636],[21.348077,46.174498],[21.348107,46.174427],[21.348131,46.174358],[21.348146,46.174282],[21.348152,46.174202],[21.348144,46.173694],[21.348102,46.172797],[21.348101,46.17278],[21.348097,46.172621],[21.348087,46.172506],[21.348083,46.172458],[21.348046,46.172255],[21.348038,46.172096],[21.347987,46.171464],[21.347974,46.171313],[21.347972,46.171246],[21.347967,46.17117],[21.347962,46.171092],[21.347948,46.17097],[21.347929,46.170884],[21.347897,46.170788],[21.347839,46.170669],[21.347764,46.170543],[21.347649,46.170388],[21.347603,46.170326],[21.34749,46.17019],[21.347422,46.170109],[21.347362,46.170049],[21.347046,46.169765],[21.346889,46.169637],[21.346569,46.169358],[21.346138,46.169001],[21.345831,46.168735],[21.345738,46.168662],[21.345645,46.168594],[21.345557,46.168529],[21.34547,46.168473],[21.345372,46.168409],[21.345024,46.168213],[21.344618,46.168014],[21.344475,46.167959],[21.344057,46.16781],[21.343763,46.167726],[21.343466,46.16764],[21.343164,46.167566],[21.342517,46.167418],[21.339958,46.166832],[21.339693,46.166773],[21.338186,46.16642],[21.337697,46.166308],[21.337268,46.166211],[21.33687,46.166139],[21.33653,46.166088],[21.336026,46.166023],[21.335555,46.165989],[21.335099,46.165965],[21.334727,46.165961],[21.334289,46.165965],[21.33324,46.165971],[21.332486,46.165979],[21.331308,46.165993],[21.33044,46.166005],[21.330362,46.166009],[21.330192,46.166004]]},"properties":{"name":"Bulevardul Nicolae Titulescu"}},{"type":"Feature","geometry":{"type":"LineString","coordinates":[[21.323328,46.182849],[21.323424,46.182953],[21.323603,46.183147],[21.323752,46.183315],[21.323793,46.183362],[21.324003,46.183598],[21.32423,46.183879],[21.324309,46.184002],[21.324365,46.1841],[21.324629,46.184722],[21.324653,46.184801],[21.324838,46.185404],[21.324957,46.185794],[21.324991,46.185905],[21.325026,46.185979],[21.32505,46.186031],[21.32552,46.187045],[21.325554,46.187139],[21.325578,46.187223],[21.325586,46.18729],[21.325585,46.187368],[21.325581,46.187448],[21.325555,46.187571],[21.325522,46.187691],[21.325485,46.187779],[21.32541,46.187909],[21.325342,46.188004],[21.325245,46.188115],[21.325166,46.188199],[21.325084,46.188273],[21.324996,46.188343],[21.324832,46.188455]]},"properties":{"name":"Bulevardul Revoluției"}},{"type":"Feature","geometry":{"type":"LineString","coordinates":[[21.325228,46.185857],[21.32524,46.18594],[21.325607,46.186823],[21.325732,46.187108],[21.325773,46.187241],[21.325789,46.187376],[21.325786,46.187475],[21.325775,46.187581],[21.325748,46.187736],[21.32571,46.187886],[21.325658,46.188051],[21.325586,46.188209],[21.325549,46.188272],[21.325523,46.188316],[21.325449,46.188421],[21.325413,46.188465],[21.325341,46.188542],[21.325218,46.188629]]},"properties":{"name":"Bulevardul Revoluției"}},{"type":"Feature","geometry":{"type":"LineString","coordinates":[[21.323902,46.182504],[21.32399,46.182559],[21.324014,46.182573],[21.324035,46.182586]]},"properties":{"name":"Bulevardul Revoluției"}},{"type":"Feature","geometry":{"type":"LineString","coordinates":[[21.366388,46.175286],[21.366412,46.175343],[21.366426,46.17537],[21.366444,46.175404],[21.36648,46.175464],[21.366497,46.175486],[21.366626,46.175575],[21.367063,46.175814],[21.367677,46.17617],[21.368148,46.176444],[21.368836,46.17683],[21.369822,46.177372],[21.369973,46.177455],[21.371157,46.178108],[21.371347,46.178213],[21.371594,46.178348],[21.371723,46.178452],[21.371941,46.17861],[21.37207,46.17874],[21.372136,46.178795],[21.372176,46.178825],[21.372231,46.178858],[21.372287,46.178884],[21.372388,46.178913],[21.37247,46.178927],[21.372591,46.178948],[21.372633,46.17896],[21.372679,46.178978],[21.372704,46.178991],[21.372743,46.179011],[21.372817,46.179053],[21.373008,46.179164],[21.373107,46.179221],[21.373852,46.179651],[21.374162,46.17983],[21.374237,46.179868],[21.374544,46.180023],[21.374662,46.180083],[21.37472,46.180105],[21.37477,46.18012],[21.374852,46.180138],[21.375072,46.180167],[21.375536,46.180241]]},"properties":{"name":"Strada Șiriei"}},{"type":"Feature","geometry":{"type":"LineString","coordinates":[[21.375836,46.180513],[21.375837,46.180584],[21.375839,46.180634],[21.375849,46.180689],[21.375858,46.18077],[21.376184,46.180958],[21.376632,46.181197],[21.37745,46.181675],[21.379063,46.182565],[21.38176,46.183906],[21.382869,46.184457],[21.38378,46.184903],[21.385781,46.185878],[21.386207,46.186086],[21.387342,46.186694],[21.388495,46.187292],[21.391821,46.18907],[21.392175,46.189247],[21.392403,46.189348],[21.392576,46.189422],[21.392796,46.189505],[21.392928,46.189551]]},"properties":{"name":"DJ709"}},{"type":"Feature","geometry":{"type":"LineString","coordinates":[[21.429858,46.198932],[21.429946,46.198961],[21.430311,46.19908],[21.430572,46.199159],[21.431883,46.199466],[21.433806,46.199984],[21.435439,46.200396],[21.437716,46.200917],[21.438119,46.201009],[21.439419,46.201232],[21.439856,46.201308],[21.441702,46.201625],[21.444006,46.202021],[21.445714,46.202321],[21.446455,46.202452],[21.446953,46.202564],[21.447312,46.202659],[21.447992,46.202856],[21.448424,46.203002],[21.448481,46.203027],[21.448761,46.20315],[21.450875,46.204345]]},"properties":{"name":"DJ709"}},{"type":"Feature","geometry":{"type":"LineString","coordinates":[[21.392928,46.189551],[21.393182,46.189613],[21.399854,46.191128],[21.404314,46.192113],[21.407169,46.192744],[21.40884,46.193089],[21.409918,46.193314],[21.412697,46.193939],[21.41627,46.194771],[21.417141,46.194996],[21.418016,46.195248],[21.421501,46.196311],[21.422004,46.196464],[21.428546,46.198523],[21.429858,46.198932]]},"properties":{"name":"DJ709;DJ682C"}},{"type":"Feature","geometry":{"type":"LineString","coordinates":[[21.450875,46.204345],[21.451606,46.204758],[21.452233,46.205128],[21.452611,46.205347],[21.452966,46.20552],[21.453124,46.205587],[21.453371,46.205689],[21.453607,46.205776],[21.454292,46.206008],[21.454646,46.206117],[21.456375,46.206681],[21.457977,46.207172],[21.459621,46.207662],[21.461195,46.208142],[21.462874,46.208638]]},"properties":{"name":"Strada Ferdinand I"}},{"type":"Feature","geometry":{"type":"LineString","coordinates":[[21.324712,46.183048],[21.324547,46.182916],[21.324401,46.182811],[21.324305,46.182752],[21.324067,46.182606],[21.324044,46.182591],[21.324035,46.182586]]},"properties":{"name":"Piața Academician Caius Iacob"}},{"type":"Feature","geometry":{"type":"LineString","coordinates":[[21.324776,46.1831],[21.325527,46.183705],[21.325541,46.183716],[21.325643,46.183807],[21.325691,46.183844]]},"properties":{"name":"Piața Academician Caius Iacob"}},{"type":"Feature","geometry":{"type":"LineString","coordinates":[[21.325228,46.185857],[21.325217,46.185754],[21.325211,46.185706],[21.325203,46.185633],[21.325204,46.185611],[21.325205,46.185571],[21.325212,46.185514],[21.325223,46.185472],[21.325246,46.18543],[21.325294,46.185363],[21.32557,46.185003],[21.325615,46.184942]]},"properties":{"name":"Piața Academician Caius Iacob"}},{"type":"Feature","geometry":{"type":"LineString","coordinates":[[21.326983,46.185432],[21.32696,46.185398],[21.326921,46.18535],[21.326872,46.185299],[21.326825,46.185257],[21.32676,46.185209],[21.32668,46.185158],[21.326582,46.185109],[21.326564,46.185101],[21.326482,46.185073],[21.326365,46.185048],[21.326,46.184995],[21.325893,46.18498],[21.325727,46.184957],[21.325615,46.184942]]},"properties":{"name":"Piața Academician Caius Iacob"}},{"type":"Feature","geometry":{"type":"LineString","coordinates":[[21.326639,46.184794],[21.326601,46.184746],[21.326401,46.184522],[21.325933,46.184028],[21.325691,46.183844],[21.325696,46.183879],[21.325701,46.18391],[21.325712,46.183943],[21.325731,46.183979],[21.325824,46.184118],[21.325859,46.18419],[21.325866,46.18421],[21.325884,46.184258],[21.325894,46.18431],[21.325898,46.184354],[21.325892,46.184428],[21.325868,46.18451],[21.325865,46.184518],[21.325823,46.184626],[21.325787,46.184687],[21.325673,46.184861],[21.325658,46.184882],[21.325638,46.18491],[21.325615,46.184942],[21.325519,46.184928],[21.325304,46.184898],[21.325224,46.184886],[21.325013,46.184853],[21.324979,46.184844],[21.324954,46.184837],[21.324916,46.184827],[21.324866,46.184805],[21.324797,46.18477],[21.324727,46.184735],[21.324675,46.184722],[21.324629,46.184722]]},"properties":{"name":"Piața Academician Caius Iacob"}},{"type":"Feature","geometry":{"type":"LineString","coordinates":[[21.360624,46.176655],[21.360587,46.176773],[21.360501,46.176683]]},"properties":{"name":"Strada Prutului"}},{"type":"Feature","geometry":{"type":"LineString","coordinates":[[21.310416,46.191665],[21.310116,46.191711],[21.310011,46.191723],[21.309845,46.191742],[21.309483,46.191778],[21.309108,46.191806],[21.308253,46.19187],[21.307981,46.191886],[21.307902,46.191891],[21.307774,46.191898],[21.307699,46.191907],[21.307662,46.191914],[21.307613,46.191929],[21.307559,46.191946],[21.307518,46.191963],[21.307482,46.191979],[21.307357,46.192047],[21.307336,46.192123],[21.30733,46.192165],[21.307331,46.192198],[21.307339,46.192237],[21.307352,46.192269],[21.307369,46.192294],[21.307394,46.19232],[21.307405,46.192331],[21.30743,46.192349],[21.30745,46.192363],[21.307463,46.192371],[21.307488,46.192383],[21.307519,46.192394],[21.307548,46.192403],[21.307675,46.192439]]},"properties":{"name":"Calea Aurel Vlaicu"}},{"type":"Feature","geometry":{"type":"LineString","coordinates":[[21.310941,46.19176],[21.310694,46.191813],[21.310203,46.191918],[21.309683,46.19203],[21.30936,46.192097],[21.309225,46.192123],[21.308861,46.192195],[21.308498,46.192266],[21.308418,46.19228],[21.308135,46.192339]]},"properties":{"name":"Calea Aurel Vlaicu"}},{"type":"Feature","geometry":{"type":"LineString","coordinates":[[21.323701,46.189226],[21.323594,46.189238],[21.323299,46.18928],[21.322738,46.189383],[21.321972,46.189533],[21.321692,46.189588],[21.321527,46.18962],[21.321469,46.189631],[21.320269,46.18987],[21.319352,46.190054],[21.31929,46.190067],[21.319054,46.190116]]},"properties":{"name":"Calea Aurel Vlaicu"}},{"type":"Feature","geometry":{"type":"LineString","coordinates":[[21.323605,46.18907],[21.3235,46.189098],[21.32342,46.189115],[21.322896,46.189223],[21.322696,46.189262],[21.322626,46.189276],[21.321947,46.189416],[21.321839,46.189432],[21.321752,46.189442],[21.321599,46.189461],[21.321491,46.189479],[21.321401,46.189492],[21.321368,46.189497],[21.320496,46.189655],[21.319591,46.189834],[21.319223,46.189907],[21.318999,46.189953]]},"properties":{"name":"Calea Aurel Vlaicu"}},{"type":"Feature","geometry":{"type":"LineString","coordinates":[[21.310416,46.191665],[21.310396,46.191611],[21.310391,46.191577],[21.310394,46.19152],[21.310413,46.191489],[21.310532,46.191256],[21.310564,46.191186],[21.310568,46.19114],[21.310571,46.191066],[21.310565,46.190957],[21.310563,46.19087],[21.310555,46.190739],[21.310546,46.190643],[21.310551,46.190516]]},"properties":{"name":"Calea Victoriei"}},{"type":"Feature","geometry":{"type":"LineString","coordinates":[[21.309953,46.182316],[21.309866,46.182529],[21.309846,46.182587],[21.309782,46.1828],[21.309766,46.182915],[21.309765,46.183033]]},"properties":{"name":"Calea Victoriei"}},{"type":"Feature","geometry":{"type":"LineString","coordinates":[[21.31038,46.18255],[21.310153,46.182671],[21.310067,46.182721],[21.309976,46.182796],[21.309909,46.182857],[21.30988,46.182893],[21.309844,46.182944],[21.309765,46.183033],[21.309588,46.183549],[21.309573,46.183602],[21.309567,46.183621],[21.309544,46.183714],[21.309526,46.1838],[21.30952,46.183884],[21.30953,46.183997],[21.309542,46.184104],[21.309589,46.184376],[21.309591,46.18439],[21.309626,46.184602],[21.309699,46.1851],[21.309781,46.185625],[21.309976,46.186874],[21.310215,46.188331],[21.310224,46.18842],[21.310229,46.188448],[21.310292,46.188865],[21.310396,46.189478],[21.31051,46.190282],[21.310551,46.190516],[21.310585,46.190592],[21.310613,46.190653],[21.310648,46.190745],[21.310712,46.190926],[21.310751,46.191021],[21.310815,46.191155],[21.310988,46.19138],[21.311023,46.19142],[21.311057,46.191485],[21.311073,46.191535],[21.311072,46.191563],[21.311062,46.191602],[21.311056,46.191621],[21.311042,46.191646],[21.311032,46.19166],[21.311019,46.191678],[21.310991,46.191712],[21.310941,46.19176]]},"properties":{"name":"Calea Victoriei"}},{"type":"Feature","geometry":{"type":"LineString","coordinates":[[21.310581,46.182122],[21.310641,46.182155],[21.3107,46.182198],[21.310744,46.182246],[21.310797,46.182318],[21.310834,46.182364],[21.310863,46.182401],[21.311013,46.182524],[21.311061,46.182553],[21.311134,46.182589],[21.311249,46.182631]]},"properties":{"name":"Strada Banu Mărăcine"}},{"type":"Feature","geometry":{"type":"LineString","coordinates":[[21.315874,46.185075],[21.31576,46.185029],[21.315635,46.184952],[21.315352,46.184739],[21.315288,46.184687],[21.314998,46.184439],[21.314639,46.184158],[21.314231,46.183864],[21.314107,46.183776],[21.31397,46.18366],[21.313604,46.183453],[21.313492,46.183391],[21.313202,46.18323],[21.312872,46.183053],[21.312722,46.182986],[21.312434,46.182871],[21.312371,46.182846],[21.312244,46.182805],[21.312123,46.182772],[21.311949,46.182742],[21.311618,46.182687],[21.311249,46.182631],[21.311156,46.182638],[21.31107,46.182641],[21.310937,46.182632],[21.31074,46.18261],[21.310694,46.182603],[21.310658,46.182597],[21.31058,46.182585],[21.310404,46.182546]]},"properties":{"name":"Strada Banu Mărăcine"}},{"type":"Feature","geometry":{"type":"LineString","coordinates":[[21.31397,46.18366],[21.314164,46.183737]]},"properties":{"name":"Strada Banu Mărăcine"}},{"type":"Feature","geometry":{"type":"LineString","coordinates":[[21.315874,46.185075],[21.316056,46.185123],[21.316145,46.185136],[21.316229,46.185145],[21.316373,46.185147],[21.316505,46.185168],[21.316652,46.185179],[21.316788,46.185181],[21.316939,46.185177],[21.317078,46.185159],[21.317246,46.185126],[21.317669,46.184995],[21.318166,46.18483],[21.318315,46.184779],[21.319368,46.184389],[21.319425,46.184368],[21.31953,46.184331],[21.319719,46.18426],[21.319768,46.184242],[21.320605,46.18393],[21.320651,46.183913],[21.321071,46.183754],[21.321758,46.183501],[21.322536,46.183216],[21.322637,46.183166],[21.322717,46.183128],[21.323183,46.18295],[21.323239,46.182929],[21.323271,46.182912],[21.323304,46.182884],[21.323328,46.182849]]},"properties":{"name":"Strada Corneliu Coposu"}},{"type":"Feature","geometry":{"type":"LineString","coordinates":[[21.323603,46.183147],[21.323436,46.183146],[21.323225,46.18315],[21.323047,46.183156],[21.322892,46.183169],[21.322536,46.183216]]},"properties":{"name":"Strada Corneliu Coposu"}},{"type":"Feature","geometry":{"type":"LineString","coordinates":[[21.329811,46.165887],[21.329829,46.165803],[21.329851,46.165749],[21.329874,46.165705],[21.329914,46.165628],[21.329984,46.165518],[21.330092,46.165379]]},"properties":{"name":"Strada Cetății"}},{"type":"Feature","geometry":{"type":"LineString","coordinates":[[21.326285,46.156356],[21.326431,46.1564],[21.326657,46.156468],[21.326834,46.156545],[21.32696,46.156623],[21.327038,46.156678],[21.327164,46.156847],[21.328008,46.158217],[21.328376,46.158801],[21.328732,46.159372],[21.328924,46.159676],[21.328978,46.159765],[21.329183,46.160098],[21.329199,46.160125],[21.329269,46.160238],[21.329377,46.160398],[21.329547,46.160679],[21.330477,46.162125],[21.330998,46.162972],[21.331097,46.16323],[21.331119,46.163321],[21.331113,46.163483],[21.331076,46.163665],[21.33097,46.163897],[21.330672,46.164415],[21.330092,46.165379],[21.330042,46.165527],[21.330026,46.165611],[21.330027,46.165677],[21.330032,46.165697],[21.330045,46.165743],[21.33008,46.165818]]},"properties":{"name":"Strada Cetății"}},{"type":"Feature","geometry":{"type":"LineString","coordinates":[[21.326285,46.156356],[21.326137,46.156353],[21.326042,46.156357],[21.325979,46.156373],[21.325922,46.15641],[21.325817,46.156523],[21.325771,46.156571],[21.325693,46.156625],[21.325688,46.156627],[21.325584,46.156669],[21.325501,46.156684],[21.325399,46.156684],[21.324152,46.156521],[21.323156,46.156428],[21.322047,46.156394],[21.322017,46.156394],[21.321984,46.156394],[21.321906,46.156393],[21.32182,46.156392],[21.32177,46.156392],[21.321706,46.156392]]},"properties":{"name":"Strada Ana Ipătescu"}},{"type":"Feature","geometry":{"type":"LineString","coordinates":[[21.321706,46.156392],[21.321707,46.15627],[21.321712,46.155911],[21.321756,46.154688],[21.321767,46.154228],[21.321769,46.154121],[21.321772,46.153862],[21.321776,46.153529],[21.321775,46.153215],[21.321776,46.152859],[21.321757,46.152346],[21.321755,46.152315],[21.321753,46.152235],[21.32156,46.150351],[21.32155,46.150267],[21.321325,46.14835],[21.321235,46.147354],[21.321216,46.147011],[21.321207,46.146865],[21.321203,46.146594],[21.321206,46.146397],[21.321216,46.146219]]},"properties":{"name":"Calea Timișorii"}},{"type":"Feature","geometry":{"type":"LineString","coordinates":[[21.321906,46.156393],[21.321905,46.156274],[21.321904,46.156243],[21.321902,46.155979],[21.321905,46.155917],[21.321969,46.154597],[21.321984,46.154228],[21.321988,46.154126],[21.321997,46.153862],[21.321984,46.152974],[21.32198,46.152455],[21.321983,46.152313],[21.321982,46.152254],[21.321977,46.152189],[21.321824,46.150905],[21.321777,46.150529],[21.321753,46.150342],[21.321489,46.148395],[21.321426,46.147547],[21.321391,46.147008],[21.321387,46.146857],[21.321392,46.14651],[21.321401,46.146431],[21.321419,46.146361],[21.321447,46.146295]]},"properties":{"name":"Calea Timișorii"}},{"type":"Feature","geometry":{"type":"LineString","coordinates":[[21.321094,46.141038],[21.321116,46.141155],[21.32131,46.141948]]},"properties":{"name":"Calea Timișorii"}},{"type":"Feature","geometry":{"type":"LineString","coordinates":[[21.321241,46.146108],[21.321265,46.146024],[21.321295,46.145909],[21.321337,46.14578],[21.32137,46.145686],[21.321455,46.14546]]},"properties":{"name":"Calea Timișorii"}},{"type":"Feature","geometry":{"type":"LineString","coordinates":[[21.321498,46.146087],[21.321477,46.146034],[21.321471,46.145991],[21.321467,46.145925],[21.321465,46.145895],[21.321459,46.145697],[21.321455,46.14546],[21.321476,46.145135],[21.321489,46.144833],[21.321493,46.14476],[21.321514,46.144453],[21.321515,46.144287],[21.321514,46.144216],[21.321509,46.143829],[21.321502,46.143759],[21.32147,46.143463],[21.321444,46.143185],[21.321358,46.142432],[21.321337,46.142196],[21.32131,46.141948],[21.321249,46.141216],[21.321215,46.141026]]},"properties":{"name":"Calea Timișorii"}},{"type":"Feature","geometry":{"type":"LineString","coordinates":[[21.321498,46.146087],[21.321584,46.146118],[21.321643,46.146133],[21.321749,46.146153],[21.321794,46.146154],[21.32188,46.146148],[21.321997,46.146147],[21.322853,46.145981],[21.323092,46.145939],[21.324162,46.145751],[21.325259,46.145562],[21.326361,46.145372],[21.327701,46.145135],[21.328933,46.144911],[21.331857,46.144363],[21.332185,46.144305],[21.332364,46.144276],[21.332521,46.144253],[21.332644,46.14424],[21.332775,46.14423],[21.332999,46.144221],[21.333518,46.14423],[21.333586,46.144234],[21.333627,46.144239],[21.333713,46.144262],[21.333767,46.144281],[21.33383,46.144311],[21.333911,46.144358],[21.333968,46.144399],[21.334025,46.144449],[21.334064,46.144493],[21.334104,46.144543],[21.334154,46.144622],[21.334395,46.145071],[21.334413,46.145109],[21.33466,46.145663],[21.334787,46.146016],[21.334848,46.146288],[21.33493,46.146872],[21.335115,46.147741],[21.335198,46.148084],[21.335261,46.148315],[21.335342,46.148617],[21.335353,46.148663],[21.335502,46.14929]]},"properties":{"name":"Strada Ștefan cel Mare"}},{"type":"Feature","geometry":{"type":"LineString","coordinates":[[21.335716,46.149647],[21.335661,46.149575],[21.335591,46.14947],[21.335502,46.14929],[21.335505,46.149473],[21.335503,46.149581],[21.335498,46.149685]]},"properties":{"name":"Strada Ștefan cel Mare"}},{"type":"Feature","geometry":{"type":"LineString","coordinates":[[21.321997,46.146147],[21.321902,46.146186],[21.321819,46.146203],[21.321763,46.146212],[21.321632,46.146238],[21.321488,46.146279]]},"properties":{"name":"Strada Ștefan cel Mare"}},{"type":"Feature","geometry":{"type":"LineString","coordinates":[[21.33578,46.149671],[21.33593,46.149685],[21.336075,46.149687],[21.336282,46.149679]]},"properties":{"name":"Strada Nikolaus Lenau"}},{"type":"Feature","geometry":{"type":"LineString","coordinates":[[21.338897,46.145035],[21.338854,46.145086],[21.338836,46.14513],[21.338829,46.145173],[21.338843,46.145261],[21.338868,46.145346],[21.339279,46.14642],[21.339283,46.14643],[21.339395,46.146688],[21.339423,46.146741],[21.339457,46.146784],[21.339509,46.146847],[21.339632,46.147007],[21.339671,46.147073],[21.339706,46.147155],[21.339724,46.14722],[21.339738,46.147328],[21.339737,46.147418],[21.339733,46.147476],[21.33972,46.147528],[21.3397,46.147578],[21.339664,46.147647],[21.339498,46.147879],[21.339352,46.148081],[21.339141,46.148379],[21.339053,46.148506],[21.338943,46.148653],[21.338821,46.148819],[21.338676,46.148979],[21.338554,46.149088],[21.338418,46.14918],[21.338279,46.149252],[21.338138,46.149309],[21.337874,46.149395],[21.337604,46.149458],[21.33681,46.149593],[21.336282,46.149679],[21.336058,46.149741],[21.335952,46.149775],[21.335849,46.149829]]},"properties":{"name":"Strada Nikolaus Lenau"}},{"type":"Feature","geometry":{"type":"LineString","coordinates":[[21.338897,46.145035],[21.338968,46.144978],[21.339089,46.144896],[21.339214,46.144809],[21.339325,46.144721],[21.339378,46.144654],[21.33941,46.14461],[21.339434,46.144555],[21.339438,46.144488],[21.339009,46.143346],[21.338878,46.142985],[21.338626,46.142315],[21.338463,46.141871],[21.3384,46.141704]]},"properties":{"name":"Strada Flacăra"}},{"type":"Feature","geometry":{"type":"LineString","coordinates":[[21.338301,46.141495],[21.3384,46.141704],[21.338413,46.141616],[21.338429,46.141562],[21.338465,46.141505]]},"properties":{"name":"Strada Flacăra"}},{"type":"Feature","geometry":{"type":"LineString","coordinates":[[21.338424,46.141373],[21.338567,46.141377],[21.338933,46.141392],[21.339149,46.141413]]},"properties":{"name":"Strada Steagului"}},{"type":"Feature","geometry":{"type":"LineString","coordinates":[[21.352681,46.135521],[21.350877,46.136403],[21.347667,46.137972],[21.346527,46.13853],[21.345762,46.138896],[21.345518,46.139028],[21.344912,46.139331],[21.344122,46.139741],[21.342966,46.140314],[21.342775,46.140396],[21.342573,46.140476],[21.342189,46.140602],[21.3417,46.140757],[21.341665,46.140768],[21.340665,46.141077],[21.340124,46.141248],[21.339856,46.141328],[21.339702,46.141366],[21.339526,46.141398],[21.33934,46.14141],[21.339149,46.141413],[21.338928,46.141434],[21.338681,46.141451],[21.338597,46.141458],[21.338559,46.141466],[21.338489,46.141484]]},"properties":{"name":"Strada Steagului"}},{"type":"Feature","geometry":{"type":"LineString","coordinates":[[21.352681,46.135521],[21.352663,46.135406],[21.352386,46.133592],[21.352101,46.131757]]},"properties":{"name":"Strada Vântului"}},{"type":"Feature","geometry":{"type":"LineString","coordinates":[[21.328933,46.144911],[21.328941,46.145032],[21.329068,46.147211]]},"properties":{"name":"Strada Adam M. Guttenbrunn"}},{"type":"Feature","geometry":{"type":"LineString","coordinates":[[21.326037,46.156101],[21.325999,46.156172],[21.325971,46.156233],[21.325922,46.15641]]},"properties":{"name":"Strada Adam M. Guttenbrunn"}},{"type":"Feature","geometry":{"type":"LineString","coordinates":[[21.329068,46.147211],[21.329074,46.147473],[21.329048,46.147716],[21.32891,46.148123],[21.328819,46.148328],[21.328506,46.149041],[21.328349,46.149402],[21.328158,46.149952],[21.327916,46.150689],[21.327703,46.151313],[21.327474,46.152009],[21.327357,46.152332],[21.327114,46.152992],[21.326883,46.153614],[21.326642,46.154309],[21.326119,46.155836],[21.326037,46.156101]]},"properties":{"name":"Strada Adam Müller-Guttenbrunn"}},{"type":"Feature","geometry":{"type":"LineString","coordinates":[[21.325218,46.188629],[21.325093,46.188702],[21.325046,46.188726],[21.324998,46.18875],[21.32441,46.189069],[21.324371,46.18909],[21.324321,46.189113],[21.324257,46.189134],[21.324166,46.18916],[21.324051,46.189183],[21.323701,46.189226]]},"properties":{"name":"Piața Gării"}},{"type":"Feature","geometry":{"type":"LineString","coordinates":[[21.323605,46.18907],[21.323689,46.189048],[21.32379,46.189011],[21.323917,46.188957],[21.324014,46.188909],[21.324097,46.188862],[21.324668,46.18854],[21.324713,46.188514],[21.324775,46.188479],[21.324832,46.188455]]},"properties":{"name":"Piața Gării"}},{"type":"Feature","geometry":{"type":"LineString","coordinates":[[21.323594,46.189238],[21.323554,46.189175],[21.323533,46.189146],[21.3235,46.189098]]},"properties":{"name":"Strada Miron Costin"}},{"type":"Feature","geometry":{"type":"LineString","coordinates":[[21.323605,46.18907],[21.323522,46.188939],[21.323494,46.1889],[21.323456,46.188846],[21.32333,46.188713],[21.323085,46.188482],[21.322985,46.188389],[21.322895,46.188326],[21.32287,46.188279],[21.322841,46.188222],[21.32279,46.188107],[21.322713,46.187919],[21.322126,46.186493],[21.321961,46.186125],[21.321923,46.186057],[21.321875,46.185998],[21.321792,46.185913],[21.321512,46.185739],[21.320322,46.185059],[21.320148,46.184967],[21.319971,46.184832],[21.319885,46.184756],[21.319831,46.184707],[21.319768,46.184639],[21.319702,46.184558],[21.319642,46.184479],[21.319625,46.184455],[21.31953,46.184331]]},"properties":{"name":"Strada Miron Costin"}},{"type":"Feature","geometry":{"type":"LineString","coordinates":[[21.309887,46.182135],[21.309827,46.18202],[21.309726,46.181829],[21.309687,46.181728],[21.309672,46.181671],[21.309664,46.181609]]},"properties":{"name":"Strada Andrei Șaguna"}},{"type":"Feature","geometry":{"type":"LineString","coordinates":[[21.310288,46.181876],[21.310049,46.18178],[21.309919,46.181731],[21.30989,46.181721],[21.309803,46.181686],[21.309733,46.181648],[21.309664,46.181609],[21.309611,46.181511],[21.309556,46.181407],[21.309528,46.181355],[21.309163,46.180685],[21.308906,46.180154],[21.308639,46.179635],[21.30806,46.178506],[21.307529,46.177468],[21.306929,46.176356],[21.306335,46.175185],[21.30596,46.174439],[21.305669,46.173859],[21.305547,46.173632],[21.304759,46.17211],[21.30457,46.171746],[21.304508,46.171615],[21.303999,46.170616],[21.303908,46.170441],[21.303719,46.170075],[21.30338,46.16942],[21.303323,46.169315],[21.302514,46.167809],[21.301967,46.166694],[21.301935,46.166636],[21.301917,46.166609],[21.301904,46.166581],[21.30189,46.166553],[21.301867,46.16651],[21.301852,46.166481],[21.300757,46.164449],[21.300106,46.163176],[21.299696,46.162417],[21.299617,46.162333]]},"properties":{"name":"Strada Andrei Șaguna"}},{"type":"Feature","geometry":{"type":"LineString","coordinates":[[21.307529,46.177468],[21.305866,46.17788],[21.304004,46.178358],[21.303445,46.178497],[21.301969,46.178866],[21.29995,46.179381],[21.297948,46.179885],[21.296987,46.180126],[21.296845,46.180162]]},"properties":{"name":"Strada Liviu Rebreanu"}},{"type":"Feature","geometry":{"type":"LineString","coordinates":[[21.296845,46.180162],[21.296799,46.180067],[21.296472,46.17941],[21.296424,46.179304],[21.296037,46.178518],[21.295771,46.177972],[21.295734,46.17789],[21.294989,46.176387],[21.29466,46.17573],[21.294423,46.175242],[21.294088,46.174539]]},"properties":{"name":"Strada Profesor Doctor Aurel Ardelean"}},{"type":"Feature","geometry":{"type":"LineString","coordinates":[[21.293924,46.174261],[21.293949,46.174326],[21.293956,46.174342],[21.293971,46.174373],[21.293986,46.1744],[21.293996,46.17442],[21.294007,46.174436],[21.294022,46.174457],[21.294044,46.174489],[21.294088,46.174539],[21.294083,46.174478],[21.29408,46.174446],[21.294078,46.174421],[21.294073,46.174356],[21.294071,46.174323],[21.294072,46.174312],[21.294078,46.174256]]},"properties":{"name":"Strada Profesor Doctor Aurel Ardelean"}},{"type":"Feature","geometry":{"type":"LineString","coordinates":[[21.293894,46.17419],[21.293923,46.173874],[21.293927,46.173824],[21.293933,46.17376]]},"properties":{"name":"Strada Profesor Doctor Aurel Ardelean"}},{"type":"Feature","geometry":{"type":"LineString","coordinates":[[21.289269,46.164183],[21.289455,46.16459],[21.289721,46.165131],[21.290123,46.165903]]},"properties":{"name":"Strada Profesor Doctor Aurel Ardelean"}},{"type":"Feature","geometry":{"type":"LineString","coordinates":[[21.294061,46.174149],[21.29397,46.173874],[21.29396,46.173842],[21.293933,46.17376],[21.293908,46.173624],[21.293875,46.17348],[21.293848,46.17337],[21.293813,46.173268],[21.293749,46.173123],[21.292782,46.171138],[21.292743,46.171058],[21.291895,46.169317],[21.291875,46.169274],[21.291822,46.169169],[21.291739,46.169005],[21.29171,46.168948],[21.291698,46.168925],[21.290335,46.166228],[21.290297,46.166153],[21.290225,46.16601],[21.290217,46.165994]]},"properties":{"name":"Strada Profesor Doctor Aurel Ardelean"}},{"type":"Feature","geometry":{"type":"LineString","coordinates":[[21.290217,46.165994],[21.290185,46.165984],[21.290161,46.165976],[21.290123,46.165903],[21.290176,46.165919],[21.290206,46.165973],[21.290217,46.165994]]},"properties":{"name":"Strada Profesor Doctor Aurel Ardelean"}},{"type":"Feature","geometry":{"type":"LineString","coordinates":[[21.289269,46.164183],[21.289965,46.164015],[21.290283,46.163938],[21.290373,46.163916],[21.290474,46.163893],[21.290714,46.163837],[21.29145,46.163665],[21.291532,46.163647]]},"properties":{"name":"Strada Barbu Lăutaru"}},{"type":"Feature","geometry":{"type":"LineString","coordinates":[[21.291754,46.16354],[21.291532,46.163647],[21.291788,46.16362]]},"properties":{"name":"Strada Barbu Lăutaru"}},{"type":"Feature","geometry":{"type":"LineString","coordinates":[[21.322833,46.199251],[21.322686,46.200395],[21.322662,46.20057],[21.322657,46.200723],[21.323032,46.203233],[21.323218,46.204627],[21.323215,46.204798],[21.323195,46.204991],[21.323026,46.206316],[21.323009,46.206591]]},"properties":{"name":"Strada Trenului"}},{"type":"Feature","geometry":{"type":"LineString","coordinates":[[21.322833,46.199251],[21.32407,46.199323],[21.325459,46.199397]]},"properties":{"name":"Strada Râșnov"}},{"type":"Feature","geometry":{"type":"LineString","coordinates":[[21.325459,46.199397],[21.325787,46.198239],[21.325807,46.198188],[21.325831,46.198157],[21.325859,46.19813],[21.325895,46.198111]]},"properties":{"name":"Strada Vezuviu"}},{"type":"Feature","geometry":{"type":"LineString","coordinates":[[21.325895,46.198111],[21.326471,46.197994],[21.32764,46.197751],[21.328796,46.197521],[21.329975,46.197279],[21.331156,46.197053],[21.33128,46.197003],[21.3325,46.196367],[21.334205,46.195465],[21.334242,46.195445],[21.334274,46.195427],[21.334383,46.195366]]},"properties":{"name":"Strada Gorunului"}},{"type":"Feature","geometry":{"type":"LineString","coordinates":[[21.334383,46.195366],[21.334315,46.195301],[21.334186,46.195178],[21.334099,46.195095],[21.334049,46.195047],[21.334042,46.195042],[21.334019,46.19502],[21.333478,46.194519],[21.333376,46.194429],[21.333242,46.194307],[21.332554,46.193676],[21.332316,46.193458],[21.332304,46.193447],[21.332027,46.193191],[21.331635,46.192833],[21.331222,46.192451],[21.330788,46.192053],[21.330749,46.192018],[21.330698,46.191971],[21.33064,46.191902],[21.330553,46.19179],[21.330436,46.191614],[21.330233,46.19132],[21.329853,46.190772],[21.329748,46.190621],[21.329683,46.190517],[21.329519,46.19021],[21.329481,46.190137],[21.32929,46.189763],[21.329036,46.189274],[21.328992,46.189187],[21.328914,46.189085],[21.328845,46.188984],[21.328802,46.18891],[21.328416,46.188161],[21.327667,46.186732],[21.327328,46.186104],[21.326983,46.185432]]},"properties":{"name":"Strada Petru Rareș"}},{"type":"Feature","geometry":{"type":"LineString","coordinates":[[21.326471,46.197994],[21.32691,46.199452],[21.327304,46.200667],[21.327548,46.2015],[21.327696,46.201982],[21.32788,46.202591],[21.328244,46.203525],[21.328519,46.204184],[21.328526,46.204207],[21.328654,46.20466],[21.328936,46.205554],[21.329121,46.206033],[21.329319,46.206504],[21.329345,46.206605],[21.329344,46.206631]]},"properties":{"name":"Strada Rândunicii"}},{"type":"Feature","geometry":{"type":"LineString","coordinates":[[21.329344,46.206631],[21.329326,46.206649],[21.329293,46.206659],[21.329233,46.206669],[21.329145,46.206673],[21.328902,46.206674],[21.328758,46.206683],[21.328523,46.206703],[21.328356,46.206714],[21.3282,46.206713],[21.328016,46.206703],[21.326777,46.206737],[21.325534,46.206779],[21.325045,46.206777],[21.324209,46.206763],[21.323357,46.206749],[21.323178,46.206743],[21.323001,46.206726]]},"properties":{"name":"Strada Someșului"}},{"type":"Feature","geometry":{"type":"LineString","coordinates":[[21.31971,46.192209],[21.319623,46.191928],[21.319513,46.191574],[21.319476,46.191455],[21.319245,46.19071],[21.319105,46.190271],[21.319092,46.19023],[21.319054,46.190116],[21.319036,46.190065],[21.319029,46.190037],[21.318999,46.189953]]},"properties":{"name":"Calea 6 Vânători"}},{"type":"Feature","geometry":{"type":"LineString","coordinates":[[21.319747,46.19241],[21.319846,46.192688],[21.3199,46.192841],[21.320003,46.193217],[21.3205,46.195028],[21.32052,46.19513],[21.320529,46.195232],[21.320531,46.195343],[21.320512,46.196166],[21.32049,46.196308],[21.320387,46.196715],[21.320339,46.196898],[21.320322,46.197008],[21.320309,46.19711],[21.320308,46.197252],[21.320307,46.197362],[21.320318,46.197456],[21.320421,46.19804],[21.320444,46.198211],[21.320451,46.198313],[21.320437,46.198403],[21.320266,46.198947],[21.320172,46.199213],[21.320122,46.199339],[21.320043,46.199516],[21.319923,46.199757],[21.319804,46.200033],[21.319789,46.200077],[21.319776,46.200112],[21.319767,46.200192],[21.319768,46.200241],[21.319774,46.200293],[21.319783,46.200336],[21.319798,46.20037],[21.319832,46.200448],[21.319838,46.200463],[21.3199,46.200582],[21.320015,46.200765],[21.320104,46.200891],[21.320189,46.200988],[21.320259,46.201069],[21.320439,46.20127],[21.320517,46.201365],[21.320567,46.201434],[21.320596,46.201486],[21.320612,46.201537],[21.320622,46.201615],[21.320625,46.201681],[21.320605,46.2037],[21.320601,46.204299],[21.320574,46.206758],[21.320568,46.207981],[21.320568,46.208602],[21.320564,46.209741],[21.320573,46.209923],[21.320555,46.210985],[21.320551,46.21272]]},"properties":{"name":"Calea 6 Vânători"}},{"type":"Feature","geometry":{"type":"LineString","coordinates":[[21.321442,46.209741],[21.320564,46.209741]]},"properties":{"name":"Strada Siret"}},{"type":"Feature","geometry":{"type":"LineString","coordinates":[[21.321442,46.209741],[21.32182,46.212821]]},"properties":{"name":"Strada Crișului"}},{"type":"Feature","geometry":{"type":"LineString","coordinates":[[21.32182,46.212821],[21.320551,46.21281]]},"properties":{"name":"Strada Arțarului"}},{"type":"Feature","geometry":{"type":"LineString","coordinates":[[21.320712,46.166977],[21.320303,46.166888],[21.320252,46.166874],[21.320196,46.166853],[21.320153,46.166831],[21.320124,46.166805],[21.320087,46.166763],[21.320073,46.166741],[21.320065,46.166729],[21.319948,46.166499],[21.319894,46.166335],[21.319862,46.166251],[21.319668,46.165607]]},"properties":{"name":"Strada Mucius Scaevola"}},{"type":"Feature","geometry":{"type":"LineString","coordinates":[[21.320142,46.16727],[21.32014,46.167265],[21.320129,46.167237],[21.320091,46.167139],[21.320062,46.167086],[21.319961,46.16696],[21.319852,46.166823],[21.319813,46.166773],[21.319557,46.166457],[21.319487,46.166374],[21.319457,46.166344],[21.319435,46.166322],[21.319422,46.166309]]},"properties":{"name":"Strada Mucius Scaevola"}},{"type":"Feature","geometry":{"type":"LineString","coordinates":[[21.319422,46.166309],[21.318895,46.166375],[21.31814,46.166476],[21.317977,46.1665],[21.317697,46.166536],[21.31682,46.166651],[21.316366,46.166717],[21.315787,46.166807],[21.315674,46.166827],[21.31553,46.166844],[21.315342,46.166854],[21.314624,46.166886],[21.314472,46.166896],[21.314179,46.16691],[21.313728,46.166931],[21.313271,46.166955],[21.312743,46.166989],[21.312436,46.167013],[21.312063,46.167045],[21.311661,46.167078],[21.311489,46.167078]]},"properties":{"name":"Strada Preparandiei"}},{"type":"Feature","geometry":{"type":"LineString","coordinates":[[21.311489,46.167078],[21.311245,46.167063],[21.310795,46.167044],[21.310716,46.167043],[21.310625,46.16704],[21.310066,46.167019],[21.309442,46.166995],[21.308234,46.166959],[21.308156,46.166956]]},"properties":{"name":"Strada Mihail Kogălniceanu"}},{"type":"Feature","geometry":{"type":"LineString","coordinates":[[21.301935,46.166636],[21.30221,46.166653],[21.302854,46.166692],[21.303421,46.166721],[21.303695,46.166743],[21.303824,46.166753],[21.304705,46.166801],[21.305282,46.166832],[21.305808,46.166862],[21.306092,46.166877],[21.306412,46.166898],[21.306817,46.166921],[21.307502,46.166959],[21.307912,46.166958],[21.308156,46.166956],[21.30797,46.16693],[21.307695,46.166903],[21.307117,46.166864],[21.30642,46.166808],[21.306119,46.166794],[21.305822,46.166781],[21.303774,46.166664],[21.303626,46.166657],[21.302212,46.16657],[21.30189,46.166553]]},"properties":{"name":"Strada Mihail Kogălniceanu"}},{"type":"Feature","geometry":{"type":"LineString","coordinates":[[21.298458,46.182193],[21.298531,46.182187],[21.299055,46.182067],[21.299077,46.182062],[21.301079,46.181552],[21.303082,46.181032],[21.305131,46.180516],[21.306986,46.180049],[21.308639,46.179635]]},"properties":{"name":"Strada Doctor Ioan Rațiu"}},{"type":"Feature","geometry":{"type":"LineString","coordinates":[[21.298458,46.182193],[21.298418,46.182191],[21.298365,46.182187],[21.297926,46.182134],[21.297841,46.182125],[21.297786,46.182119],[21.297769,46.182118],[21.297232,46.182054],[21.295894,46.181871],[21.295832,46.181864],[21.295773,46.181863],[21.295732,46.181867],[21.295698,46.181875],[21.295675,46.181886],[21.295654,46.181904]]},"properties":{"name":"Strada Abatorului"}},{"type":"Feature","geometry":{"type":"LineString","coordinates":[[21.295654,46.181904],[21.29565,46.181925],[21.295646,46.181955],[21.295648,46.181979],[21.295657,46.182001],[21.295667,46.182027],[21.295708,46.182104],[21.296012,46.182581],[21.296048,46.182659],[21.296051,46.182693],[21.296048,46.182718],[21.296035,46.18276],[21.296018,46.182784],[21.295997,46.182803],[21.295968,46.18282],[21.295637,46.182932],[21.29557,46.18296],[21.295543,46.182983],[21.295518,46.183004],[21.295504,46.183035],[21.295497,46.183089],[21.295481,46.1833],[21.295484,46.183453],[21.295506,46.183561],[21.295546,46.183645],[21.295604,46.18374]]},"properties":{"name":"Strada Târgului"}},{"type":"Feature","geometry":{"type":"LineString","coordinates":[[21.295604,46.18374],[21.295688,46.183865],[21.296658,46.185388],[21.296965,46.185899],[21.29717,46.186217],[21.297409,46.186594],[21.297632,46.186952],[21.298105,46.187706],[21.298452,46.188285]]},"properties":{"name":"Strada Șezătorii"}},{"type":"Feature","geometry":{"type":"LineString","coordinates":[[21.298481,46.190189],[21.298483,46.190102],[21.298479,46.189806],[21.298463,46.188935],[21.298452,46.188285]]},"properties":{"name":"Strada Constantin Brâncuși"}},{"type":"Feature","geometry":{"type":"LineString","coordinates":[[21.29838,46.190226],[21.298261,46.1902],[21.297411,46.190011],[21.292313,46.188927]]},"properties":{"name":"Strada Constantin Brâncoveanu"}},{"type":"Feature","geometry":{"type":"LineString","coordinates":[[21.291849,46.189813],[21.291902,46.189787],[21.291936,46.189762],[21.291961,46.189732],[21.291984,46.189698],[21.292011,46.18963],[21.292313,46.188927]]},"properties":{"name":"Strada Baba Novac"}},{"type":"Feature","geometry":{"type":"LineString","coordinates":[[21.289692,46.189834],[21.28971,46.18983],[21.289744,46.189826],[21.289831,46.189825],[21.291101,46.189837],[21.291604,46.189848],[21.291706,46.189847],[21.291761,46.18984],[21.291803,46.189829],[21.291849,46.189813]]},"properties":{"name":"Strada Libertății"}},{"type":"Feature","geometry":{"type":"LineString","coordinates":[[21.287719,46.192134],[21.289187,46.190379],[21.2895,46.190013],[21.289624,46.189875],[21.289638,46.189861],[21.289657,46.189849],[21.289674,46.189841],[21.289692,46.189834]]},"properties":{"name":"Strada Tiberiu"}},{"type":"Feature","geometry":{"type":"LineString","coordinates":[[21.287927,46.192392],[21.287895,46.192327],[21.287835,46.192248],[21.287773,46.192183],[21.287719,46.192134]]},"properties":{"name":"Strada Gloriei"}},{"type":"Feature","geometry":{"type":"LineString","coordinates":[[21.287927,46.192392],[21.287941,46.192474],[21.287945,46.19256],[21.287943,46.192673],[21.287935,46.192711],[21.287918,46.19275],[21.28789,46.192785],[21.287861,46.192812],[21.287809,46.192831],[21.287777,46.192842]]},"properties":{"name":"Strada Mălin"}},{"type":"Feature","geometry":{"type":"LineString","coordinates":[[21.287777,46.192842],[21.287692,46.192853],[21.287598,46.192859],[21.287412,46.192862],[21.28592,46.192889],[21.284435,46.192905],[21.282951,46.192933],[21.282274,46.192945],[21.281413,46.192961],[21.279909,46.193],[21.279867,46.193002],[21.278404,46.193035],[21.277902,46.193045],[21.276889,46.193066],[21.276428,46.193077],[21.275315,46.193103]]},"properties":{"name":"Strada Independenței"}},{"type":"Feature","geometry":{"type":"LineString","coordinates":[[21.275315,46.193103],[21.275342,46.193788],[21.275382,46.194842],[21.275413,46.195889],[21.275427,46.196221],[21.27543,46.196263],[21.275438,46.196295],[21.27546,46.196331],[21.276065,46.196721]]},"properties":{"name":"Strada Trotușului"}},{"type":"Feature","geometry":{"type":"LineString","coordinates":[[21.311489,46.167078],[21.311336,46.166563],[21.311327,46.166533]]},"properties":{"name":"Piața Sârbească"}},{"type":"Feature","geometry":{"type":"LineString","coordinates":[[21.311327,46.166533],[21.311433,46.166518],[21.31156,46.166496],[21.311973,46.166443],[21.312769,46.166347],[21.314348,46.166158],[21.31446,46.166139],[21.314563,46.166106],[21.314653,46.166083],[21.314893,46.166043],[21.3151,46.166016],[21.315195,46.166011],[21.315243,46.166014],[21.315292,46.166016],[21.315374,46.166036],[21.315449,46.166053],[21.315481,46.166057],[21.315515,46.166057],[21.316165,46.165991],[21.316711,46.165933],[21.317782,46.165814],[21.318228,46.165765],[21.319265,46.165646],[21.319551,46.165616],[21.319668,46.165607]]},"properties":{"name":"Strada Dornei"}},{"type":"Feature","geometry":{"type":"LineString","coordinates":[[21.310011,46.171827],[21.309175,46.171511],[21.309086,46.171475],[21.307795,46.170956],[21.307169,46.170699],[21.307056,46.170653],[21.306101,46.170275],[21.305597,46.170076],[21.304696,46.169722],[21.304169,46.169518],[21.304018,46.169467],[21.303897,46.169444],[21.303788,46.169434],[21.30355,46.169426],[21.30338,46.16942]]},"properties":{"name":"Strada Vârful cu dor"}},{"type":"Feature","geometry":{"type":"LineString","coordinates":[[21.309995,46.172068],[21.309281,46.172107],[21.308551,46.172124],[21.307924,46.172094],[21.307408,46.172065],[21.307049,46.172045],[21.306982,46.172041],[21.306888,46.17203],[21.306487,46.171982],[21.306369,46.171966],[21.30457,46.171746]]},"properties":{"name":"Strada Mihai Eminescu"}},{"type":"Feature","geometry":{"type":"LineString","coordinates":[[21.308135,46.192339],[21.308088,46.192384],[21.308055,46.192422],[21.30803,46.19247],[21.308013,46.192515],[21.307998,46.19259],[21.307979,46.192847]]},"properties":{"name":"Strada Bumbacului"}},{"type":"Feature","geometry":{"type":"LineString","coordinates":[[21.308039,46.194281],[21.3081,46.194227],[21.308155,46.194184],[21.308227,46.194134],[21.308228,46.194116],[21.30811,46.193512],[21.307987,46.192894],[21.307979,46.192847],[21.307849,46.192557],[21.307838,46.192541],[21.307819,46.192513],[21.30779,46.19249],[21.307754,46.19247],[21.307675,46.192439]]},"properties":{"name":"Strada Bumbacului"}},{"type":"Feature","geometry":{"type":"LineString","coordinates":[[21.297256,46.203286],[21.297406,46.203102],[21.297439,46.203057],[21.297461,46.203018]]},"properties":{"name":"Strada Poetului"}},{"type":"Feature","geometry":{"type":"LineString","coordinates":[[21.297206,46.203346],[21.297048,46.203514],[21.297007,46.203554],[21.296966,46.203588]]},"properties":{"name":"Strada Poetului"}},{"type":"Feature","geometry":{"type":"LineString","coordinates":[[21.294065,46.204042],[21.293842,46.204077],[21.293724,46.2041],[21.293682,46.204113],[21.293619,46.204143],[21.29358,46.204173],[21.293532,46.204226],[21.293515,46.204246],[21.293484,46.204285]]},"properties":{"name":"Strada Poetului"}},{"type":"Feature","geometry":{"type":"LineString","coordinates":[[21.288674,46.214015],[21.288978,46.213704],[21.289118,46.213528],[21.289653,46.212886],[21.290357,46.21206],[21.290398,46.212013],[21.290489,46.211898],[21.291157,46.211067],[21.291836,46.210228],[21.292528,46.209368],[21.292584,46.209295],[21.292941,46.208839],[21.293503,46.208103],[21.293553,46.208037],[21.293661,46.207896],[21.293731,46.207797],[21.29382,46.207643],[21.293886,46.207503],[21.293966,46.207296],[21.29399,46.207205],[21.294008,46.207112],[21.294019,46.206968],[21.294019,46.206812],[21.294003,46.206683],[21.293969,46.206484],[21.29391,46.206208],[21.293716,46.205363],[21.293648,46.20502],[21.293518,46.204421],[21.293484,46.204285],[21.293473,46.204232],[21.293428,46.204041],[21.293697,46.204045],[21.294065,46.204042],[21.294568,46.204031],[21.295143,46.204013],[21.29584,46.203992],[21.29632,46.20398],[21.296469,46.20397],[21.296558,46.203955],[21.296612,46.20394],[21.296661,46.203914],[21.296771,46.203823],[21.296881,46.203691],[21.296966,46.203588],[21.296993,46.203497],[21.297004,46.203445],[21.297012,46.203388],[21.297019,46.203303]]},"properties":{"name":"Strada Poetului"}},{"type":"Feature","geometry":{"type":"LineString","coordinates":[[21.297155,46.203195],[21.297228,46.203163],[21.297287,46.203134],[21.297349,46.203095],[21.297417,46.203045],[21.297461,46.203018],[21.297599,46.202846],[21.297945,46.202432],[21.298327,46.201979],[21.298439,46.201846],[21.298595,46.201651],[21.298833,46.201353],[21.298885,46.201286],[21.29947,46.200566],[21.299658,46.200328],[21.299929,46.199979],[21.300165,46.199665],[21.300373,46.199419],[21.300611,46.199183],[21.300923,46.198921],[21.301032,46.198833],[21.301224,46.198677],[21.301283,46.198627],[21.30177,46.198214],[21.302017,46.198014],[21.302225,46.197857],[21.302464,46.1977],[21.302743,46.197529],[21.303663,46.19697],[21.304789,46.196283],[21.305742,46.195701],[21.306342,46.195319],[21.307088,46.194868],[21.307769,46.194447],[21.307796,46.194415],[21.307829,46.194387],[21.30789,46.194347],[21.307916,46.194333],[21.307955,46.194318],[21.308001,46.194306]]},"properties":{"name":"Strada Poetului"}},{"type":"Feature","geometry":{"type":"LineString","coordinates":[[21.288674,46.214015],[21.288513,46.21415],[21.287719,46.214759],[21.28704,46.215281],[21.286681,46.215567],[21.286369,46.215815],[21.285726,46.216328],[21.285056,46.216861],[21.284926,46.216965],[21.284083,46.217593],[21.283331,46.218189],[21.282904,46.218535],[21.282541,46.218821],[21.281698,46.219486],[21.280842,46.220145],[21.279719,46.221032],[21.278923,46.221663],[21.278396,46.222076],[21.278036,46.222364],[21.27763,46.222667],[21.277531,46.222736],[21.277456,46.222781],[21.277352,46.222843],[21.277141,46.222963]]},"properties":{"name":"Strada Câmpurilor"}},{"type":"Feature","geometry":{"type":"LineString","coordinates":[[21.257499,46.234025],[21.257735,46.233947],[21.258054,46.233851],[21.258533,46.233684],[21.259098,46.233495],[21.259647,46.233316],[21.260059,46.233175],[21.260432,46.233025],[21.260763,46.232881],[21.261182,46.232685],[21.261485,46.232533],[21.261868,46.232333],[21.262123,46.232176],[21.262407,46.231999],[21.262662,46.231845],[21.262823,46.231754],[21.263004,46.231628],[21.263203,46.231491],[21.263449,46.231296],[21.263634,46.231157],[21.263811,46.230999],[21.264016,46.230814],[21.264023,46.230808],[21.264111,46.230725],[21.264371,46.230474],[21.264554,46.230304],[21.264756,46.230103],[21.264922,46.229938],[21.265289,46.229578],[21.265643,46.229241],[21.265819,46.229074],[21.266394,46.228536],[21.266676,46.228271],[21.266948,46.228013],[21.267814,46.227164],[21.268318,46.226682],[21.268562,46.226454],[21.268805,46.226246],[21.268945,46.226123],[21.269187,46.225934],[21.269377,46.225805],[21.269531,46.225697],[21.269949,46.225438],[21.270232,46.225281],[21.271216,46.22478],[21.271603,46.22462],[21.272163,46.224412],[21.272709,46.224246],[21.273237,46.224109],[21.274236,46.223889],[21.274839,46.223755],[21.275276,46.223658],[21.275873,46.223489],[21.276154,46.223401],[21.276485,46.223279],[21.276763,46.22316],[21.27691,46.223083],[21.277141,46.222963]]},"properties":{"name":"DJ709C"}},{"type":"Feature","geometry":{"type":"LineString","coordinates":[[21.257499,46.234025],[21.257409,46.234407],[21.257302,46.234795],[21.257144,46.235327],[21.257044,46.235655],[21.256898,46.236165],[21.256761,46.2366],[21.256633,46.237003],[21.256563,46.237213],[21.256497,46.237444],[21.256413,46.23776],[21.256348,46.238081],[21.256311,46.238296],[21.256265,46.238609],[21.256222,46.238933],[21.256177,46.239268],[21.256136,46.239574],[21.256127,46.239739],[21.256124,46.239919],[21.256124,46.240096],[21.256136,46.240239],[21.256156,46.240366],[21.256173,46.240458],[21.256187,46.240528],[21.256211,46.2406],[21.25625,46.240709],[21.256376,46.240966],[21.256446,46.241115],[21.256547,46.241315],[21.256796,46.241777],[21.25685,46.241875],[21.257004,46.24213],[21.257074,46.242264],[21.257229,46.24255],[21.257378,46.242839],[21.257518,46.243134],[21.257613,46.243333],[21.257707,46.243538]]},"properties":{"name":"DJ790"}},{"type":"Feature","geometry":{"type":"LineString","coordinates":[[21.259895,46.248348],[21.260086,46.248776],[21.260122,46.248861],[21.260519,46.249722],[21.2609,46.250555],[21.261117,46.25104],[21.261295,46.251441],[21.261505,46.251858],[21.261656,46.252182],[21.261737,46.252369],[21.261786,46.252477],[21.261853,46.252607]]},"properties":{"name":"DJ790"}},{"type":"Feature","geometry":{"type":"LineString","coordinates":[[21.257707,46.243538],[21.258192,46.244689],[21.258675,46.245834],[21.258701,46.245894],[21.258883,46.246291],[21.259895,46.248348]]},"properties":{"name":"Relocare"}},{"type":"Feature","geometry":{"type":"LineString","coordinates":[[21.34756,46.175465],[21.347476,46.175461],[21.347417,46.175455],[21.347338,46.175444]]},"properties":{"name":"Strada Doctor Cornel Radu"}},{"type":"Feature","geometry":{"type":"LineString","coordinates":[[21.351727,46.172036],[21.351721,46.172019],[21.351686,46.171946],[21.351529,46.17162],[21.351504,46.171574],[21.351446,46.171465],[21.35126,46.171074],[21.350989,46.170513]]},"properties":{"name":"Strada Zalău"}},{"type":"Feature","geometry":{"type":"LineString","coordinates":[[21.350989,46.170513],[21.351535,46.170395],[21.351585,46.170383],[21.352418,46.1702]]},"properties":{"name":"Strada Sighișoara"}},{"type":"Feature","geometry":{"type":"LineString","coordinates":[[21.352418,46.1702],[21.352384,46.170127],[21.352075,46.169451],[21.351914,46.169128],[21.351737,46.168747],[21.351714,46.168698],[21.351401,46.168034],[21.351039,46.167193],[21.351035,46.167165],[21.351045,46.167127]]},"properties":{"name":"Strada Felix"}},{"type":"Feature","geometry":{"type":"LineString","coordinates":[[21.351045,46.167127],[21.351077,46.167099],[21.351109,46.167082],[21.351892,46.16691],[21.352645,46.166744],[21.353196,46.166625],[21.354671,46.166308],[21.355816,46.166072]]},"properties":{"name":"Strada Frăției"}},{"type":"Feature","geometry":{"type":"LineString","coordinates":[[21.366962,46.168676],[21.367111,46.168736],[21.367249,46.168755],[21.367381,46.168745],[21.368453,46.168559],[21.36868,46.16852],[21.369298,46.168413],[21.369777,46.168335],[21.369822,46.168335],[21.369862,46.168341],[21.369902,46.168357],[21.369934,46.168389],[21.369975,46.168432],[21.369991,46.168516],[21.37095,46.171323],[21.371007,46.171496],[21.37124,46.172206]]},"properties":{"name":"Strada Radu Pancu"}},{"type":"Feature","geometry":{"type":"LineString","coordinates":[[21.368121,46.17277],[21.368088,46.172668],[21.367938,46.172223],[21.367872,46.172046],[21.367804,46.171852],[21.367678,46.171505],[21.367501,46.171033],[21.367157,46.170085],[21.366979,46.169565],[21.366897,46.169299],[21.366853,46.169232],[21.366784,46.169162],[21.366737,46.169119],[21.366692,46.169078]]},"properties":{"name":"Strada Aurel Crișan"}},{"type":"Feature","geometry":{"type":"LineString","coordinates":[[21.321712,46.155911],[21.321646,46.155911],[21.321625,46.15591],[21.32161,46.15591],[21.320925,46.1559],[21.320244,46.155841],[21.319686,46.155776],[21.318576,46.155655],[21.317914,46.15559],[21.316982,46.15549],[21.316691,46.155465],[21.316308,46.155479],[21.316216,46.155479],[21.316103,46.155464],[21.31506,46.155293],[21.313549,46.155025],[21.313441,46.155008],[21.312904,46.15491],[21.312418,46.154811],[21.311754,46.154672],[21.311179,46.154552],[21.309407,46.154231],[21.308855,46.154135],[21.308791,46.154118],[21.30875,46.154085]]},"properties":{"name":"Strada Posada"}},{"type":"Feature","geometry":{"type":"LineString","coordinates":[[21.309019,46.152875],[21.308848,46.152878],[21.308692,46.152869],[21.308502,46.152844],[21.308323,46.15281],[21.30815,46.15276],[21.307939,46.152677],[21.306958,46.152204],[21.306415,46.151949],[21.306141,46.151814]]},"properties":{"name":"Strada Constituției"}},{"type":"Feature","geometry":{"type":"LineString","coordinates":[[21.306958,46.152204],[21.306924,46.152288],[21.306897,46.152354],[21.306581,46.153186],[21.306418,46.153579],[21.30636,46.153641],[21.306262,46.153693],[21.305108,46.153873],[21.303297,46.154123],[21.29904,46.154728],[21.298922,46.154745]]},"properties":{"name":"Strada Câmpia Turzii"}},{"type":"Feature","geometry":{"type":"LineString","coordinates":[[21.298385,46.153044],[21.298646,46.153871],[21.298678,46.15397],[21.298922,46.154745]]},"properties":{"name":"Strada Economului"}},{"type":"Feature","geometry":{"type":"LineString","coordinates":[[21.306141,46.151814],[21.306068,46.151877],[21.30599,46.151912],[21.305913,46.151928],[21.302751,46.152397],[21.298385,46.153044]]},"properties":{"name":"Strada Coloniștilor"}},{"type":"Feature","geometry":{"type":"LineString","coordinates":[[21.321772,46.153862],[21.321859,46.153862],[21.32192,46.153862],[21.321997,46.153862]]},"properties":{"name":"Strada Cibinului"}},{"type":"Feature","geometry":{"type":"LineString","coordinates":[[21.321215,46.141026],[21.321094,46.141038],[21.31778,46.141082],[21.315216,46.141117],[21.312441,46.141172],[21.31231,46.14117],[21.311262,46.141192],[21.311171,46.141193],[21.311021,46.141194],[21.310766,46.141182],[21.310559,46.141182],[21.310472,46.141185],[21.310418,46.141192],[21.310328,46.141214],[21.310087,46.141291],[21.309961,46.14134]]},"properties":{"name":"Strada Ogorului"}},{"type":"Feature","geometry":{"type":"LineString","coordinates":[[21.311021,46.141194],[21.310767,46.14122],[21.310614,46.141229],[21.310484,46.141248],[21.310373,46.141283],[21.310285,46.141327],[21.310237,46.141377],[21.310204,46.141446]]},"properties":{"name":"Strada Ogorului"}},{"type":"Feature","geometry":{"type":"LineString","coordinates":[[21.299617,46.162333],[21.299507,46.162256],[21.299398,46.162159],[21.299244,46.162033],[21.299177,46.16196],[21.299116,46.161887],[21.299055,46.161774],[21.299019,46.161707],[21.298985,46.161597],[21.298969,46.16146],[21.298964,46.161301],[21.298925,46.161112],[21.299018,46.158455],[21.29909,46.158277],[21.299075,46.157973],[21.299042,46.15766],[21.299007,46.157225],[21.299004,46.15705],[21.299031,46.156902],[21.299084,46.156605],[21.29921,46.156047],[21.299221,46.155961],[21.299227,46.155869],[21.299222,46.155766],[21.299176,46.155523],[21.298922,46.154745]]},"properties":{"name":"Podul Andrei Șaguna"}},{"type":"Feature","geometry":{"type":"LineString","coordinates":[[21.311171,46.141193],[21.311174,46.141288],[21.311194,46.141896],[21.311198,46.142009],[21.311237,46.143191],[21.311292,46.143942],[21.311307,46.144205],[21.311308,46.144453],[21.311294,46.14454],[21.311278,46.144576],[21.31125,46.144607],[21.311211,46.144629],[21.311153,46.144646],[21.310917,46.144673],[21.310313,46.144707],[21.310057,46.144724],[21.308628,46.14481],[21.307609,46.144835],[21.307508,46.144853],[21.30744,46.144877],[21.307414,46.144891],[21.307397,46.14491],[21.307375,46.144959],[21.307373,46.145021],[21.307515,46.145837],[21.307531,46.14593],[21.307702,46.146943],[21.307718,46.147098],[21.307714,46.147201],[21.307697,46.148885],[21.307686,46.149013],[21.307658,46.14913],[21.307581,46.149256],[21.307483,46.149364],[21.307354,46.149466],[21.307205,46.149555],[21.306893,46.149726],[21.306807,46.149801],[21.306758,46.149858],[21.306711,46.149954],[21.306691,46.150049],[21.306445,46.151736],[21.306427,46.151847],[21.306415,46.151949]]},"properties":{"name":"Strada Constantin Ticu Dumitrescu"}},{"type":"Feature","geometry":{"type":"LineString","coordinates":[[21.334099,46.195095],[21.334242,46.195026],[21.334273,46.195011],[21.335109,46.194612],[21.335157,46.194588],[21.335352,46.194491],[21.335649,46.194343],[21.3365,46.193916],[21.337565,46.193362],[21.337644,46.193322],[21.338486,46.19289],[21.33892,46.192665],[21.339133,46.192552],[21.339332,46.192443],[21.339393,46.192403],[21.341773,46.190382],[21.342693,46.189604],[21.342764,46.189533],[21.342813,46.18946],[21.342856,46.189365]]},"properties":{"name":"Strada Ioan Budai Deleanu"}},{"type":"Feature","geometry":{"type":"LineString","coordinates":[[21.342856,46.189365],[21.342373,46.18826],[21.342245,46.187994],[21.342003,46.187479],[21.341598,46.186633],[21.341141,46.185646],[21.341132,46.185617],[21.341131,46.185579],[21.341138,46.185524],[21.34116,46.185472],[21.341229,46.185353]]},"properties":{"name":"Strada Orient"}},{"type":"Feature","geometry":{"type":"LineString","coordinates":[[21.341229,46.185353],[21.34126,46.18533],[21.341313,46.18531],[21.342433,46.185305],[21.343417,46.185289],[21.343854,46.185281],[21.344475,46.185285],[21.345116,46.185308],[21.346226,46.185376],[21.347002,46.185479],[21.347991,46.185616],[21.348462,46.185692],[21.349165,46.185806],[21.349361,46.185861],[21.349583,46.18594],[21.349736,46.186]]},"properties":{"name":"Strada Cometei"}},{"type":"Feature","geometry":{"type":"LineString","coordinates":[[21.339655,46.185674],[21.341366,46.186587],[21.341443,46.186619],[21.341479,46.186626],[21.341528,46.186632],[21.341598,46.186633]]},"properties":{"name":"Strada Gelu"}},{"type":"Feature","geometry":{"type":"LineString","coordinates":[[21.339655,46.185674],[21.338969,46.18632],[21.338112,46.187141],[21.337272,46.187953],[21.336544,46.18865],[21.335908,46.189254],[21.335558,46.189592],[21.33515,46.189967],[21.33438,46.190323],[21.333151,46.190865],[21.332368,46.191221],[21.330902,46.191887],[21.330862,46.191904],[21.330698,46.191971]]},"properties":{"name":"Strada Războieni"}},{"type":"Feature","geometry":{"type":"LineString","coordinates":[[21.30338,46.16942],[21.301477,46.169377],[21.299368,46.16933],[21.29777,46.169294],[21.297068,46.169278],[21.294714,46.169225],[21.292739,46.169186],[21.292171,46.169174],[21.292071,46.169172],[21.292003,46.169171],[21.291822,46.169169]]},"properties":{"name":"Strada Dorobanților"}},{"type":"Feature","geometry":{"type":"LineString","coordinates":[[21.291822,46.169169],[21.291677,46.169168],[21.291633,46.169169],[21.291552,46.169166],[21.291508,46.169166],[21.291457,46.169165],[21.291375,46.169164],[21.291327,46.169164],[21.291255,46.169163],[21.291103,46.16916],[21.290928,46.169156],[21.289535,46.169128],[21.288408,46.169102],[21.288016,46.169091],[21.287071,46.169068],[21.286541,46.169055],[21.286377,46.16905],[21.286154,46.169046],[21.285609,46.169034],[21.285181,46.169024],[21.284209,46.169001],[21.283873,46.168991],[21.283229,46.168977],[21.282725,46.168966],[21.282223,46.168958],[21.282181,46.168957]]},"properties":{"name":"Calea Bodrogului"}},{"type":"Feature","geometry":{"type":"LineString","coordinates":[[21.281175,46.169127],[21.281192,46.169102],[21.281211,46.16908],[21.281238,46.169057],[21.281277,46.169036],[21.281325,46.169021],[21.281389,46.169008],[21.281477,46.168995],[21.281557,46.168988],[21.28166,46.168981],[21.282036,46.168973],[21.282103,46.168967],[21.282181,46.168957],[21.282108,46.16894],[21.282041,46.168929],[21.281893,46.168918],[21.281681,46.168916],[21.281586,46.168917],[21.281465,46.168927],[21.281325,46.168947],[21.281256,46.16896],[21.281223,46.168963],[21.281198,46.168965],[21.281169,46.168964],[21.281133,46.168962],[21.281084,46.168956]]},"properties":{"name":"Calea Bodrogului"}},{"type":"Feature","geometry":{"type":"LineString","coordinates":[[21.280569,46.169068],[21.280526,46.169008],[21.280493,46.168973],[21.280468,46.168956],[21.280451,46.168948],[21.280434,46.168941],[21.280396,46.168934],[21.280341,46.168929],[21.280248,46.168924],[21.280116,46.168912],[21.279982,46.168902],[21.279765,46.168882]]},"properties":{"name":"Calea Bodrogului"}},{"type":"Feature","geometry":{"type":"LineString","coordinates":[[21.267569,46.16864],[21.268534,46.168666],[21.269014,46.168695],[21.26926,46.168687],[21.269522,46.168694],[21.275525,46.168797],[21.277303,46.168827],[21.277518,46.168831],[21.278563,46.168855],[21.279378,46.168874],[21.279765,46.168882],[21.279985,46.168874],[21.280243,46.168861],[21.280357,46.168861],[21.280424,46.168861],[21.280486,46.168867],[21.280528,46.168874],[21.280588,46.168888],[21.280723,46.168922]]},"properties":{"name":"Calea Bodrogului"}},{"type":"Feature","geometry":{"type":"LineString","coordinates":[[21.267569,46.16864],[21.262806,46.168538],[21.258623,46.168478],[21.257733,46.168453],[21.253688,46.168377],[21.246429,46.168221],[21.244935,46.168194],[21.242925,46.168156],[21.24289,46.16922],[21.242857,46.17018],[21.242838,46.170915],[21.242823,46.171053],[21.242782,46.171114],[21.242722,46.171171],[21.242658,46.171194],[21.242562,46.171214],[21.242377,46.171215],[21.241314,46.171194],[21.240219,46.171174],[21.239174,46.171157],[21.238158,46.171169],[21.238074,46.17117],[21.238074,46.171232],[21.238073,46.17142],[21.23805,46.17193],[21.23804,46.172347]]},"properties":{"name":"DJ682F"}},{"type":"Feature","geometry":{"type":"LineString","coordinates":[[21.288674,46.214015],[21.287894,46.213677],[21.287388,46.213465],[21.287102,46.213345],[21.286877,46.213263],[21.286655,46.213195],[21.286292,46.213093],[21.28601,46.213016],[21.28327,46.212244]]},"properties":{"name":"Strada Tribunul Corcheș"}},{"type":"Feature","geometry":{"type":"LineString","coordinates":[[21.279572,46.217257],[21.279633,46.217263],[21.279698,46.217255],[21.279763,46.217225],[21.280084,46.216967],[21.280593,46.216545],[21.280772,46.216398],[21.281218,46.216032],[21.281341,46.215932],[21.281404,46.21588],[21.281574,46.215718],[21.281741,46.21551],[21.281882,46.215285],[21.28203,46.214983],[21.282302,46.214383],[21.282534,46.213871],[21.282581,46.213768],[21.28286,46.213151],[21.283191,46.212415],[21.283212,46.21237],[21.283233,46.212324],[21.28327,46.212244]]},"properties":{"name":"Strada Fagului"}},{"type":"Feature","geometry":{"type":"LineString","coordinates":[[21.279572,46.217257],[21.279248,46.217193],[21.278448,46.217032],[21.278297,46.217013],[21.278138,46.217004],[21.278009,46.217006],[21.277681,46.217026],[21.276379,46.21709],[21.276155,46.21709],[21.276072,46.217086],[21.275986,46.217075],[21.275803,46.21704],[21.27468,46.21681],[21.274383,46.216738],[21.273552,46.216521],[21.27206,46.216133],[21.269581,46.215486]]},"properties":{"name":"Strada Ion Creangă"}},{"type":"Feature","geometry":{"type":"LineString","coordinates":[[21.271024,46.212811],[21.269581,46.215486]]},"properties":{"name":"Strada Faurilor"}},{"type":"Feature","geometry":{"type":"LineString","coordinates":[[21.271024,46.212811],[21.271166,46.212844],[21.273455,46.21348],[21.275735,46.214112]]},"properties":{"name":"Strada Anton Pann"}},{"type":"Feature","geometry":{"type":"LineString","coordinates":[[21.275735,46.214112],[21.276286,46.213026],[21.277237,46.211163],[21.277411,46.21082],[21.277473,46.210706],[21.277504,46.210647],[21.277552,46.21056],[21.27756,46.210546],[21.277975,46.209777],[21.278709,46.208318],[21.279094,46.207623],[21.279538,46.206733],[21.280179,46.205531]]},"properties":{"name":"Strada Dunării"}},{"type":"Feature","geometry":{"type":"LineString","coordinates":[[21.270509,46.20288],[21.273116,46.203572],[21.275556,46.204248],[21.277574,46.204801],[21.28012,46.205513],[21.280179,46.205531]]},"properties":{"name":"Strada Bogdan Voievod I"}},{"type":"Feature","geometry":{"type":"LineString","coordinates":[[21.269192,46.205268],[21.270509,46.20288]]},"properties":{"name":"Strada Nouă"}},{"type":"Feature","geometry":{"type":"LineString","coordinates":[[21.269192,46.205268],[21.271806,46.206015]]},"properties":{"name":"Strada Concordiei"}},{"type":"Feature","geometry":{"type":"LineString","coordinates":[[21.273116,46.203572],[21.271806,46.206015]]},"properties":{"name":"Strada Fântânei"}},{"type":"Feature","geometry":{"type":"LineString","coordinates":[[21.593733,46.156232],[21.5937,46.156382],[21.593689,46.15642]]},"properties":{"name":"Miniș-Ghioroc"}},{"type":"Feature","geometry":{"type":"LineString","coordinates":[[21.593456,46.15566],[21.593498,46.155686],[21.593528,46.155707],[21.593553,46.15573],[21.593575,46.155751],[21.593598,46.155778],[21.593621,46.155811],[21.593647,46.155855],[21.593666,46.155905],[21.593677,46.155943],[21.593688,46.155992],[21.593694,46.156036],[21.5937,46.156085],[21.593733,46.156232]]},"properties":{"name":"Sâmbăteni-Ghioroc"}},{"type":"Feature","geometry":{"type":"LineString","coordinates":[[21.593456,46.15566],[21.593437,46.15565],[21.593404,46.155639],[21.59337,46.155631],[21.593328,46.15562],[21.593283,46.155611],[21.593213,46.155602],[21.593112,46.155594],[21.592984,46.155585],[21.591576,46.155563],[21.590875,46.155548],[21.590804,46.155546],[21.590732,46.155541],[21.590662,46.155534],[21.590361,46.155502],[21.589999,46.155461],[21.589586,46.155417],[21.589325,46.155391],[21.588946,46.155354],[21.588422,46.155304],[21.588111,46.155273],[21.588027,46.155264],[21.587809,46.155228],[21.587401,46.155191],[21.586968,46.155157],[21.586733,46.155131],[21.586619,46.155116],[21.586569,46.155104],[21.586498,46.155085],[21.586403,46.155055],[21.586328,46.155029],[21.586307,46.155021],[21.586287,46.155014],[21.586145,46.154959],[21.586067,46.154928],[21.585491,46.154684],[21.585232,46.154593],[21.584677,46.154424],[21.584438,46.154361],[21.584375,46.154345],[21.584331,46.154335],[21.584162,46.154306],[21.584085,46.154294],[21.584018,46.154285],[21.583951,46.154279],[21.583422,46.154253],[21.58282,46.154225],[21.579707,46.154064],[21.579656,46.154061],[21.57945,46.154046],[21.579225,46.154031],[21.579115,46.154019],[21.579025,46.154015],[21.57882,46.154004],[21.578499,46.153983],[21.578073,46.153957],[21.577292,46.153906],[21.576489,46.153859],[21.575743,46.153807],[21.575329,46.153783],[21.574895,46.153747],[21.574667,46.153725],[21.57448,46.15371],[21.574287,46.153686],[21.573979,46.153643],[21.573812,46.153614],[21.573635,46.153584],[21.573521,46.153563],[21.573105,46.153476],[21.572811,46.153414],[21.572543,46.15335],[21.572105,46.153254],[21.571531,46.153123],[21.570966,46.152997],[21.570081,46.152808],[21.568359,46.152432],[21.567805,46.152309],[21.567114,46.152164],[21.566397,46.152001],[21.565011,46.151699],[21.562245,46.151103],[21.5619,46.151028],[21.561569,46.150957],[21.561314,46.150902],[21.561077,46.150844],[21.560866,46.150788],[21.560666,46.150727],[21.560538,46.150688],[21.560417,46.15065],[21.56033,46.15062],[21.560261,46.150597],[21.560061,46.150541],[21.559877,46.150489],[21.559681,46.150441],[21.559426,46.150378],[21.559166,46.150326],[21.558889,46.150275],[21.558471,46.150198],[21.558077,46.150126],[21.557527,46.150023],[21.557039,46.149936],[21.556577,46.149854],[21.556443,46.149831],[21.55631,46.149813],[21.556076,46.149784],[21.555757,46.149748],[21.555121,46.149676],[21.554472,46.149604],[21.554315,46.149587],[21.554181,46.149569],[21.554083,46.149553],[21.553981,46.149539],[21.553862,46.149511],[21.553636,46.14946],[21.552881,46.14928],[21.552123,46.149097],[21.551798,46.14901],[21.551665,46.148971],[21.551536,46.148928],[21.5513,46.148833],[21.551112,46.148751],[21.550882,46.148642],[21.550541,46.148478],[21.550182,46.148296],[21.549487,46.147945],[21.548242,46.147319],[21.547006,46.146713],[21.546311,46.146362],[21.54541,46.145899],[21.543935,46.145165],[21.543477,46.14493],[21.543041,46.144717],[21.542022,46.144204],[21.541069,46.143728],[21.540056,46.143217],[21.539033,46.142709],[21.537873,46.142124],[21.537012,46.141687],[21.536706,46.141531],[21.536337,46.141353],[21.535942,46.141156],[21.535822,46.141101],[21.534786,46.140583],[21.533758,46.140055],[21.532818,46.13958],[21.53234,46.139336],[21.532086,46.139207],[21.531904,46.13911],[21.531806,46.139061]]},"properties":{"name":"DJ708C"}},{"type":"Feature","geometry":{"type":"LineString","coordinates":[[21.531806,46.139061],[21.531727,46.139029],[21.53165,46.138972],[21.531472,46.138804],[21.531443,46.138641],[21.531612,46.138758],[21.531676,46.138862],[21.53173,46.138946],[21.531779,46.139016],[21.531806,46.139061]]},"properties":{"name":"DJ708C"}},{"type":"Feature","geometry":{"type":"LineString","coordinates":[[21.531443,46.138641],[21.530163,46.139123],[21.529518,46.139366],[21.528906,46.139595],[21.528556,46.139725],[21.528157,46.139876],[21.527423,46.140148],[21.527154,46.140248],[21.527101,46.140268],[21.526733,46.140387],[21.526385,46.140491],[21.526034,46.140586],[21.525834,46.140637],[21.525682,46.14067],[21.525391,46.140731],[21.525291,46.140754],[21.524194,46.140942],[21.523795,46.141011],[21.523376,46.141082],[21.52269,46.14121],[21.522565,46.141233],[21.522328,46.141288],[21.522044,46.14136],[21.521559,46.141487],[21.521159,46.141595],[21.520748,46.141706],[21.520337,46.141816],[21.519631,46.142024],[21.519374,46.142113],[21.51909,46.142214],[21.518325,46.142492],[21.518137,46.142561],[21.517477,46.142799],[21.516734,46.143065],[21.515281,46.143586],[21.514744,46.143771],[21.514192,46.14396],[21.51361,46.144156],[21.512925,46.144379],[21.512556,46.144496],[21.51222,46.144611],[21.511668,46.144772],[21.511359,46.144847],[21.510999,46.144919],[21.510809,46.144948],[21.510627,46.144972],[21.510429,46.144987],[21.510116,46.145005],[21.509873,46.145009],[21.509535,46.145022],[21.50902,46.145031],[21.507947,46.145059],[21.506282,46.145099],[21.498383,46.145318],[21.49481,46.145426],[21.494716,46.145429],[21.494644,46.145431],[21.49194,46.145506],[21.490455,46.145548],[21.489493,46.145575],[21.489124,46.145583],[21.488736,46.145598],[21.488463,46.145606],[21.488149,46.145614],[21.487557,46.145632],[21.48705,46.145647],[21.486451,46.145664],[21.485327,46.1457],[21.48393,46.145755],[21.482496,46.14581],[21.481501,46.145846],[21.480459,46.145886],[21.479711,46.145914],[21.479103,46.145936],[21.478037,46.145974],[21.476901,46.146018],[21.475927,46.146055],[21.475028,46.146088],[21.474347,46.146128],[21.474137,46.146146],[21.473892,46.14617],[21.473658,46.146198],[21.473397,46.146232],[21.473097,46.146277],[21.472865,46.146314],[21.472611,46.146359],[21.472445,46.14639],[21.472338,46.146411],[21.472048,46.14647],[21.47142,46.146618],[21.471368,46.146629],[21.470381,46.146857],[21.469336,46.147102],[21.468761,46.147236],[21.46804,46.147399],[21.46732,46.147568],[21.466676,46.147726],[21.466625,46.147738],[21.465342,46.148044],[21.463972,46.148375],[21.463049,46.148593],[21.462195,46.148797],[21.461269,46.14902],[21.46035,46.149237],[21.459614,46.149416],[21.458723,46.149637],[21.45865,46.149655],[21.458633,46.149659],[21.457155,46.15001],[21.456184,46.150242],[21.456115,46.150258],[21.454544,46.150627],[21.453272,46.150932],[21.451996,46.151235],[21.45099,46.151472],[21.449557,46.151812],[21.448392,46.15209],[21.44713,46.152397],[21.445682,46.152751],[21.44412,46.153122],[21.443116,46.153369],[21.441941,46.153648],[21.440567,46.153977],[21.438997,46.154356],[21.437696,46.154665],[21.436407,46.154976],[21.435153,46.155278],[21.434246,46.155506],[21.433344,46.155724],[21.432421,46.155957],[21.431274,46.156236],[21.430676,46.156364],[21.430504,46.156404]]},"properties":{"name":"DN7"}},{"type":"Feature","geometry":{"type":"LineString","coordinates":[[21.429831,46.156545],[21.429997,46.156494],[21.430194,46.15646],[21.430504,46.156404],[21.430202,46.15641],[21.429974,46.156395],[21.429829,46.156362]]},"properties":{"name":"DN7"}},{"type":"Feature","geometry":{"type":"LineString","coordinates":[[21.42934,46.156643],[21.429109,46.1567],[21.428869,46.156785],[21.428619,46.156849],[21.428934,46.156691],[21.429079,46.156613],[21.429207,46.156512]]},"properties":{"name":"DN7"}},{"type":"Feature","geometry":{"type":"LineString","coordinates":[[21.428619,46.156849],[21.426159,46.15747],[21.424823,46.157801],[21.424491,46.157884],[21.423468,46.158138],[21.423312,46.158176],[21.420909,46.15878],[21.420813,46.158803],[21.418461,46.159413],[21.417421,46.159688],[21.416569,46.159919]]},"properties":{"name":"DN7"}},{"type":"Feature","geometry":{"type":"LineString","coordinates":[[21.416569,46.159919],[21.415883,46.160104],[21.415593,46.160182],[21.414336,46.16051],[21.413081,46.160846],[21.412598,46.160982],[21.412125,46.161124],[21.412028,46.161156],[21.411408,46.161357],[21.410713,46.16158],[21.409959,46.161822],[21.409294,46.162033],[21.408539,46.162274],[21.407754,46.162524],[21.406965,46.162777],[21.405889,46.163115],[21.404971,46.163416],[21.404915,46.163434],[21.404744,46.163488],[21.403407,46.163906],[21.403273,46.163949],[21.40235,46.16425],[21.401348,46.164574],[21.400391,46.164878],[21.400346,46.164892],[21.399642,46.165107],[21.398694,46.165397],[21.398252,46.165531],[21.397704,46.165698],[21.397378,46.165797],[21.396462,46.166072],[21.395115,46.166477],[21.394292,46.166735],[21.393466,46.166991],[21.393181,46.16708],[21.39309,46.167109],[21.392577,46.16727],[21.392375,46.167333],[21.392031,46.167441],[21.391678,46.167556],[21.391304,46.167675],[21.390931,46.16779],[21.390727,46.167851],[21.390584,46.167873],[21.39042,46.16791],[21.390257,46.167939],[21.390152,46.167955],[21.390044,46.167966],[21.38987,46.167978],[21.38977,46.167975],[21.389686,46.167961],[21.389569,46.167925]]},"properties":{"name":"Strada Progresului"}},{"type":"Feature","geometry":{"type":"LineString","coordinates":[[21.389275,46.168238],[21.389141,46.168278],[21.389065,46.168307],[21.388993,46.168339],[21.388852,46.168405],[21.3887,46.168459],[21.388504,46.168512]]},"properties":{"name":"Strada Progresului"}},{"type":"Feature","geometry":{"type":"LineString","coordinates":[[21.386508,46.169234],[21.38708,46.16903],[21.38714,46.169007],[21.387539,46.16886],[21.387901,46.16873],[21.38816,46.168637],[21.388504,46.168512],[21.388629,46.168432],[21.388743,46.168374],[21.388821,46.16833],[21.388916,46.168267],[21.388966,46.168216],[21.388999,46.16816],[21.389036,46.168086]]},"properties":{"name":"Strada Progresului"}},{"type":"Feature","geometry":{"type":"LineString","coordinates":[[21.390117,46.165841],[21.390213,46.165832],[21.390581,46.165808],[21.390883,46.165778],[21.39132,46.165739],[21.391792,46.165702],[21.391856,46.165697],[21.391958,46.165689],[21.393186,46.165585],[21.39366,46.165657],[21.394037,46.165699]]},"properties":{"name":"Strada Augusta"}},{"type":"Feature","geometry":{"type":"LineString","coordinates":[[21.389825,46.16609],[21.389783,46.166103],[21.389749,46.166119],[21.389727,46.166139],[21.389703,46.166172],[21.389726,46.166446],[21.389729,46.166498],[21.389717,46.166549],[21.389695,46.166602],[21.389645,46.166716],[21.389568,46.166898],[21.389464,46.167142],[21.389447,46.167182],[21.389433,46.167217],[21.389313,46.167527]]},"properties":{"name":"Strada Cetății Orod"}},{"type":"Feature","geometry":{"type":"LineString","coordinates":[[21.389425,46.167845],[21.389383,46.16778],[21.389356,46.167727],[21.389331,46.167626],[21.389313,46.167527],[21.389233,46.167627],[21.389111,46.167895]]},"properties":{"name":"Strada Cetății Orod"}},{"type":"Feature","geometry":{"type":"LineString","coordinates":[[21.386508,46.169234],[21.386415,46.169369],[21.386164,46.169621],[21.382847,46.170844],[21.382575,46.170944],[21.381397,46.171399],[21.38067,46.17172],[21.37968,46.172195],[21.379439,46.172328],[21.379275,46.1724],[21.379013,46.172446],[21.378588,46.17247]]},"properties":{"name":"Deviere DN7"}}]}